{"type":"FeatureCollection","features":[{"type":"Feature","geometry":{"type":"LineString","coordinates":[[-87.6729,42.01907],[-87.66989,42.01658],[-87.66719,42.01422],[-87.66664,42.01356],[-87.6663,42.01298],[-87.66606,42.01228],[-87.66578,42.00619],[-87.66553,42.00526],[-87.66528,42.00467],[-87.66477,42.00382],[-87.66405,42.00309],[-87.66347,42.00265],[-87.66143,42.00137],[-87.6605,42.0006],[-87.65979,41.9997],[-87.65956,41.99923],[-87.65936,41.9985],[-87.65927,41.99799],[-87.65922,41.99633],[-87.65921,41.99367],[-87.65872,41.97968],[-87.65854,41.97346],[-87.6585,41.96915],[-87.65839,41.96689],[-87.65759,41.96428],[-87.657,41.96182],[-87.65672,41.95417],[-87.65635,41.95381],[-87.65408,41.95374],[-87.65386,41.95365],[-87.6537,41.95344],[-87.65363,41.95246],[-87.65363,41.9469],[-87.65352,41.94448],[-87.65343,41.94422],[-87.65337,41.94318],[-87.65346,41.94218],[-87.65337,41.93866],[-87.65297,41.92871],[-87.65249,41.91309],[-87.63972,41.90393],[-87.63896,41.9038],[-87.62892,41.90394],[-87.62867,41.90376],[-87.62863,41.90317],[-87.62835,41.90213],[-87.62748,41.87405],[-87.62746,41.86922],[-87.62731,41.86404],[-87.6274,41.86364],[-87.62779,41.86316],[-87.62935,41.86212],[-87.63059,41.86094],[-87.63113,41.86014],[-87.63142,41.85924],[-87.63142,41.85747],[-87.63128,41.85455],[-87.63086,41.85268],[-87.63069,41.85108],[-87.63073,41.84898],[-87.63116,41.84686],[-87.63128,41.84548],[-87.63087,41.83953],[-87.63019,41.81282],[-87.63022,41.81215],[-87.63039,41.81148],[-87.63152,41.80948],[-87.6317,41.80896],[-87.63181,41.80805],[-87.63135,41.8019],[-87.63101,41.78773],[-87.63113,41.78559],[-87.63094,41.77943],[-87.63065,41.77848],[-87.63005,41.7775],[-87.62955,41.77699],[-87.62751,41.77542],[-87.6267,41.77446],[-87.6262,41.7735],[-87.62601,41.77287],[-87.62593,41.77219],[-87.6257,41.76542],[-87.62554,41.75605],[-87.62521,41.7519],[-87.62483,41.73949],[-87.62442,41.72238]]},"properties":{"kind":"line","system":"CTA L","ref":"Red","name":"Red Line","color":"#C60C30","text_color":"#FFFFFF"}},{"type":"Feature","geometry":{"type":"LineString","coordinates":[[-87.90423,41.97767],[-87.9013,41.98043],[-87.90058,41.98126],[-87.89995,41.98164],[-87.89917,41.98182],[-87.89714,41.98175],[-87.89659,41.98168],[-87.89602,41.98148],[-87.89149,41.97763],[-87.89096,41.97736],[-87.89032,41.97716],[-87.8896,41.97705],[-87.88875,41.97705],[-87.88748,41.97738],[-87.87435,41.98278],[-87.87318,41.98307],[-87.87194,41.9832],[-87.86396,41.98336],[-87.8536,41.98375],[-87.84478,41.98399],[-87.83116,41.98458],[-87.82685,41.98444],[-87.8218,41.9839],[-87.81861,41.98345],[-87.8147,41.98254],[-87.81304,41.98232],[-87.78599,41.98251],[-87.78469,41.98238],[-87.78365,41.98213],[-87.78253,41.98165],[-87.76572,41.97217],[-87.7643,41.97162],[-87.7615,41.97089],[-87.76013,41.97031],[-87.75333,41.96646],[-87.75164,41.96537],[-87.75086,41.96478],[-87.74976,41.9642],[-87.7487,41.96374],[-87.74612,41.96292],[-87.74526,41.96257],[-87.7441,41.96186],[-87.74215,41.96029],[-87.74075,41.95941],[-87.73595,41.95671],[-87.73447,41.95596],[-87.72302,41.94944],[-87.71972,41.94785],[-87.71868,41.94695],[-87.71681,41.9438],[-87.71617,41.94301],[-87.71503,41.94214],[-87.713,41.9411],[-87.71249,41.94047],[-87.71242,41.94015],[-87.7122,41.93243],[-87.71215,41.93208],[-87.71193,41.93183],[-87.70736,41.929],[-87.7064,41.92834],[-87.70471,41.92684],[-87.70396,41.92627],[-87.68737,41.91617],[-87.67104,41.90561],[-87.67015,41.90515],[-87.66828,41.90441],[-87.6665,41.90336],[-87.64572,41.88998],[-87.63994,41.8858],[-87.63945,41.88571],[-87.62982,41.88575],[-87.62953,41.88564],[-87.62947,41.88547],[-87.62923,41.87598],[-87.62929,41.87575],[-87.6297,41.87562],[-87.6518,41.87547],[-87.65787,41.87591],[-87.67395,41.87564],[-87.69831,41.87539],[-87.70082,41.87518],[-87.70826,41.87414],[-87.73319,41.87378],[-87.73422,41.87361],[-87.73504,41.87339],[-87.73788,41.87215],[-87.73977,41.87175],[-87.75892,41.87142],[-87.75979,41.87127],[-87.76238,41.87024],[-87.76385,41.87005],[-87.78252,41.87131],[-87.80152,41.87297],[-87.81045,41.87385],[-87.81371,41.87359],[-87.81411,41.87366],[-87.81502,41.87404],[-87.81732,41.87427]]},"properties":{"kind":"line","system":"CTA L","ref":"Blue","name":"Blue Line","color":"#00A1DE","text_color":"#FFFFFF"}},{"type":"Feature","geometry":{"type":"LineString","coordinates":[[-87.71315,41.96794],[-87.71309,41.9663],[-87.71299,41.96616],[-87.71269,41.96605],[-87.68851,41.96626],[-87.67767,41.96643],[-87.67696,41.96639],[-87.67639,41.96624],[-87.6757,41.9658],[-87.67545,41.96548],[-87.67523,41.96492],[-87.67467,41.94514],[-87.67451,41.94456],[-87.6743,41.94424],[-87.67368,41.94387],[-87.67264,41.94369],[-87.6591,41.94392],[-87.65767,41.94392],[-87.65522,41.94395],[-87.65442,41.94375],[-87.65401,41.94343],[-87.65356,41.94269],[-87.65346,41.94218],[-87.65297,41.92871],[-87.65287,41.92506],[-87.65275,41.92114],[-87.65255,41.91563],[-87.65251,41.91407],[-87.65243,41.91377],[-87.65208,41.9134],[-87.65093,41.91261],[-87.64972,41.91172],[-87.64921,41.91153],[-87.64792,41.91152],[-87.64756,41.91139],[-87.64741,41.91113],[-87.64734,41.91062],[-87.64719,41.91045],[-87.64697,41.91037],[-87.63814,41.91043],[-87.63772,41.91035],[-87.63737,41.91012],[-87.63726,41.90952],[-87.63723,41.90875],[-87.63719,41.90758],[-87.63711,41.90544],[-87.63701,41.90335],[-87.63689,41.903],[-87.6366,41.90266],[-87.63646,41.90236],[-87.63648,41.90212],[-87.63671,41.9012],[-87.63655,41.89738],[-87.63641,41.89716],[-87.63635,41.89709],[-87.63584,41.89668],[-87.63569,41.89646],[-87.63565,41.89543],[-87.63563,41.89434],[-87.63559,41.89261],[-87.63554,41.89148],[-87.63553,41.89052],[-87.63549,41.89031],[-87.63533,41.89013],[-87.63508,41.89002],[-87.63447,41.88989],[-87.63425,41.8898],[-87.634,41.88943],[-87.63396,41.88708],[-87.63386,41.8827],[-87.63385,41.88145],[-87.6337,41.87707],[-87.63359,41.87691],[-87.63338,41.87685],[-87.62604,41.87697],[-87.62627,41.88563],[-87.62662,41.88575],[-87.63392,41.88573],[-87.63398,41.88898],[-87.634,41.88943],[-87.63403,41.88953],[-87.63425,41.8898],[-87.63447,41.88989],[-87.63494,41.88998],[-87.63508,41.89002],[-87.63525,41.89008],[-87.63533,41.89013],[-87.63549,41.89031],[-87.63553,41.89052],[-87.63569,41.89646],[-87.63584,41.89668],[-87.63641,41.89716],[-87.63655,41.89738],[-87.63671,41.9012],[-87.63646,41.90236],[-87.6366,41.90266],[-87.63689,41.903],[-87.63701,41.90335],[-87.63726,41.90952],[-87.63737,41.91012],[-87.63772,41.91035],[-87.63814,41.91043],[-87.64697,41.91037],[-87.64719,41.91045],[-87.64734,41.91062],[-87.64741,41.91113],[-87.64756,41.91139],[-87.64792,41.91152],[-87.64921,41.91153],[-87.64972,41.91172],[-87.65208,41.9134],[-87.65243,41.91377],[-87.65251,41.91407],[-87.65275,41.92114],[-87.65287,41.92506],[-87.65297,41.92871],[-87.65346,41.94218],[-87.65352,41.94258],[-87.65356,41.94269],[-87.65367,41.94293],[-87.65401,41.94343],[-87.65425,41.94365],[-87.65442,41.94375],[-87.6547,41.94387],[-87.65504,41.94394],[-87.65522,41.94395],[-87.6555,41.94395],[-87.6591,41.94392],[-87.66362,41.94382]]},"properties":{"kind":"line","system":"CTA L","ref":"Brown","name":"Brown Line","color":"#62361B","text_color":"#FFFFFF"}},{"type":"Feature","geometry":{"type":"MultiLineString","coordinates":[[[-87.66385,41.77896],[-87.64639,41.77922],[-87.64541,41.77904],[-87.6396,41.77909],[-87.63565,41.77915],[-87.63354,41.77931],[-87.6331,41.77949],[-87.63219,41.7802],[-87.63202,41.78046],[-87.63204,41.78614],[-87.63191,41.78642],[-87.6317,41.7866],[-87.63122,41.78676],[-87.62942,41.78683],[-87.61874,41.78698],[-87.61844,41.78705],[-87.61818,41.7873],[-87.61815,41.78931],[-87.61861,41.8058],[-87.61877,41.80676],[-87.61917,41.82134],[-87.61936,41.82168],[-87.61975,41.82183],[-87.62517,41.82179],[-87.62555,41.82199],[-87.62567,41.82247],[-87.62641,41.85333],[-87.62649,41.85808],[-87.62642,41.85877],[-87.6266,41.86741],[-87.62681,41.8739],[-87.62669,41.87433],[-87.62602,41.87527],[-87.62598,41.8757],[-87.62631,41.88567],[-87.62662,41.88575],[-87.64395,41.88571],[-87.66415,41.88539],[-87.67082,41.88521],[-87.70132,41.88403],[-87.75327,41.88705],[-87.75532,41.88718],[-87.75782,41.88751],[-87.80318,41.88686]],[[-87.60586,41.78032],[-87.61751,41.78006],[-87.61782,41.78015],[-87.61794,41.78036],[-87.61802,41.78477],[-87.61815,41.7874]]]},"properties":{"kind":"line","system":"CTA L","ref":"Green","name":"Green Line","color":"#009B3A","text_color":"#FFFFFF"}},{"type":"Feature","geometry":{"type":"LineString","coordinates":[[-87.73796,41.78662],[-87.73816,41.79271],[-87.73806,41.79323],[-87.73772,41.79381],[-87.73697,41.79455],[-87.7362,41.79509],[-87.73479,41.79583],[-87.72446,41.7999],[-87.71814,41.80262],[-87.71575,41.80358],[-87.71413,41.80403],[-87.71253,41.80424],[-87.68241,41.8047],[-87.68181,41.80477],[-87.68104,41.80497],[-87.68017,41.80553],[-87.6797,41.80618],[-87.67954,41.80694],[-87.67973,41.81426],[-87.68001,41.81569],[-87.68037,41.81656],[-87.68171,41.8186],[-87.68596,41.82463],[-87.68614,41.82499],[-87.68622,41.82544],[-87.68604,41.82611],[-87.68548,41.82667],[-87.6843,41.8273],[-87.67476,41.83315],[-87.66785,41.8379],[-87.66625,41.8389],[-87.6578,41.84295],[-87.65434,41.84464],[-87.65265,41.84524],[-87.6501,41.84599],[-87.64654,41.84769],[-87.64514,41.84819],[-87.64282,41.84882],[-87.64123,41.84959],[-87.64015,41.85031],[-87.63657,41.85433],[-87.63595,41.85496],[-87.63358,41.85685],[-87.63252,41.85733],[-87.63159,41.85755],[-87.63076,41.85764],[-87.62742,41.85773],[-87.627,41.85784],[-87.6266,41.85807],[-87.62648,41.85825],[-87.62642,41.85877],[-87.6266,41.86741],[-87.62672,41.86998],[-87.62681,41.8739],[-87.62669,41.87433],[-87.62623,41.87491],[-87.62602,41.87527],[-87.62604,41.87697],[-87.63338,41.87685],[-87.63365,41.87696],[-87.63385,41.88145],[-87.63392,41.88573],[-87.62662,41.88575],[-87.62631,41.88567],[-87.62598,41.8757],[-87.62602,41.87527],[-87.62669,41.87433],[-87.62681,41.8739],[-87.6266,41.86741],[-87.62642,41.85877],[-87.62648,41.85825],[-87.62655,41.85813],[-87.6266,41.85807],[-87.6267,41.85799],[-87.62683,41.85792],[-87.627,41.85784],[-87.62713,41.8578],[-87.62742,41.85773],[-87.63076,41.85764],[-87.63131,41.8576],[-87.63159,41.85755],[-87.63198,41.85747],[-87.63252,41.85733],[-87.63306,41.85712],[-87.63358,41.85685],[-87.63398,41.85658],[-87.63595,41.85496],[-87.64015,41.85031],[-87.64123,41.84959],[-87.64282,41.84882],[-87.64514,41.84819],[-87.64654,41.84769],[-87.6501,41.84599],[-87.65265,41.84524],[-87.65434,41.84464],[-87.66537,41.83934]]},"properties":{"kind":"line","system":"CTA L","ref":"Orange","name":"Orange Line","color":"#F9461C","text_color":"#FFFFFF"}},{"type":"Feature","geometry":{"type":"MultiLineString","coordinates":[[[-87.69074,42.07316],[-87.68892,42.07013],[-87.68731,42.067],[-87.68382,42.06087],[-87.68343,42.05964],[-87.68334,42.05795],[-87.68353,42.05578],[-87.68357,42.05417],[-87.68349,42.05166],[-87.68359,42.047],[-87.68243,42.04446],[-87.68186,42.04275],[-87.67994,42.03423],[-87.67954,42.03346],[-87.67856,42.02895],[-87.67812,42.02611],[-87.67744,42.02275],[-87.67731,42.02242],[-87.67706,42.02209],[-87.67574,42.02131],[-87.6729,42.01907]],[[-87.63394,41.88629],[-87.63392,41.88573],[-87.63336,41.88574]]]},"properties":{"kind":"line","system":"CTA L","ref":"Purple","name":"Purple Line","color":"#522398","text_color":"#FFFFFF"}},{"type":"Feature","geometry":{"type":"LineString","coordinates":[[-87.7567,41.85178],[-87.75214,41.85189],[-87.73777,41.85206],[-87.73694,41.85233],[-87.7366,41.8526],[-87.73581,41.85342],[-87.73539,41.85362],[-87.73479,41.85374],[-87.73327,41.85376],[-87.72737,41.85387],[-87.71671,41.85395],[-87.71489,41.854],[-87.69831,41.85426],[-87.68852,41.85439],[-87.67598,41.85452],[-87.66976,41.85464],[-87.66924,41.85494],[-87.6691,41.85533],[-87.66922,41.8601],[-87.66943,41.86675],[-87.66965,41.87516],[-87.66977,41.87777],[-87.67001,41.87827],[-87.67006,41.87849],[-87.67019,41.88275],[-87.6701,41.88342],[-87.67014,41.88469],[-87.6699,41.88507],[-87.66943,41.88525],[-87.66696,41.88532],[-87.64507,41.8857],[-87.63884,41.88571],[-87.63205,41.88574],[-87.62662,41.88575],[-87.62635,41.8857],[-87.62626,41.88558],[-87.62604,41.87697],[-87.63174,41.87686],[-87.63338,41.87685],[-87.63359,41.87691],[-87.6337,41.87707],[-87.63392,41.88573],[-87.63884,41.88571],[-87.64395,41.88571],[-87.64507,41.8857],[-87.64634,41.88569],[-87.64736,41.88567],[-87.66149,41.88544],[-87.66696,41.88532],[-87.66943,41.88525],[-87.6699,41.88507],[-87.67014,41.88469],[-87.6701,41.88342],[-87.67019,41.88275],[-87.67006,41.87849],[-87.66977,41.87777],[-87.66965,41.87516],[-87.66922,41.8601],[-87.6691,41.85533],[-87.66924,41.85494],[-87.66976,41.85464],[-87.67598,41.85452],[-87.69831,41.85426],[-87.71671,41.85395],[-87.72737,41.85387],[-87.73479,41.85374],[-87.73539,41.85362],[-87.73581,41.85342],[-87.7366,41.8526],[-87.73682,41.85242],[-87.73694,41.85233],[-87.73718,41.85221],[-87.73761,41.85208],[-87.73777,41.85206],[-87.73794,41.85204],[-87.74534,41.85193]]},"properties":{"kind":"line","system":"CTA L","ref":"Pink","name":"Pink Line","color":"#E27EA6","text_color":"#FFFFFF"}},{"type":"Feature","geometry":{"type":"LineString","coordinates":[[-87.75192,42.03896],[-87.75161,42.03812],[-87.7497,42.03397],[-87.74743,42.0268],[-87.74697,42.02563],[-87.74644,42.02483],[-87.74546,42.02388],[-87.74422,42.02313],[-87.74278,42.02261],[-87.74201,42.02244],[-87.7406,42.02232],[-87.73789,42.02232],[-87.72333,42.02235],[-87.71791,42.02266],[-87.71383,42.02266],[-87.70879,42.0225],[-87.70182,42.02264],[-87.6972,42.02221],[-87.69257,42.02225],[-87.68801,42.0217],[-87.67964,42.02172],[-87.67812,42.02159],[-87.67629,42.02115],[-87.67389,42.01987],[-87.6729,42.01907]]},"properties":{"kind":"line","system":"CTA L","ref":"Yellow","name":"Yellow Line","color":"#F9E300","text_color":"#000000"}},{"type":"Feature","geometry":{"type":"Point","coordinates":[-87.62703,41.86738]},"properties":{"kind":"station","system":"CTA L","name":"Roosevelt","refs":"Red,Green,Orange"}},{"type":"Feature","geometry":{"type":"Point","coordinates":[-87.6264,41.85312]},"properties":{"kind":"station","system":"CTA L","name":"Cermak-McCormick Place","refs":"Green"}},{"type":"Feature","geometry":{"type":"Point","coordinates":[-87.62583,41.83168]},"properties":{"kind":"station","system":"CTA L","name":"35th-Bronzeville-IIT","refs":"Green"}},{"type":"Feature","geometry":{"type":"Point","coordinates":[-87.62137,41.82173]},"properties":{"kind":"station","system":"CTA L","name":"Indiana","refs":"Green"}},{"type":"Feature","geometry":{"type":"Point","coordinates":[-87.61902,41.81646]},"properties":{"kind":"station","system":"CTA L","name":"43rd","refs":"Green"}},{"type":"Feature","geometry":{"type":"Point","coordinates":[-87.61883,41.80921]},"properties":{"kind":"station","system":"CTA L","name":"47th (Green)","refs":"Green"}},{"type":"Feature","geometry":{"type":"Point","coordinates":[-87.61849,41.80209]},"properties":{"kind":"station","system":"CTA L","name":"51st","refs":"Green"}},{"type":"Feature","geometry":{"type":"Point","coordinates":[-87.61833,41.79517]},"properties":{"kind":"station","system":"CTA L","name":"Garfield (Green)","refs":"Green"}},{"type":"Feature","geometry":{"type":"Point","coordinates":[-87.64424,41.77894]},"properties":{"kind":"station","system":"CTA L","name":"Halsted (Green)","refs":"Green"}},{"type":"Feature","geometry":{"type":"Point","coordinates":[-87.66377,41.77886]},"properties":{"kind":"station","system":"CTA L","name":"Ashland/63rd","refs":"Green"}},{"type":"Feature","geometry":{"type":"Point","coordinates":[-87.80318,41.88685]},"properties":{"kind":"station","system":"CTA L","name":"Harlem/Lake","refs":"Green"}},{"type":"Feature","geometry":{"type":"Point","coordinates":[-87.79378,41.88699]},"properties":{"kind":"station","system":"CTA L","name":"Oak Park (Green)","refs":"Green"}},{"type":"Feature","geometry":{"type":"Point","coordinates":[-87.78366,41.88716]},"properties":{"kind":"station","system":"CTA L","name":"Ridgeland","refs":"Green"}},{"type":"Feature","geometry":{"type":"Point","coordinates":[-87.77414,41.88729]},"properties":{"kind":"station","system":"CTA L","name":"Austin (Green)","refs":"Green"}},{"type":"Feature","geometry":{"type":"Point","coordinates":[-87.76565,41.88739]},"properties":{"kind":"station","system":"CTA L","name":"Central (Green)","refs":"Green"}},{"type":"Feature","geometry":{"type":"Point","coordinates":[-87.75499,41.88716]},"properties":{"kind":"station","system":"CTA L","name":"Laramie","refs":"Green"}},{"type":"Feature","geometry":{"type":"Point","coordinates":[-87.7447,41.88652]},"properties":{"kind":"station","system":"CTA L","name":"Cicero (Green)","refs":"Green"}},{"type":"Feature","geometry":{"type":"Point","coordinates":[-87.7254,41.88541]},"properties":{"kind":"station","system":"CTA L","name":"Pulaski (Green)","refs":"Green"}},{"type":"Feature","geometry":{"type":"Point","coordinates":[-87.71652,41.8849]},"properties":{"kind":"station","system":"CTA L","name":"Conservatory-Central Park Drive","refs":"Green"}},{"type":"Feature","geometry":{"type":"Point","coordinates":[-87.70615,41.88432]},"properties":{"kind":"station","system":"CTA L","name":"Kedzie (Green)","refs":"Green"}},{"type":"Feature","geometry":{"type":"Point","coordinates":[-87.69623,41.88422]},"properties":{"kind":"station","system":"CTA L","name":"California (Green)","refs":"Green"}},{"type":"Feature","geometry":{"type":"Point","coordinates":[-87.67689,41.88497]},"properties":{"kind":"station","system":"CTA L","name":"Damen (Green)","refs":"Green"}},{"type":"Feature","geometry":{"type":"Point","coordinates":[-87.66697,41.88527]},"properties":{"kind":"station","system":"CTA L","name":"Ashland (Green/Pink)","refs":"Green,Pink"}},{"type":"Feature","geometry":{"type":"Point","coordinates":[-87.65213,41.88558]},"properties":{"kind":"station","system":"CTA L","name":"Morgan (Green/Pink)","refs":"Green,Pink"}},{"type":"Feature","geometry":{"type":"Point","coordinates":[-87.64178,41.88568]},"properties":{"kind":"station","system":"CTA L","name":"Clinton (Green/Pink)","refs":"Green,Pink"}},{"type":"Feature","geometry":{"type":"Point","coordinates":[-87.63089,41.88574]},"properties":{"kind":"station","system":"CTA L","name":"Clark/Lake","refs":"Blue,Brown,Green,Orange,Purple,Pink"}},{"type":"Feature","geometry":{"type":"Point","coordinates":[-87.62619,41.88322]},"properties":{"kind":"station","system":"CTA L","name":"Washington/Wabash","refs":"Brown,Green,Orange,Purple,Pink"}},{"type":"Feature","geometry":{"type":"Point","coordinates":[-87.62604,41.87951]},"properties":{"kind":"station","system":"CTA L","name":"Adams/Wabash","refs":"Brown,Green,Orange,Purple,Pink"}},{"type":"Feature","geometry":{"type":"Point","coordinates":[-87.61555,41.78013]},"properties":{"kind":"station","system":"CTA L","name":"King Drive","refs":"Green"}},{"type":"Feature","geometry":{"type":"Point","coordinates":[-87.60586,41.78031]},"properties":{"kind":"station","system":"CTA L","name":"Cottage Grove","refs":"Green"}},{"type":"Feature","geometry":{"type":"Point","coordinates":[-87.63392,41.88897]},"properties":{"kind":"station","system":"CTA L","name":"Merchandise Mart (Brown/Purple)","refs":"Brown,Purple"}},{"type":"Feature","geometry":{"type":"Point","coordinates":[-87.63592,41.89681]},"properties":{"kind":"station","system":"CTA L","name":"Chicago (Brown/Purple)","refs":"Brown,Purple"}},{"type":"Feature","geometry":{"type":"Point","coordinates":[-87.6393,41.91041]},"properties":{"kind":"station","system":"CTA L","name":"Sedgwick (Brown/Purple)","refs":"Brown,Purple"}},{"type":"Feature","geometry":{"type":"Point","coordinates":[-87.65264,41.91822]},"properties":{"kind":"station","system":"CTA L","name":"Armitage (Brown/Purple)","refs":"Brown,Purple"}},{"type":"Feature","geometry":{"type":"Point","coordinates":[-87.65287,41.9253]},"properties":{"kind":"station","system":"CTA L","name":"Fullerton","refs":"Red,Brown,Purple"}},{"type":"Feature","geometry":{"type":"Point","coordinates":[-87.65313,41.93273]},"properties":{"kind":"station","system":"CTA L","name":"Diversey (Brown/Purple)","refs":"Brown,Purple"}},{"type":"Feature","geometry":{"type":"Point","coordinates":[-87.65327,41.93603]},"properties":{"kind":"station","system":"CTA L","name":"Wellington (Brown/Purple)","refs":"Brown,Purple"}},{"type":"Feature","geometry":{"type":"Point","coordinates":[-87.65338,41.93975]},"properties":{"kind":"station","system":"CTA L","name":"Belmont (Red/Brown/Purple)","refs":"Red,Brown,Purple"}},{"type":"Feature","geometry":{"type":"Point","coordinates":[-87.66362,41.94374]},"properties":{"kind":"station","system":"CTA L","name":"Southport","refs":"Brown"}},{"type":"Feature","geometry":{"type":"Point","coordinates":[-87.67091,41.94362]},"properties":{"kind":"station","system":"CTA L","name":"Paulina","refs":"Brown"}},{"type":"Feature","geometry":{"type":"Point","coordinates":[-87.67464,41.94703]},"properties":{"kind":"station","system":"CTA L","name":"Addison (Brown)","refs":"Brown"}},{"type":"Feature","geometry":{"type":"Point","coordinates":[-87.67487,41.95452]},"properties":{"kind":"station","system":"CTA L","name":"Irving Park (Brown)","refs":"Brown"}},{"type":"Feature","geometry":{"type":"Point","coordinates":[-87.67505,41.96176]},"properties":{"kind":"station","system":"CTA L","name":"Montrose (Brown)","refs":"Brown"}},{"type":"Feature","geometry":{"type":"Point","coordinates":[-87.67864,41.96629]},"properties":{"kind":"station","system":"CTA L","name":"Damen (Brown)","refs":"Brown"}},{"type":"Feature","geometry":{"type":"Point","coordinates":[-87.6885,41.96616]},"properties":{"kind":"station","system":"CTA L","name":"Western (Brown)","refs":"Brown"}},{"type":"Feature","geometry":{"type":"Point","coordinates":[-87.6941,41.96612]},"properties":{"kind":"station","system":"CTA L","name":"Rockwell","refs":"Brown"}},{"type":"Feature","geometry":{"type":"Point","coordinates":[-87.70164,41.96605]},"properties":{"kind":"station","system":"CTA L","name":"Francisco","refs":"Brown"}},{"type":"Feature","geometry":{"type":"Point","coordinates":[-87.70882,41.966]},"properties":{"kind":"station","system":"CTA L","name":"Kedzie (Brown)","refs":"Brown"}},{"type":"Feature","geometry":{"type":"Point","coordinates":[-87.71307,41.9679]},"properties":{"kind":"station","system":"CTA L","name":"Kimball","refs":"Brown"}},{"type":"Feature","geometry":{"type":"Point","coordinates":[-87.63378,41.88269]},"properties":{"kind":"station","system":"CTA L","name":"Washington/Wells","refs":"Brown,Orange,Purple,Pink"}},{"type":"Feature","geometry":{"type":"Point","coordinates":[-87.63374,41.87872]},"properties":{"kind":"station","system":"CTA L","name":"Quincy","refs":"Brown,Orange,Purple,Pink"}},{"type":"Feature","geometry":{"type":"Point","coordinates":[-87.63174,41.8768]},"properties":{"kind":"station","system":"CTA L","name":"LaSalle/Van Buren","refs":"Brown,Orange,Purple,Pink"}},{"type":"Feature","geometry":{"type":"Point","coordinates":[-87.6282,41.87686]},"properties":{"kind":"station","system":"CTA L","name":"Harold Washington Library-State/Van Buren","refs":"Brown,Orange,Purple,Pink"}},{"type":"Feature","geometry":{"type":"Point","coordinates":[-87.70441,41.80424]},"properties":{"kind":"station","system":"CTA L","name":"Kedzie (Orange)","refs":"Orange"}},{"type":"Feature","geometry":{"type":"Point","coordinates":[-87.68402,41.80455]},"properties":{"kind":"station","system":"CTA L","name":"Western (Orange)","refs":"Orange"}},{"type":"Feature","geometry":{"type":"Point","coordinates":[-87.68062,41.82935]},"properties":{"kind":"station","system":"CTA L","name":"35th/Archer","refs":"Orange"}},{"type":"Feature","geometry":{"type":"Point","coordinates":[-87.66532,41.83923]},"properties":{"kind":"station","system":"CTA L","name":"Ashland (Orange)","refs":"Orange"}},{"type":"Feature","geometry":{"type":"Point","coordinates":[-87.64809,41.84678]},"properties":{"kind":"station","system":"CTA L","name":"Halsted (Orange)","refs":"Orange"}},{"type":"Feature","geometry":{"type":"Point","coordinates":[-87.72449,41.79976]},"properties":{"kind":"station","system":"CTA L","name":"Pulaski (Orange)","refs":"Orange"}},{"type":"Feature","geometry":{"type":"Point","coordinates":[-87.73788,41.78661]},"properties":{"kind":"station","system":"CTA L","name":"Midway","refs":"Orange"}},{"type":"Feature","geometry":{"type":"Point","coordinates":[-87.62818,41.89667]},"properties":{"kind":"station","system":"CTA L","name":"Chicago (Red)","refs":"Red"}},{"type":"Feature","geometry":{"type":"Point","coordinates":[-87.62802,41.89167]},"properties":{"kind":"station","system":"CTA L","name":"Grand (Red)","refs":"Red"}},{"type":"Feature","geometry":{"type":"Point","coordinates":[-87.62781,41.88481]},"properties":{"kind":"station","system":"CTA L","name":"Lake (Subway)","refs":"Red"}},{"type":"Feature","geometry":{"type":"Point","coordinates":[-87.6277,41.88074]},"properties":{"kind":"station","system":"CTA L","name":"Monroe (Red)","refs":"Red"}},{"type":"Feature","geometry":{"type":"Point","coordinates":[-87.6276,41.87815]},"properties":{"kind":"station","system":"CTA L","name":"Jackson (Red)","refs":"Red"}},{"type":"Feature","geometry":{"type":"Point","coordinates":[-87.62748,41.87404]},"properties":{"kind":"station","system":"CTA L","name":"Harrison","refs":"Red"}},{"type":"Feature","geometry":{"type":"Point","coordinates":[-87.63097,41.85321]},"properties":{"kind":"station","system":"CTA L","name":"Cermak-Chinatown","refs":"Red"}},{"type":"Feature","geometry":{"type":"Point","coordinates":[-87.63064,41.83119]},"properties":{"kind":"station","system":"CTA L","name":"Sox-35th","refs":"Red"}},{"type":"Feature","geometry":{"type":"Point","coordinates":[-87.63094,41.81032]},"properties":{"kind":"station","system":"CTA L","name":"47th (Red)","refs":"Red"}},{"type":"Feature","geometry":{"type":"Point","coordinates":[-87.63116,41.79542]},"properties":{"kind":"station","system":"CTA L","name":"Garfield (Red)","refs":"Red"}},{"type":"Feature","geometry":{"type":"Point","coordinates":[-87.63095,41.78054]},"properties":{"kind":"station","system":"CTA L","name":"63rd","refs":"Red"}},{"type":"Feature","geometry":{"type":"Point","coordinates":[-87.62572,41.76837]},"properties":{"kind":"station","system":"CTA L","name":"69th","refs":"Red"}},{"type":"Feature","geometry":{"type":"Point","coordinates":[-87.62511,41.75042]},"properties":{"kind":"station","system":"CTA L","name":"79th","refs":"Red"}},{"type":"Feature","geometry":{"type":"Point","coordinates":[-87.62472,41.73537]},"properties":{"kind":"station","system":"CTA L","name":"87th","refs":"Red"}},{"type":"Feature","geometry":{"type":"Point","coordinates":[-87.62434,41.72238]},"properties":{"kind":"station","system":"CTA L","name":"95th/Dan Ryan","refs":"Red"}},{"type":"Feature","geometry":{"type":"Point","coordinates":[-87.67289,42.01906]},"properties":{"kind":"station","system":"CTA L","name":"Howard","refs":"Red,Purple,Yellow"}},{"type":"Feature","geometry":{"type":"Point","coordinates":[-87.66926,42.01602]},"properties":{"kind":"station","system":"CTA L","name":"Jarvis","refs":"Red"}},{"type":"Feature","geometry":{"type":"Point","coordinates":[-87.66591,42.00836]},"properties":{"kind":"station","system":"CTA L","name":"Morse","refs":"Red"}},{"type":"Feature","geometry":{"type":"Point","coordinates":[-87.66106,42.00107]},"properties":{"kind":"station","system":"CTA L","name":"Loyola","refs":"Red"}},{"type":"Feature","geometry":{"type":"Point","coordinates":[-87.65919,41.99448]},"properties":{"kind":"station","system":"CTA L","name":"Granville","refs":"Red"}},{"type":"Feature","geometry":{"type":"Point","coordinates":[-87.65907,41.9901]},"properties":{"kind":"station","system":"CTA L","name":"Thorndale","refs":"Red"}},{"type":"Feature","geometry":{"type":"Point","coordinates":[-87.65884,41.9835]},"properties":{"kind":"station","system":"CTA L","name":"Bryn Mawr","refs":"Red"}},{"type":"Feature","geometry":{"type":"Point","coordinates":[-87.65867,41.97798]},"properties":{"kind":"station","system":"CTA L","name":"Berwyn","refs":"Red"}},{"type":"Feature","geometry":{"type":"Point","coordinates":[-87.65853,41.97332]},"properties":{"kind":"station","system":"CTA L","name":"Argyle","refs":"Red"}},{"type":"Feature","geometry":{"type":"Point","coordinates":[-87.65849,41.96898]},"properties":{"kind":"station","system":"CTA L","name":"Lawrence","refs":"Red"}},{"type":"Feature","geometry":{"type":"Point","coordinates":[-87.65793,41.96548]},"properties":{"kind":"station","system":"CTA L","name":"Wilson","refs":"Red,Purple"}},{"type":"Feature","geometry":{"type":"Point","coordinates":[-87.65466,41.9539]},"properties":{"kind":"station","system":"CTA L","name":"Sheridan","refs":"Red"}},{"type":"Feature","geometry":{"type":"Point","coordinates":[-87.65362,41.94732]},"properties":{"kind":"station","system":"CTA L","name":"Addison (Red)","refs":"Red"}},{"type":"Feature","geometry":{"type":"Point","coordinates":[-87.64918,41.91065]},"properties":{"kind":"station","system":"CTA L","name":"North/Clybourn","refs":"Red"}},{"type":"Feature","geometry":{"type":"Point","coordinates":[-87.63141,41.90392]},"properties":{"kind":"station","system":"CTA L","name":"Clark/Division","refs":"Red"}},{"type":"Feature","geometry":{"type":"Point","coordinates":[-87.67597,41.85452]},"properties":{"kind":"station","system":"CTA L","name":"Damen (Pink)","refs":"Pink"}},{"type":"Feature","geometry":{"type":"Point","coordinates":[-87.66915,41.85791]},"properties":{"kind":"station","system":"CTA L","name":"18th","refs":"Pink"}},{"type":"Feature","geometry":{"type":"Point","coordinates":[-87.66953,41.87155]},"properties":{"kind":"station","system":"CTA L","name":"Polk","refs":"Pink"}},{"type":"Feature","geometry":{"type":"Point","coordinates":[-87.68513,41.85422]},"properties":{"kind":"station","system":"CTA L","name":"Western (Pink)","refs":"Pink"}},{"type":"Feature","geometry":{"type":"Point","coordinates":[-87.69477,41.85411]},"properties":{"kind":"station","system":"CTA L","name":"California (Pink)","refs":"Pink"}},{"type":"Feature","geometry":{"type":"Point","coordinates":[-87.70541,41.85396]},"properties":{"kind":"station","system":"CTA L","name":"Kedzie (Pink)","refs":"Pink"}},{"type":"Feature","geometry":{"type":"Point","coordinates":[-87.71484,41.85384]},"properties":{"kind":"station","system":"CTA L","name":"Central Park","refs":"Pink"}},{"type":"Feature","geometry":{"type":"Point","coordinates":[-87.72431,41.85373]},"properties":{"kind":"station","system":"CTA L","name":"Pulaski (Pink)","refs":"Pink"}},{"type":"Feature","geometry":{"type":"Point","coordinates":[-87.73326,41.85375]},"properties":{"kind":"station","system":"CTA L","name":"Kostner","refs":"Pink"}},{"type":"Feature","geometry":{"type":"Point","coordinates":[-87.74534,41.85182]},"properties":{"kind":"station","system":"CTA L","name":"Cicero (Pink)","refs":"Pink"}},{"type":"Feature","geometry":{"type":"Point","coordinates":[-87.75669,41.85177]},"properties":{"kind":"station","system":"CTA L","name":"54th/Cermak","refs":"Pink"}},{"type":"Feature","geometry":{"type":"Point","coordinates":[-87.62938,41.8807]},"properties":{"kind":"station","system":"CTA L","name":"Monroe (Blue)","refs":"Blue"}},{"type":"Feature","geometry":{"type":"Point","coordinates":[-87.6293,41.87818]},"properties":{"kind":"station","system":"CTA L","name":"Jackson (Blue)","refs":"Blue"}},{"type":"Feature","geometry":{"type":"Point","coordinates":[-87.63172,41.87557]},"properties":{"kind":"station","system":"CTA L","name":"LaSalle","refs":"Blue"}},{"type":"Feature","geometry":{"type":"Point","coordinates":[-87.64098,41.87554]},"properties":{"kind":"station","system":"CTA L","name":"Clinton (Blue)","refs":"Blue"}},{"type":"Feature","geometry":{"type":"Point","coordinates":[-87.64971,41.87547]},"properties":{"kind":"station","system":"CTA L","name":"UIC-Halsted","refs":"Blue"}},{"type":"Feature","geometry":{"type":"Point","coordinates":[-87.65946,41.87592]},"properties":{"kind":"station","system":"CTA L","name":"Racine","refs":"Blue"}},{"type":"Feature","geometry":{"type":"Point","coordinates":[-87.67393,41.87571]},"properties":{"kind":"station","system":"CTA L","name":"Illinois Medical District","refs":"Blue"}},{"type":"Feature","geometry":{"type":"Point","coordinates":[-87.68844,41.87548]},"properties":{"kind":"station","system":"CTA L","name":"Western (Blue - Forest Park Branch)","refs":"Blue"}},{"type":"Feature","geometry":{"type":"Point","coordinates":[-87.70604,41.87434]},"properties":{"kind":"station","system":"CTA L","name":"Kedzie-Homan","refs":"Blue"}},{"type":"Feature","geometry":{"type":"Point","coordinates":[-87.72566,41.8738]},"properties":{"kind":"station","system":"CTA L","name":"Pulaski (Blue)","refs":"Blue"}},{"type":"Feature","geometry":{"type":"Point","coordinates":[-87.74515,41.87157]},"properties":{"kind":"station","system":"CTA L","name":"Cicero (Blue)","refs":"Blue"}},{"type":"Feature","geometry":{"type":"Point","coordinates":[-87.77681,41.87085]},"properties":{"kind":"station","system":"CTA L","name":"Austin (Blue)","refs":"Blue"}},{"type":"Feature","geometry":{"type":"Point","coordinates":[-87.7916,41.87211]},"properties":{"kind":"station","system":"CTA L","name":"Oak Park (Blue)","refs":"Blue"}},{"type":"Feature","geometry":{"type":"Point","coordinates":[-87.80696,41.87349]},"properties":{"kind":"station","system":"CTA L","name":"Harlem (Blue - Forest Park Branch)","refs":"Blue"}},{"type":"Feature","geometry":{"type":"Point","coordinates":[-87.81732,41.87426]},"properties":{"kind":"station","system":"CTA L","name":"Forest Park","refs":"Blue"}},{"type":"Feature","geometry":{"type":"Point","coordinates":[-87.62944,41.88316]},"properties":{"kind":"station","system":"CTA L","name":"Washington","refs":"Blue"}},{"type":"Feature","geometry":{"type":"Point","coordinates":[-87.64758,41.89119]},"properties":{"kind":"station","system":"CTA L","name":"Grand (Blue)","refs":"Blue"}},{"type":"Feature","geometry":{"type":"Point","coordinates":[-87.65521,41.89608]},"properties":{"kind":"station","system":"CTA L","name":"Chicago (Blue)","refs":"Blue"}},{"type":"Feature","geometry":{"type":"Point","coordinates":[-87.6665,41.90335]},"properties":{"kind":"station","system":"CTA L","name":"Division","refs":"Blue"}},{"type":"Feature","geometry":{"type":"Point","coordinates":[-87.67754,41.90985]},"properties":{"kind":"station","system":"CTA L","name":"Damen (Blue)","refs":"Blue"}},{"type":"Feature","geometry":{"type":"Point","coordinates":[-87.68736,41.91616]},"properties":{"kind":"station","system":"CTA L","name":"Western (Blue - O'Hare Branch)","refs":"Blue"}},{"type":"Feature","geometry":{"type":"Point","coordinates":[-87.69724,41.92216]},"properties":{"kind":"station","system":"CTA L","name":"California (Blue)","refs":"Blue"}},{"type":"Feature","geometry":{"type":"Point","coordinates":[-87.70769,41.92953]},"properties":{"kind":"station","system":"CTA L","name":"Logan Square","refs":"Blue"}},{"type":"Feature","geometry":{"type":"Point","coordinates":[-87.71225,41.93911]},"properties":{"kind":"station","system":"CTA L","name":"Belmont (Blue)","refs":"Blue"}},{"type":"Feature","geometry":{"type":"Point","coordinates":[-87.71846,41.9466]},"properties":{"kind":"station","system":"CTA L","name":"Addison (Blue)","refs":"Blue"}},{"type":"Feature","geometry":{"type":"Point","coordinates":[-87.72923,41.95293]},"properties":{"kind":"station","system":"CTA L","name":"Irving Park (Blue)","refs":"Blue"}},{"type":"Feature","geometry":{"type":"Point","coordinates":[-87.7429,41.9609]},"properties":{"kind":"station","system":"CTA L","name":"Montrose (Blue)","refs":"Blue"}},{"type":"Feature","geometry":{"type":"Point","coordinates":[-87.76159,41.97023]},"properties":{"kind":"station","system":"CTA L","name":"Jefferson Park Transit Center","refs":"Blue"}},{"type":"Feature","geometry":{"type":"Point","coordinates":[-87.8089,41.98227]},"properties":{"kind":"station","system":"CTA L","name":"Harlem (Blue - O'Hare Branch)","refs":"Blue"}},{"type":"Feature","geometry":{"type":"Point","coordinates":[-87.83803,41.98425]},"properties":{"kind":"station","system":"CTA L","name":"Cumberland","refs":"Blue"}},{"type":"Feature","geometry":{"type":"Point","coordinates":[-87.85939,41.98351]},"properties":{"kind":"station","system":"CTA L","name":"Rosemont","refs":"Blue"}},{"type":"Feature","geometry":{"type":"Point","coordinates":[-87.90422,41.97767]},"properties":{"kind":"station","system":"CTA L","name":"O'Hare","refs":"Blue"}},{"type":"Feature","geometry":{"type":"Point","coordinates":[-87.6816,42.04165]},"properties":{"kind":"station","system":"CTA L","name":"Dempster","refs":"Purple"}},{"type":"Feature","geometry":{"type":"Point","coordinates":[-87.68354,42.04771]},"properties":{"kind":"station","system":"CTA L","name":"Davis","refs":"Purple"}},{"type":"Feature","geometry":{"type":"Point","coordinates":[-87.68356,42.05416]},"properties":{"kind":"station","system":"CTA L","name":"Foster","refs":"Purple"}},{"type":"Feature","geometry":{"type":"Point","coordinates":[-87.68334,42.05828]},"properties":{"kind":"station","system":"CTA L","name":"Noyes","refs":"Purple"}},{"type":"Feature","geometry":{"type":"Point","coordinates":[-87.68562,42.06399]},"properties":{"kind":"station","system":"CTA L","name":"Central (Purple)","refs":"Purple"}},{"type":"Feature","geometry":{"type":"Point","coordinates":[-87.69073,42.07315]},"properties":{"kind":"station","system":"CTA L","name":"Linden","refs":"Purple"}},{"type":"Feature","geometry":{"type":"Point","coordinates":[-87.67833,42.02761]},"properties":{"kind":"station","system":"CTA L","name":"South Boulevard","refs":"Purple"}},{"type":"Feature","geometry":{"type":"Point","coordinates":[-87.67954,42.03346]},"properties":{"kind":"station","system":"CTA L","name":"Main","refs":"Purple"}},{"type":"Feature","geometry":{"type":"Point","coordinates":[-87.75192,42.03895]},"properties":{"kind":"station","system":"CTA L","name":"Dempster-Skokie","refs":"Yellow"}},{"type":"Feature","geometry":{"type":"Point","coordinates":[-87.74722,42.02624]},"properties":{"kind":"station","system":"CTA L","name":"Oakton-Skokie","refs":"Yellow"}}]}