{"type":"FeatureCollection","features":[{"type":"Feature","geometry":{"type":"LineString","coordinates":[[-77.05432,39.06233],[-77.05091,39.0595],[-77.05029,39.05869],[-77.04994,39.05778],[-77.04987,39.05711],[-77.04995,39.05641],[-77.05148,39.05146],[-77.05189,39.04942],[-77.05217,39.0452],[-77.05202,39.04334],[-77.05177,39.04236],[-77.04975,39.03589],[-77.04413,39.01938],[-77.04391,39.01852],[-77.04355,39.01634],[-77.04281,39.01329],[-77.04104,39.00852],[-77.04065,39.00729],[-77.0404,39.00615],[-77.04026,39.00499],[-77.04025,39.00163],[-77.03995,39.00055],[-77.03947,38.99981],[-77.03889,38.99923],[-77.03644,38.99769],[-77.03274,38.99487],[-77.03078,38.99328],[-77.02787,38.99057],[-77.02564,38.98815],[-77.02392,38.9859],[-77.02245,38.98365],[-77.01755,38.97487],[-77.01382,38.96832],[-77.01324,38.96743],[-77.01256,38.96658],[-77.01177,38.96579],[-77.00746,38.96209],[-77.00654,38.96112],[-77.00575,38.96008],[-77.00508,38.95899],[-77.00461,38.95797],[-77.00182,38.95076],[-76.99529,38.93522],[-76.99467,38.93343],[-76.99411,38.93061],[-76.99382,38.92772],[-76.99387,38.92655],[-76.99423,38.92525],[-76.99684,38.91895],[-76.99844,38.91655],[-77.00246,38.9086],[-77.00418,38.9039],[-77.00454,38.90329],[-77.00585,38.90163],[-77.00626,38.90095],[-77.00806,38.8961],[-77.00834,38.89568],[-77.00869,38.89535],[-77.00912,38.89509],[-77.0097,38.89487],[-77.01054,38.89476],[-77.01343,38.89482],[-77.01418,38.89486],[-77.01476,38.89499],[-77.01555,38.89537],[-77.01909,38.89783],[-77.01973,38.89814],[-77.02039,38.89831],[-77.02152,38.89839],[-77.03323,38.89837],[-77.03393,38.89848],[-77.03472,38.89873],[-77.0366,38.89947],[-77.03745,38.89999],[-77.03793,38.90043],[-77.03835,38.90102],[-77.04554,38.91331],[-77.04595,38.91421],[-77.04668,38.91671],[-77.04811,38.91952],[-77.04888,38.92061],[-77.05112,38.92321],[-77.0518,38.92417],[-77.06364,38.94451],[-77.06403,38.94509],[-77.0645,38.94553],[-77.06507,38.94588],[-77.06572,38.94614],[-77.0663,38.94627],[-77.06717,38.94633],[-77.07681,38.94636],[-77.07742,38.94648],[-77.07799,38.9467],[-77.07847,38.94703],[-77.07883,38.94743],[-77.08742,38.96424],[-77.08828,38.96627],[-77.08874,38.96809],[-77.08983,38.97461],[-77.09009,38.97573],[-77.09069,38.97725],[-77.0928,38.98132],[-77.09421,38.98488],[-77.0945,38.9859],[-77.09606,38.99314],[-77.09628,38.99445],[-77.09739,39.00461],[-77.09747,39.00597],[-77.09744,39.0089],[-77.09776,39.01065],[-77.09812,39.01167],[-77.09929,39.01418],[-77.0999,39.01521],[-77.10182,39.01802],[-77.10245,39.01934],[-77.10268,39.02012],[-77.10282,39.02109],[-77.10289,39.02253],[-77.10273,39.02497],[-77.10298,39.02695],[-77.10318,39.02786],[-77.10622,39.03418],[-77.11057,39.04291],[-77.11208,39.04661],[-77.11382,39.05022],[-77.11405,39.05086],[-77.11422,39.05173],[-77.11435,39.05525],[-77.11448,39.05584],[-77.11477,39.0566],[-77.11544,39.05766],[-77.1163,39.05855],[-77.14729,39.08531],[-77.14867,39.08672],[-77.14986,39.0886],[-77.15063,39.09028],[-77.15801,39.11057],[-77.15858,39.1119],[-77.15935,39.11327],[-77.15996,39.11414],[-77.16404,39.11926]]},"properties":{"kind":"line","system":"Metrorail","ref":"Red","name":"Red Line","color":"#BF0D3E","text_color":"#FFFFFF"}},{"type":"Feature","geometry":{"type":"LineString","coordinates":[[-77.27351,38.87746],[-77.26743,38.87842],[-77.2414,38.87994],[-77.23939,38.88016],[-77.2368,38.88069],[-77.22994,38.88277],[-77.22371,38.88486],[-77.21509,38.88851],[-77.21342,38.88938],[-77.19552,38.8997],[-77.19427,38.90034],[-77.19349,38.9006],[-77.19259,38.90075],[-77.18752,38.90093],[-77.18653,38.90087],[-77.18559,38.90064],[-77.17327,38.8964],[-77.17148,38.89568],[-77.17062,38.89519],[-77.16966,38.89453],[-77.16256,38.88864],[-77.16118,38.88776],[-77.15966,38.88704],[-77.13868,38.87989],[-77.13739,38.87954],[-77.13629,38.87938],[-77.13482,38.87932],[-77.12917,38.87945],[-77.12739,38.87961],[-77.12638,38.87984],[-77.12541,38.88018],[-77.12269,38.88153],[-77.12116,38.88188],[-77.1164,38.88218],[-77.11019,38.88236],[-77.10516,38.88265],[-77.10443,38.88288],[-77.09869,38.88523],[-77.09296,38.88792],[-77.08451,38.89123],[-77.08356,38.89147],[-77.08225,38.89169],[-77.07343,38.89238],[-77.07254,38.89254],[-77.07198,38.89279],[-77.07151,38.89313],[-77.07115,38.89356],[-77.07094,38.89403],[-77.07089,38.89497],[-77.071,38.89764],[-77.07091,38.89815],[-77.07073,38.8986],[-77.07031,38.89917],[-77.06982,38.89959],[-77.06924,38.89992],[-77.06846,38.90018],[-77.0674,38.90031],[-77.0566,38.90077],[-77.04698,38.90079],[-77.04628,38.90089],[-77.04487,38.90131],[-77.04399,38.90139],[-77.03032,38.90138],[-77.02937,38.90118],[-77.02856,38.90069],[-77.02816,38.90017],[-77.02797,38.89949],[-77.02804,38.89271],[-77.02816,38.89208],[-77.02889,38.8906],[-77.02898,38.89019],[-77.02896,38.88979],[-77.02815,38.88721],[-77.02784,38.88656],[-77.02749,38.88613],[-77.02704,38.88574],[-77.02593,38.88518],[-77.02517,38.88499],[-77.02429,38.88493],[-77.02012,38.88494],[-77.0176,38.88515],[-77.00299,38.88515],[-77.00205,38.88524],[-77.00009,38.8857],[-76.99906,38.88573],[-76.99779,38.88542],[-76.988,38.88146],[-76.98706,38.88135],[-76.98337,38.8814],[-76.98263,38.8816],[-76.97865,38.8831],[-76.97817,38.88334],[-76.97772,38.88369],[-76.97739,38.88412],[-76.97719,38.88467],[-76.97718,38.88848],[-76.97706,38.889],[-76.97677,38.88951],[-76.97614,38.89012],[-76.96866,38.89612],[-76.96752,38.89686],[-76.96599,38.89742],[-76.96496,38.89759],[-76.96411,38.89763],[-76.96306,38.89755],[-76.95225,38.89618],[-76.95139,38.89626],[-76.95046,38.89652],[-76.94936,38.89715],[-76.94549,38.90025],[-76.93401,38.90919],[-76.93202,38.91048],[-76.93042,38.91128],[-76.92931,38.91174],[-76.92292,38.91386],[-76.92223,38.91421],[-76.92051,38.91529],[-76.91972,38.91566],[-76.91156,38.91832],[-76.9099,38.91894],[-76.90794,38.91983],[-76.90609,38.92087],[-76.90447,38.92198],[-76.90094,38.92467],[-76.89642,38.92938],[-76.89505,38.93076],[-76.89405,38.93163],[-76.87963,38.94147],[-76.87438,38.94592],[-76.86913,38.95056]]},"properties":{"kind":"line","system":"Metrorail","ref":"Orange","name":"Orange Line","color":"#ED8B00","text_color":"#FFFFFF"}},{"type":"Feature","geometry":{"type":"LineString","coordinates":[[-77.16868,38.76628],[-77.16424,38.76814],[-77.16232,38.7692],[-77.16132,38.76994],[-77.16046,38.77071],[-77.1596,38.77166],[-77.15886,38.77267],[-77.15794,38.77447],[-77.15747,38.77605],[-77.15611,38.78408],[-77.15574,38.78707],[-77.15524,38.78984],[-77.15491,38.791],[-77.15456,38.7918],[-77.1541,38.79257],[-77.15303,38.79386],[-77.15167,38.79502],[-77.14995,38.796],[-77.14835,38.79659],[-77.14663,38.79696],[-77.13731,38.79815],[-77.13108,38.79909],[-77.12305,38.80015],[-77.11721,38.801],[-77.11545,38.80147],[-77.1142,38.80194],[-77.10749,38.80528],[-77.10588,38.80577],[-77.10418,38.80604],[-77.10217,38.80607],[-77.06955,38.80416],[-77.06749,38.80424],[-77.06527,38.80469],[-77.06344,38.80523],[-77.06252,38.80567],[-77.05921,38.80794],[-77.0575,38.8094],[-77.05604,38.81102],[-77.05113,38.81791],[-77.04784,38.82197],[-77.04723,38.82291],[-77.04686,38.8237],[-77.04653,38.82481],[-77.04639,38.8258],[-77.0462,38.82868],[-77.04671,38.83217],[-77.04677,38.83305],[-77.04643,38.83584],[-77.04642,38.83664],[-77.04661,38.83762],[-77.0469,38.83838],[-77.04856,38.84091],[-77.04921,38.84223],[-77.04993,38.84456],[-77.04999,38.84546],[-77.04988,38.84586],[-77.04964,38.84631],[-77.0489,38.847],[-77.04459,38.84896],[-77.0439,38.84941],[-77.04353,38.84983],[-77.0433,38.8503],[-77.04323,38.85081],[-77.0433,38.85127],[-77.04552,38.85671],[-77.04599,38.85733],[-77.04663,38.85777],[-77.04742,38.85803],[-77.04834,38.85809],[-77.05444,38.85727],[-77.05536,38.85722],[-77.05634,38.85727],[-77.05741,38.85746],[-77.05828,38.85783],[-77.059,38.85836],[-77.0595,38.85903],[-77.05973,38.85969],[-77.05975,38.86044],[-77.05928,38.86411],[-77.05912,38.86469],[-77.05885,38.86526],[-77.05839,38.86593],[-77.0578,38.86651],[-77.05214,38.87081],[-77.05185,38.87117],[-77.05167,38.87157],[-77.05159,38.87199],[-77.05164,38.87248],[-77.05184,38.87295],[-77.05217,38.87336],[-77.05522,38.87585],[-77.06127,38.88188],[-77.06209,38.88295],[-77.06451,38.88679],[-77.06534,38.88779],[-77.06662,38.88891],[-77.06972,38.89101],[-77.07036,38.8917],[-77.07063,38.89226],[-77.07075,38.89282],[-77.07091,38.89786],[-77.07071,38.89849],[-77.07032,38.89906],[-77.06978,38.89955],[-77.0691,38.89992],[-77.06833,38.90016],[-77.06757,38.90024],[-77.05792,38.90067],[-77.04691,38.90074],[-77.04626,38.90084],[-77.04485,38.90125],[-77.04419,38.90133],[-77.03068,38.90133],[-77.02979,38.90125],[-77.02911,38.901],[-77.02856,38.9006],[-77.02819,38.90008],[-77.02804,38.89949],[-77.02812,38.89255],[-77.02825,38.89205],[-77.02898,38.89054],[-77.02905,38.89012],[-77.029,38.88967],[-77.02822,38.88719],[-77.02796,38.88663],[-77.02728,38.88585],[-77.02633,38.88527],[-77.02532,38.88496],[-77.02429,38.88488],[-77.02011,38.88489],[-77.0176,38.8851],[-77.00318,38.8851],[-77.00204,38.88519],[-76.99996,38.88566],[-76.99907,38.88568],[-76.99783,38.88537],[-76.98809,38.88143],[-76.98721,38.8813],[-76.98391,38.8813],[-76.98327,38.88136],[-76.9826,38.88155],[-76.97862,38.88305],[-76.97779,38.88355],[-76.97737,38.88403],[-76.97712,38.88466],[-76.97711,38.88854],[-76.97694,38.88911],[-76.9766,38.88961],[-76.96831,38.89631],[-76.96694,38.89706],[-76.96557,38.89745],[-76.96432,38.89757],[-76.96307,38.8975],[-76.95229,38.89614],[-76.94939,38.89555],[-76.9466,38.89464],[-76.94059,38.89221],[-76.93701,38.89021],[-76.93597,38.88987],[-76.91437,38.88979],[-76.90903,38.88908],[-76.90798,38.88878],[-76.90477,38.88754],[-76.90329,38.88716],[-76.90176,38.88691],[-76.89962,38.88676],[-76.88899,38.8868],[-76.88783,38.88691],[-76.88574,38.88728],[-76.88266,38.88806],[-76.8782,38.88994],[-76.87382,38.89158],[-76.86558,38.89486],[-76.86424,38.89524],[-76.86259,38.89563],[-76.8608,38.89584],[-76.85474,38.89636],[-76.85173,38.89648],[-76.85003,38.89671],[-76.84956,38.89687],[-76.84871,38.8974],[-76.84342,38.90149],[-76.84262,38.9022],[-76.84235,38.90268],[-76.8422,38.90331],[-76.84186,38.90747]]},"properties":{"kind":"line","system":"Metrorail","ref":"Blue","name":"Blue Line","color":"#009CDE","text_color":"#FFFFFF"}},{"type":"Feature","geometry":{"type":"LineString","coordinates":[[-76.84181,38.90746],[-76.84215,38.90328],[-76.8423,38.90265],[-76.84256,38.90216],[-76.84341,38.90142],[-76.8487,38.89733],[-76.84956,38.89681],[-76.85003,38.89666],[-76.85173,38.89643],[-76.85475,38.89631],[-76.86081,38.89579],[-76.86259,38.89558],[-76.86424,38.89519],[-76.86558,38.89481],[-76.87383,38.89153],[-76.8782,38.88989],[-76.88266,38.88801],[-76.88574,38.88723],[-76.88783,38.88686],[-76.88899,38.88675],[-76.89962,38.88671],[-76.90176,38.88686],[-76.90329,38.88711],[-76.90477,38.88749],[-76.90798,38.88873],[-76.90904,38.88903],[-76.91437,38.88974],[-76.93597,38.88982],[-76.93701,38.89016],[-76.9406,38.89216],[-76.9466,38.89459],[-76.94939,38.8955],[-76.95229,38.89609],[-76.96307,38.89745],[-76.96454,38.89752],[-76.96557,38.8974],[-76.9665,38.89715],[-76.96743,38.89677],[-76.96813,38.89636],[-76.97644,38.88968],[-76.97683,38.88915],[-76.97702,38.88857],[-76.97706,38.88456],[-76.97738,38.88387],[-76.97791,38.88336],[-76.97868,38.88297],[-76.98321,38.88132],[-76.98401,38.88124],[-76.98754,38.88126],[-76.98853,38.88152],[-76.99793,38.88535],[-76.99898,38.88561],[-76.99999,38.88561],[-77.00206,38.88513],[-77.00301,38.88504],[-77.01762,38.88504],[-77.02014,38.88483],[-77.02431,38.88482],[-77.0252,38.88489],[-77.0261,38.88511],[-77.02716,38.88568],[-77.02761,38.88607],[-77.02797,38.88651],[-77.02829,38.88717],[-77.0291,38.88976],[-77.02912,38.89019],[-77.02903,38.89061],[-77.0283,38.89209],[-77.02818,38.89271],[-77.02811,38.89949],[-77.02826,38.90008],[-77.02866,38.9006],[-77.02945,38.90109],[-77.03038,38.90128],[-77.04413,38.90128],[-77.0448,38.9012],[-77.0462,38.90079],[-77.04692,38.90069],[-77.05665,38.90066],[-77.06771,38.90019],[-77.06837,38.9001],[-77.06913,38.89984],[-77.06971,38.89952],[-77.07025,38.89903],[-77.07064,38.89846],[-77.0708,38.89801],[-77.07086,38.89753],[-77.07078,38.89411],[-77.07094,38.8937],[-77.0712,38.89331],[-77.07208,38.89265],[-77.07262,38.89245],[-77.07326,38.89235],[-77.08216,38.89164],[-77.08347,38.89143],[-77.08442,38.89118],[-77.09287,38.88788],[-77.09859,38.88519],[-77.10499,38.88261],[-77.10599,38.88248],[-77.11589,38.88214],[-77.12108,38.88182],[-77.12251,38.88151],[-77.12562,38.88002],[-77.1266,38.8797],[-77.12762,38.8795],[-77.1289,38.87939],[-77.13479,38.87925],[-77.13575,38.87925],[-77.13686,38.87937],[-77.1388,38.87984],[-77.15871,38.8866],[-77.16007,38.88713],[-77.1612,38.88769],[-77.16258,38.88856],[-77.16969,38.89445],[-77.17064,38.89511],[-77.1715,38.8956],[-77.1729,38.89619],[-77.18014,38.89871],[-77.18561,38.90056],[-77.18662,38.9008],[-77.18716,38.90114],[-77.18774,38.90174],[-77.18807,38.9023],[-77.18828,38.90323],[-77.18821,38.90413],[-77.18713,38.90841],[-77.18698,38.90944],[-77.18708,38.91058],[-77.18756,38.91176],[-77.18827,38.91277],[-77.19104,38.9156],[-77.19201,38.91672],[-77.19734,38.92485],[-77.19802,38.92576],[-77.1987,38.92644],[-77.19979,38.92726],[-77.20071,38.9278],[-77.20142,38.92809],[-77.20272,38.9283],[-77.20375,38.92822],[-77.20446,38.92804],[-77.20542,38.92756],[-77.20771,38.92576],[-77.20843,38.92536],[-77.21334,38.92315],[-77.2161,38.92222],[-77.21876,38.92113],[-77.22001,38.9209],[-77.22556,38.92031],[-77.22786,38.91969],[-77.22886,38.91953],[-77.2302,38.91941],[-77.23121,38.91943],[-77.23224,38.91969],[-77.23292,38.92009],[-77.245,38.93238],[-77.24547,38.93281],[-77.24643,38.93333],[-77.24773,38.93363],[-77.2489,38.93362],[-77.25347,38.93255],[-77.25488,38.93234],[-77.25627,38.93225],[-77.25868,38.93234],[-77.26098,38.93274],[-77.26311,38.93347],[-77.26416,38.93397],[-77.26512,38.93454],[-77.2662,38.93536],[-77.2709,38.93958],[-77.27227,38.94046],[-77.27354,38.94105],[-77.27463,38.94142],[-77.27629,38.94174],[-77.28234,38.94221],[-77.28423,38.94249],[-77.28578,38.94282],[-77.28854,38.94372],[-77.29294,38.94563],[-77.2948,38.9463],[-77.29769,38.94713],[-77.30066,38.94773],[-77.30308,38.94805],[-77.30554,38.9482],[-77.3082,38.94818],[-77.31042,38.94804],[-77.31186,38.94783],[-77.31328,38.94752],[-77.31957,38.94556],[-77.32078,38.94524],[-77.32208,38.94499],[-77.32383,38.94476],[-77.32561,38.94462],[-77.32768,38.94465],[-77.32975,38.94484],[-77.3318,38.94519],[-77.33339,38.94559],[-77.34735,38.95013],[-77.34935,38.9507],[-77.35357,38.95171],[-77.35819,38.95253],[-77.36305,38.95308],[-77.36905,38.95333],[-77.37415,38.95319],[-77.38153,38.95274],[-77.38431,38.95276],[-77.38659,38.95295],[-77.39635,38.95448],[-77.39896,38.95508],[-77.401,38.95569],[-77.41768,38.96156],[-77.42004,38.96211],[-77.42285,38.96249],[-77.43845,38.96247],[-77.43986,38.96238],[-77.44126,38.96217],[-77.44201,38.96189],[-77.44286,38.96142],[-77.44343,38.96095],[-77.44399,38.96026],[-77.4444,38.95939],[-77.44446,38.95694],[-77.44459,38.9565],[-77.445,38.95609],[-77.44556,38.95581],[-77.44621,38.95568],[-77.44944,38.95569],[-77.45007,38.95581],[-77.45066,38.95632],[-77.4508,38.9566],[-77.45087,38.95699],[-77.45074,38.95747],[-77.45024,38.95825],[-77.44984,38.95908],[-77.44964,38.95973],[-77.44949,38.96062],[-77.4493,38.97681],[-77.44961,38.97757],[-77.4504,38.97849],[-77.45203,38.98],[-77.45338,38.98196],[-77.45693,38.9885],[-77.45786,38.98979],[-77.45879,38.99076],[-77.45984,38.99165],[-77.46151,38.99262],[-77.46269,38.99305],[-77.46392,38.99339],[-77.46554,38.99364],[-77.47048,38.99383],[-77.47175,38.99409],[-77.47296,38.99451],[-77.47385,38.99495],[-77.4834,39.00066],[-77.48554,39.00159],[-77.48752,39.00223],[-77.48857,39.0027],[-77.48967,39.00345],[-77.49077,39.0045],[-77.49311,39.00691],[-77.49521,39.00965],[-77.49624,39.01056]]},"properties":{"kind":"line","system":"Metrorail","ref":"Silver","name":"Silver Line","color":"#919D9D","text_color":"#FFFFFF"}},{"type":"Feature","geometry":{"type":"LineString","coordinates":[[-77.07551,38.79302],[-77.07485,38.79682],[-77.07459,38.7974],[-77.07412,38.79792],[-77.06689,38.80387],[-77.06585,38.80442],[-77.06341,38.80518],[-77.06247,38.80563],[-77.05871,38.80825],[-77.05745,38.80936],[-77.05668,38.81016],[-77.05566,38.81141],[-77.05107,38.81788],[-77.04765,38.82212],[-77.04691,38.82342],[-77.04646,38.8248],[-77.04612,38.82833],[-77.04617,38.82919],[-77.04669,38.83278],[-77.04666,38.83369],[-77.04635,38.83594],[-77.0464,38.83704],[-77.0466,38.83783],[-77.04693,38.83858],[-77.0485,38.84094],[-77.04901,38.84191],[-77.04986,38.84457],[-77.04993,38.84538],[-77.04981,38.84585],[-77.04957,38.84629],[-77.04886,38.84696],[-77.04455,38.84892],[-77.04385,38.84937],[-77.04347,38.8498],[-77.04323,38.85029],[-77.04316,38.85081],[-77.04325,38.85136],[-77.04545,38.85673],[-77.04593,38.85736],[-77.04668,38.85785],[-77.04749,38.8581],[-77.04834,38.85814],[-77.05436,38.85734],[-77.05561,38.85728],[-77.05657,38.85735],[-77.0575,38.85755],[-77.05824,38.85787],[-77.05879,38.85825],[-77.05944,38.85905],[-77.05962,38.85951],[-77.0597,38.86008],[-77.05924,38.86391],[-77.05893,38.86496],[-77.05843,38.86577],[-77.05774,38.86647],[-77.05319,38.86993],[-77.0524,38.87049],[-77.05185,38.87078],[-77.05072,38.871],[-77.04373,38.87111],[-77.04302,38.87124],[-77.04237,38.87152],[-77.04169,38.87208],[-77.03681,38.8778],[-77.03639,38.87818],[-77.03588,38.87847],[-77.03491,38.87872],[-77.03136,38.87903],[-77.02522,38.87986],[-77.02441,38.88008],[-77.02368,38.88039],[-77.02309,38.88074],[-77.02261,38.88116],[-77.02229,38.88161],[-77.02212,38.88208],[-77.02197,38.88404],[-77.02202,38.90644]]},"properties":{"kind":"line","system":"Metrorail","ref":"Yellow","name":"Yellow Line","color":"#FFD100","text_color":"#000000"}},{"type":"Feature","geometry":{"type":"LineString","coordinates":[[-76.91065,39.01181],[-76.91549,39.00636],[-76.91738,39.00374],[-76.91844,39.00192],[-76.91938,38.99995],[-76.92546,38.98533],[-76.92756,38.98045],[-76.92931,38.97599],[-76.93011,38.97375],[-76.93063,38.97292],[-76.9314,38.97224],[-76.93252,38.97171],[-76.93379,38.97148],[-76.93475,38.9715],[-76.93817,38.97187],[-76.93901,38.97182],[-76.93996,38.9716],[-76.94112,38.97102],[-76.94808,38.96648],[-76.94931,38.96592],[-76.95054,38.96557],[-76.95181,38.96539],[-76.95394,38.96531],[-76.96422,38.96534],[-76.96547,38.96516],[-76.96674,38.96469],[-76.96756,38.96416],[-76.96822,38.96351],[-76.96869,38.96277],[-76.96893,38.96211],[-76.969,38.96101],[-76.96852,38.95897],[-76.96843,38.95828],[-76.9685,38.95752],[-76.96879,38.95672],[-76.97046,38.95348],[-76.97083,38.9529],[-76.97126,38.95245],[-76.97178,38.95207],[-76.97304,38.95152],[-76.97387,38.95137],[-76.97479,38.95135],[-76.98968,38.9527],[-76.9914,38.95277],[-77.00163,38.9519],[-77.0081,38.95151],[-77.00962,38.95122],[-77.01081,38.95079],[-77.01182,38.95026],[-77.01471,38.94838],[-77.01572,38.94757],[-77.01663,38.94668],[-77.01727,38.94591],[-77.02716,38.93265],[-77.02761,38.93228],[-77.02812,38.932],[-77.03106,38.93097],[-77.03172,38.93064],[-77.03213,38.93031],[-77.03248,38.92986],[-77.03266,38.92942],[-77.03272,38.92893],[-77.03196,38.92128],[-77.03197,38.91901],[-77.03184,38.91851],[-77.03156,38.91802],[-77.03121,38.91766],[-77.03077,38.91736],[-77.0297,38.91701],[-77.02465,38.91696],[-77.02373,38.91683],[-77.02316,38.9166],[-77.02262,38.91622],[-77.02223,38.91573],[-77.02202,38.91518],[-77.0219,38.88421],[-77.02206,38.88103],[-77.02242,38.87881],[-77.02237,38.87828],[-77.0222,38.87783],[-77.02179,38.87729],[-77.0213,38.8769],[-77.0207,38.87662],[-77.01993,38.87644],[-77.00363,38.87642],[-77.00285,38.8763],[-77.00212,38.87606],[-77.00145,38.87569],[-77.0008,38.87517],[-77.00031,38.8746],[-76.99994,38.87399],[-76.99708,38.86787],[-76.9967,38.86685],[-76.99494,38.86102],[-76.99419,38.85928],[-76.99399,38.85823],[-76.99404,38.8554],[-76.99357,38.85302],[-76.99324,38.85202],[-76.99251,38.85083],[-76.98692,38.84365],[-76.98519,38.84065],[-76.98464,38.84002],[-76.98404,38.83961],[-76.98261,38.83883],[-76.98152,38.83842],[-76.98012,38.83827],[-76.97873,38.8385],[-76.97798,38.83882],[-76.97737,38.8392],[-76.97128,38.84401],[-76.96685,38.8463],[-76.96313,38.84913],[-76.96164,38.84996],[-76.96025,38.85046],[-76.95896,38.85074],[-76.94963,38.85212],[-76.94883,38.85218],[-76.94804,38.85211],[-76.94739,38.85193],[-76.9468,38.85166],[-76.94313,38.84938],[-76.94124,38.84839],[-76.93921,38.84761],[-76.93532,38.84641],[-76.93443,38.84595],[-76.93144,38.84329],[-76.92966,38.84088],[-76.92843,38.83978],[-76.92712,38.83903],[-76.92119,38.83634],[-76.92006,38.83563],[-76.9193,38.83487],[-76.91789,38.83304],[-76.91642,38.83023],[-76.9157,38.82928],[-76.91464,38.82843],[-76.90985,38.82543]]},"properties":{"kind":"line","system":"Metrorail","ref":"Green","name":"Green Line","color":"#00B140","text_color":"#FFFFFF"}},{"type":"Feature","geometry":{"type":"Point","coordinates":[-77.22716,38.88363]},"properties":{"kind":"station","system":"Metrorail","name":"Dunn Loring-Merrifield","refs":"Orange"}},{"type":"Feature","geometry":{"type":"Point","coordinates":[-77.27262,38.87761]},"properties":{"kind":"station","system":"Metrorail","name":"Vienna/Fairfax-GMU","refs":"Orange"}},{"type":"Feature","geometry":{"type":"Point","coordinates":[-77.085,38.95949]},"properties":{"kind":"station","system":"Metrorail","name":"Friendship Heights","refs":"Red"}},{"type":"Feature","geometry":{"type":"Point","coordinates":[-77.05954,38.86189]},"properties":{"kind":"station","system":"Metrorail","name":"Pentagon City","refs":"Blue,Yellow"}},{"type":"Feature","geometry":{"type":"Point","coordinates":[-77.02813,38.89319]},"properties":{"kind":"station","system":"Metrorail","name":"Federal Triangle","refs":"Orange,Blue,Silver"}},{"type":"Feature","geometry":{"type":"Point","coordinates":[-77.36019,38.95278]},"properties":{"kind":"station","system":"Metrorail","name":"Reston Town Center","refs":"Silver"}},{"type":"Feature","geometry":{"type":"Point","coordinates":[-77.38518,38.95283]},"properties":{"kind":"station","system":"Metrorail","name":"Herndon","refs":"Silver"}},{"type":"Feature","geometry":{"type":"Point","coordinates":[-77.4153,38.96077]},"properties":{"kind":"station","system":"Metrorail","name":"Innovation Center","refs":"Silver"}},{"type":"Feature","geometry":{"type":"Point","coordinates":[-77.44815,38.95579]},"properties":{"kind":"station","system":"Metrorail","name":"Washington Dulles International Airport","refs":"Silver"}},{"type":"Feature","geometry":{"type":"Point","coordinates":[-77.46069,38.99205]},"properties":{"kind":"station","system":"Metrorail","name":"Loudoun Gateway","refs":"Silver"}},{"type":"Feature","geometry":{"type":"Point","coordinates":[-77.49154,39.00529]},"properties":{"kind":"station","system":"Metrorail","name":"Ashburn","refs":"Silver"}},{"type":"Feature","geometry":{"type":"Point","coordinates":[-77.04641,38.83401]},"properties":{"kind":"station","system":"Metrorail","name":"Potomac Yard","refs":"Blue,Yellow"}},{"type":"Feature","geometry":{"type":"Point","coordinates":[-76.91147,38.82645]},"properties":{"kind":"station","system":"Metrorail","name":"Branch Ave","refs":"Green"}},{"type":"Feature","geometry":{"type":"Point","coordinates":[-77.05367,38.81415]},"properties":{"kind":"station","system":"Metrorail","name":"Braddock Road","refs":"Blue,Yellow"}},{"type":"Feature","geometry":{"type":"Point","coordinates":[-77.06081,38.80659]},"properties":{"kind":"station","system":"Metrorail","name":"King St-Old Town","refs":"Blue,Yellow"}},{"type":"Feature","geometry":{"type":"Point","coordinates":[-77.07088,38.80043]},"properties":{"kind":"station","system":"Metrorail","name":"Eisenhower Ave","refs":"Yellow"}},{"type":"Feature","geometry":{"type":"Point","coordinates":[-77.07521,38.79392]},"properties":{"kind":"station","system":"Metrorail","name":"Huntington","refs":"Yellow"}},{"type":"Feature","geometry":{"type":"Point","coordinates":[-76.99537,38.86297]},"properties":{"kind":"station","system":"Metrorail","name":"Anacostia","refs":"Green"}},{"type":"Feature","geometry":{"type":"Point","coordinates":[-76.996,38.88463]},"properties":{"kind":"station","system":"Metrorail","name":"Eastern Market","refs":"Orange,Blue,Silver"}},{"type":"Feature","geometry":{"type":"Point","coordinates":[-76.9855,38.88127]},"properties":{"kind":"station","system":"Metrorail","name":"Potomac Ave","refs":"Orange,Blue,Silver"}},{"type":"Feature","geometry":{"type":"Point","coordinates":[-76.97709,38.88672]},"properties":{"kind":"station","system":"Metrorail","name":"Stadium-Armory","refs":"Orange,Blue,Silver"}},{"type":"Feature","geometry":{"type":"Point","coordinates":[-76.99594,38.92107]},"properties":{"kind":"station","system":"Metrorail","name":"Rhode Island Ave-Brentwood","refs":"Red"}},{"type":"Feature","geometry":{"type":"Point","coordinates":[-76.94675,38.8992]},"properties":{"kind":"station","system":"Metrorail","name":"Minnesota Ave","refs":"Orange"}},{"type":"Feature","geometry":{"type":"Point","coordinates":[-77.06299,38.94327]},"properties":{"kind":"station","system":"Metrorail","name":"Van Ness-UDC","refs":"Red"}},{"type":"Feature","geometry":{"type":"Point","coordinates":[-77.05804,38.93477]},"properties":{"kind":"station","system":"Metrorail","name":"Cleveland Park","refs":"Red"}},{"type":"Feature","geometry":{"type":"Point","coordinates":[-77.24156,38.92896]},"properties":{"kind":"station","system":"Metrorail","name":"Spring Hill","refs":"Silver"}},{"type":"Feature","geometry":{"type":"Point","coordinates":[-77.23388,38.92096]},"properties":{"kind":"station","system":"Metrorail","name":"Greensboro","refs":"Silver"}},{"type":"Feature","geometry":{"type":"Point","coordinates":[-77.22172,38.92068]},"properties":{"kind":"station","system":"Metrorail","name":"Tysons","refs":"Silver"}},{"type":"Feature","geometry":{"type":"Point","coordinates":[-77.21008,38.92453]},"properties":{"kind":"station","system":"Metrorail","name":"McLean","refs":"Silver"}},{"type":"Feature","geometry":{"type":"Point","coordinates":[-76.87184,38.94779]},"properties":{"kind":"station","system":"Metrorail","name":"New Carrollton","refs":"Orange"}},{"type":"Feature","geometry":{"type":"Point","coordinates":[-76.8912,38.93351]},"properties":{"kind":"station","system":"Metrorail","name":"Landover","refs":"Orange"}},{"type":"Feature","geometry":{"type":"Point","coordinates":[-76.91663,38.91664]},"properties":{"kind":"station","system":"Metrorail","name":"Cheverly","refs":"Orange"}},{"type":"Feature","geometry":{"type":"Point","coordinates":[-77.00302,38.90702]},"properties":{"kind":"station","system":"Metrorail","name":"NoMa-Gallaudet U","refs":"Red"}},{"type":"Feature","geometry":{"type":"Point","coordinates":[-77.07091,38.89599]},"properties":{"kind":"station","system":"Metrorail","name":"Rosslyn","refs":"Orange,Blue,Silver"}},{"type":"Feature","geometry":{"type":"Point","coordinates":[-77.06281,38.88469]},"properties":{"kind":"station","system":"Metrorail","name":"Arlington Cemetery","refs":"Blue"}},{"type":"Feature","geometry":{"type":"Point","coordinates":[-77.04342,38.90961]},"properties":{"kind":"station","system":"Metrorail","name":"Dupont Circle","refs":"Red"}},{"type":"Feature","geometry":{"type":"Point","coordinates":[-77.05372,38.86947]},"properties":{"kind":"station","system":"Metrorail","name":"Pentagon","refs":"Blue,Yellow"}},{"type":"Feature","geometry":{"type":"Point","coordinates":[-77.05029,38.85791]},"properties":{"kind":"station","system":"Metrorail","name":"Crystal City","refs":"Blue,Yellow"}},{"type":"Feature","geometry":{"type":"Point","coordinates":[-77.00509,38.87649]},"properties":{"kind":"station","system":"Metrorail","name":"Navy Yard-Ballpark","refs":"Green"}},{"type":"Feature","geometry":{"type":"Point","coordinates":[-77.03364,38.90134]},"properties":{"kind":"station","system":"Metrorail","name":"McPherson Sq","refs":"Orange,Blue,Silver"}},{"type":"Feature","geometry":{"type":"Point","coordinates":[-76.97506,38.84109]},"properties":{"kind":"station","system":"Metrorail","name":"Southern Avenue","refs":"Green"}},{"type":"Feature","geometry":{"type":"Point","coordinates":[-77.07959,38.94886]},"properties":{"kind":"station","system":"Metrorail","name":"Tenleytown-AU","refs":"Red"}},{"type":"Feature","geometry":{"type":"Point","coordinates":[-77.1891,38.90079]},"properties":{"kind":"station","system":"Metrorail","name":"West Falls Church","refs":"Orange"}},{"type":"Feature","geometry":{"type":"Point","coordinates":[-77.34006,38.94774]},"properties":{"kind":"station","system":"Metrorail","name":"Wiehle-Reston East","refs":"Silver"}},{"type":"Feature","geometry":{"type":"Point","coordinates":[-77.01818,38.97609]},"properties":{"kind":"station","system":"Metrorail","name":"Takoma","refs":"Red"}},{"type":"Feature","geometry":{"type":"Point","coordinates":[-77.05356,39.06179]},"properties":{"kind":"station","system":"Metrorail","name":"Glenmont","refs":"Red"}},{"type":"Feature","geometry":{"type":"Point","coordinates":[-77.05011,39.03753]},"properties":{"kind":"station","system":"Metrorail","name":"Wheaton","refs":"Red"}},{"type":"Feature","geometry":{"type":"Point","coordinates":[-77.04292,39.01496]},"properties":{"kind":"station","system":"Metrorail","name":"Forest Glen","refs":"Red"}},{"type":"Feature","geometry":{"type":"Point","coordinates":[-77.03102,38.99396]},"properties":{"kind":"station","system":"Metrorail","name":"Silver Spring","refs":"Red"}},{"type":"Feature","geometry":{"type":"Point","coordinates":[-76.99454,38.93322]},"properties":{"kind":"station","system":"Metrorail","name":"Brookland-CUA","refs":"Red"}},{"type":"Feature","geometry":{"type":"Point","coordinates":[-76.93526,38.90819]},"properties":{"kind":"station","system":"Metrorail","name":"Deanwood","refs":"Orange"}},{"type":"Feature","geometry":{"type":"Point","coordinates":[-77.16463,39.11994]},"properties":{"kind":"station","system":"Metrorail","name":"Shady Grove","refs":"Red"}},{"type":"Feature","geometry":{"type":"Point","coordinates":[-77.14613,39.08433]},"properties":{"kind":"station","system":"Metrorail","name":"Rockville","refs":"Red"}},{"type":"Feature","geometry":{"type":"Point","coordinates":[-77.12082,39.06248]},"properties":{"kind":"station","system":"Metrorail","name":"Twinbrook","refs":"Red"}},{"type":"Feature","geometry":{"type":"Point","coordinates":[-77.11283,39.04816]},"properties":{"kind":"station","system":"Metrorail","name":"North Bethesda","refs":"Red"}},{"type":"Feature","geometry":{"type":"Point","coordinates":[-77.10385,39.02928]},"properties":{"kind":"station","system":"Metrorail","name":"Grosvenor-Strathmore","refs":"Red"}},{"type":"Feature","geometry":{"type":"Point","coordinates":[-77.09695,39.00006]},"properties":{"kind":"station","system":"Metrorail","name":"Medical Center","refs":"Red"}},{"type":"Feature","geometry":{"type":"Point","coordinates":[-77.09413,38.9844]},"properties":{"kind":"station","system":"Metrorail","name":"Bethesda","refs":"Red"}},{"type":"Feature","geometry":{"type":"Point","coordinates":[-77.05028,38.90071]},"properties":{"kind":"station","system":"Metrorail","name":"Foggy Bottom-GWU","refs":"Orange,Blue,Silver"}},{"type":"Feature","geometry":{"type":"Point","coordinates":[-77.08713,38.89018]},"properties":{"kind":"station","system":"Metrorail","name":"Court House","refs":"Orange,Silver"}},{"type":"Feature","geometry":{"type":"Point","coordinates":[-77.0954,38.88671]},"properties":{"kind":"station","system":"Metrorail","name":"Clarendon","refs":"Orange,Silver"}},{"type":"Feature","geometry":{"type":"Point","coordinates":[-77.15689,38.88596]},"properties":{"kind":"station","system":"Metrorail","name":"East Falls Church","refs":"Orange,Silver"}},{"type":"Feature","geometry":{"type":"Point","coordinates":[-77.10298,38.88337]},"properties":{"kind":"station","system":"Metrorail","name":"Virginia Square-GMU","refs":"Orange,Silver"}},{"type":"Feature","geometry":{"type":"Point","coordinates":[-77.11317,38.88219]},"properties":{"kind":"station","system":"Metrorail","name":"Ballston-MU","refs":"Orange,Silver"}},{"type":"Feature","geometry":{"type":"Point","coordinates":[-77.0407,38.90132]},"properties":{"kind":"station","system":"Metrorail","name":"Farragut West","refs":"Orange,Blue,Silver"}},{"type":"Feature","geometry":{"type":"Point","coordinates":[-77.0397,38.90321]},"properties":{"kind":"station","system":"Metrorail","name":"Farragut North","refs":"Red"}},{"type":"Feature","geometry":{"type":"Point","coordinates":[-77.05242,38.92509]},"properties":{"kind":"station","system":"Metrorail","name":"Woodley Park-Zoo/Adams Morgan","refs":"Red"}},{"type":"Feature","geometry":{"type":"Point","coordinates":[-77.02807,38.88803]},"properties":{"kind":"station","system":"Metrorail","name":"Smithsonian","refs":"Orange,Blue,Silver"}},{"type":"Feature","geometry":{"type":"Point","coordinates":[-77.02192,38.89367]},"properties":{"kind":"station","system":"Metrorail","name":"Archives-Navy Memorial-Penn Quarter","refs":"Yellow,Green"}},{"type":"Feature","geometry":{"type":"Point","coordinates":[-77.01751,38.87647]},"properties":{"kind":"station","system":"Metrorail","name":"Waterfront","refs":"Green"}},{"type":"Feature","geometry":{"type":"Point","coordinates":[-77.04404,38.85342]},"properties":{"kind":"station","system":"Metrorail","name":"Ronald Reagan Washington National Airport","refs":"Blue,Yellow"}},{"type":"Feature","geometry":{"type":"Point","coordinates":[-77.01587,38.88508]},"properties":{"kind":"station","system":"Metrorail","name":"Federal Center SW","refs":"Orange,Blue,Silver"}},{"type":"Feature","geometry":{"type":"Point","coordinates":[-77.01664,38.8961]},"properties":{"kind":"station","system":"Metrorail","name":"Judiciary Square","refs":"Red"}},{"type":"Feature","geometry":{"type":"Point","coordinates":[-77.00514,38.88507]},"properties":{"kind":"station","system":"Metrorail","name":"Capitol South","refs":"Orange,Blue,Silver"}},{"type":"Feature","geometry":{"type":"Point","coordinates":[-77.02808,38.89832]},"properties":{"kind":"station","system":"Metrorail","name":"Metro Center","refs":"Red,Orange,Blue,Silver"}},{"type":"Feature","geometry":{"type":"Point","coordinates":[-77.02192,38.89832]},"properties":{"kind":"station","system":"Metrorail","name":"Gallery Pl-Chinatown","refs":"Red,Yellow,Green"}},{"type":"Feature","geometry":{"type":"Point","coordinates":[-77.02192,38.90644]},"properties":{"kind":"station","system":"Metrorail","name":"Mt Vernon Sq 7th St-Convention Center","refs":"Yellow,Green"}},{"type":"Feature","geometry":{"type":"Point","coordinates":[-77.00742,38.89777]},"properties":{"kind":"station","system":"Metrorail","name":"Union Station","refs":"Red"}},{"type":"Feature","geometry":{"type":"Point","coordinates":[-76.98851,38.84567]},"properties":{"kind":"station","system":"Metrorail","name":"Congress Heights","refs":"Green"}},{"type":"Feature","geometry":{"type":"Point","coordinates":[-76.95626,38.85131]},"properties":{"kind":"station","system":"Metrorail","name":"Naylor Road","refs":"Green"}},{"type":"Feature","geometry":{"type":"Point","coordinates":[-76.93187,38.84397]},"properties":{"kind":"station","system":"Metrorail","name":"Suitland","refs":"Green"}},{"type":"Feature","geometry":{"type":"Point","coordinates":[-76.93837,38.89098]},"properties":{"kind":"station","system":"Metrorail","name":"Benning Road","refs":"Blue,Silver"}},{"type":"Feature","geometry":{"type":"Point","coordinates":[-76.91106,39.01115]},"properties":{"kind":"station","system":"Metrorail","name":"Greenbelt","refs":"Green"}},{"type":"Feature","geometry":{"type":"Point","coordinates":[-76.84455,38.90061]},"properties":{"kind":"station","system":"Metrorail","name":"Downtown Largo","refs":"Blue,Silver"}},{"type":"Feature","geometry":{"type":"Point","coordinates":[-76.96958,38.95505]},"properties":{"kind":"station","system":"Metrorail","name":"West Hyattsville","refs":"Green"}},{"type":"Feature","geometry":{"type":"Point","coordinates":[-77.02191,38.91348]},"properties":{"kind":"station","system":"Metrorail","name":"Shaw-Howard U","refs":"Green"}},{"type":"Feature","geometry":{"type":"Point","coordinates":[-76.91181,38.88947]},"properties":{"kind":"station","system":"Metrorail","name":"Capitol Heights","refs":"Blue,Silver"}},{"type":"Feature","geometry":{"type":"Point","coordinates":[-77.12911,38.79932]},"properties":{"kind":"station","system":"Metrorail","name":"Van Dorn Street","refs":"Blue"}},{"type":"Feature","geometry":{"type":"Point","coordinates":[-77.16797,38.76653]},"properties":{"kind":"station","system":"Metrorail","name":"Franconia-Springfield","refs":"Blue"}},{"type":"Feature","geometry":{"type":"Point","coordinates":[-77.02191,38.88485]},"properties":{"kind":"station","system":"Metrorail","name":"L'Enfant Plaza","refs":"Orange,Blue,Silver,Yellow,Green"}},{"type":"Feature","geometry":{"type":"Point","coordinates":[-77.03255,38.92785]},"properties":{"kind":"station","system":"Metrorail","name":"Columbia Heights","refs":"Green"}},{"type":"Feature","geometry":{"type":"Point","coordinates":[-76.92813,38.97864]},"properties":{"kind":"station","system":"Metrorail","name":"College Park-U of Md","refs":"Green"}},{"type":"Feature","geometry":{"type":"Point","coordinates":[-77.02346,38.93744]},"properties":{"kind":"station","system":"Metrorail","name":"Georgia Ave-Petworth","refs":"Green"}},{"type":"Feature","geometry":{"type":"Point","coordinates":[-76.95588,38.96539]},"properties":{"kind":"station","system":"Metrorail","name":"Hyattsville Crossing","refs":"Green"}},{"type":"Feature","geometry":{"type":"Point","coordinates":[-77.0275,38.91701]},"properties":{"kind":"station","system":"Metrorail","name":"U Street/African-Amer Civil War Memorial/Cardozo","refs":"Green"}},{"type":"Feature","geometry":{"type":"Point","coordinates":[-76.89411,38.88676]},"properties":{"kind":"station","system":"Metrorail","name":"Addison Road-Seat Pleasant","refs":"Blue,Silver"}},{"type":"Feature","geometry":{"type":"Point","coordinates":[-77.00221,38.95185]},"properties":{"kind":"station","system":"Metrorail","name":"Fort Totten","refs":"Red,Green"}},{"type":"Feature","geometry":{"type":"Point","coordinates":[-76.86808,38.89384]},"properties":{"kind":"station","system":"Metrorail","name":"Morgan Boulevard","refs":"Blue,Silver"}}]}