{"type":"FeatureCollection","features":[{"type":"Feature","geometry":{"type":"MultiLineString","coordinates":[[[-118.18935,33.77684],[-118.18942,33.77413],[-118.18937,33.76828],[-118.18946,33.76816],[-118.1897,33.76808],[-118.19155,33.76806],[-118.19204,33.76801],[-118.19241,33.768],[-118.19297,33.76799],[-118.19318,33.768]],[[-118.19297,33.768],[-118.19353,33.76802],[-118.19375,33.76823],[-118.19373,33.77631],[-118.19366,33.77644],[-118.19348,33.77654],[-118.18969,33.77656],[-118.18941,33.77676],[-118.18935,33.77801],[-118.18933,33.78926],[-118.18937,33.80408],[-118.18923,33.80544],[-118.18931,33.80595],[-118.19504,33.81833],[-118.19643,33.82045],[-118.19855,33.82338],[-118.20222,33.82904],[-118.20283,33.83002],[-118.20542,33.83492],[-118.21041,33.84692],[-118.21289,33.85249],[-118.22093,33.87196],[-118.22275,33.87685],[-118.22288,33.87744],[-118.22444,33.90064],[-118.2246,33.90237],[-118.2249,33.90357],[-118.22526,33.90446],[-118.22734,33.90848],[-118.23742,33.92788],[-118.24229,33.93706],[-118.24267,33.93785],[-118.24293,33.93881],[-118.24312,33.94091],[-118.24317,33.94497],[-118.24321,33.95682],[-118.24314,33.9592],[-118.24328,33.97639],[-118.24329,33.98675],[-118.24341,33.99153],[-118.24335,33.99964],[-118.24306,34.01736],[-118.24308,34.02049],[-118.24329,34.0207],[-118.24426,34.02099],[-118.25052,34.0245],[-118.26271,34.03017],[-118.27023,34.03357],[-118.27045,34.03372],[-118.27055,34.03405],[-118.26677,34.03998],[-118.25385,34.05389],[-118.25319,34.05439],[-118.25263,34.05457],[-118.25102,34.05471],[-118.25052,34.05466],[-118.25006,34.05451],[-118.24399,34.0506],[-118.24079,34.04873],[-118.24017,34.0486],[-118.23966,34.04862],[-118.23819,34.04891],[-118.23779,34.04911],[-118.23765,34.04945],[-118.23783,34.05143],[-118.23769,34.05332],[-118.23756,34.05348],[-118.23729,34.05357],[-118.23574,34.05342],[-118.2353,34.05369],[-118.2344,34.05739],[-118.23339,34.05936],[-118.23341,34.05983],[-118.23369,34.06025],[-118.23425,34.06075],[-118.23558,34.0616],[-118.23592,34.06207],[-118.23606,34.0625],[-118.23601,34.06314],[-118.23502,34.06618],[-118.23462,34.06703],[-118.2341,34.06775],[-118.23359,34.06822],[-118.23157,34.0695],[-118.23086,34.06986],[-118.22727,34.07125],[-118.22647,34.07181],[-118.22618,34.07216],[-118.22594,34.07261],[-118.22411,34.07737],[-118.22374,34.07803],[-118.2232,34.07874],[-118.22231,34.07958],[-118.21868,34.08216],[-118.2174,34.08318],[-118.21207,34.08833],[-118.21158,34.08913],[-118.21135,34.08992],[-118.2113,34.0909],[-118.2114,34.09257],[-118.2112,34.09342],[-118.21085,34.09397],[-118.20955,34.09529],[-118.20845,34.09691],[-118.2079,34.0974],[-118.20583,34.09879],[-118.20519,34.09947],[-118.20483,34.10037],[-118.20482,34.10252],[-118.20459,34.10368],[-118.20428,34.10438],[-118.20381,34.10507],[-118.20275,34.10607],[-118.20187,34.10659],[-118.19158,34.11164],[-118.19095,34.11189],[-118.19018,34.11208],[-118.18927,34.11215],[-118.18825,34.11203],[-118.1817,34.11015],[-118.1809,34.11],[-118.17992,34.10996],[-118.17876,34.11009],[-118.17533,34.11071],[-118.17094,34.11189],[-118.16211,34.11253],[-118.16116,34.11266],[-118.16057,34.11288],[-118.15997,34.11325],[-118.15714,34.11578],[-118.15156,34.11995],[-118.1511,34.12053],[-118.15075,34.12145],[-118.15068,34.12193],[-118.15077,34.12345],[-118.15052,34.12436],[-118.15011,34.12495],[-118.14838,34.12647],[-118.14806,34.1271],[-118.14816,34.14695],[-118.14809,34.14721],[-118.14637,34.15066],[-118.146,34.1513],[-118.14575,34.15154],[-118.14532,34.15174],[-118.14431,34.15183],[-118.12932,34.15177],[-118.12227,34.15224],[-118.11097,34.15243],[-118.09502,34.15252],[-118.09314,34.15229],[-118.0915,34.15179],[-118.09,34.15106],[-118.08759,34.1493],[-118.08597,34.14842],[-118.08465,34.14795],[-118.08288,34.14768],[-118.07719,34.14786],[-118.07189,34.14851],[-118.06951,34.14867],[-118.0427,34.14885],[-118.04057,34.1488],[-118.03949,34.14861],[-118.03862,34.14835],[-118.03688,34.14765],[-118.03593,34.14715],[-118.02478,34.14002],[-118.02287,34.13884],[-118.02157,34.13819],[-118.02057,34.13783],[-118.01844,34.13724],[-118.00186,34.13271],[-117.99978,34.13238],[-117.99888,34.13233],[-117.9532,34.1325],[-117.9521,34.13234],[-117.95121,34.1321],[-117.94203,34.12885],[-117.94116,34.1286],[-117.93977,34.12838],[-117.93801,34.12838],[-117.92753,34.12962],[-117.92581,34.12997],[-117.91037,34.13463],[-117.90659,34.13586],[-117.90447,34.13641],[-117.90039,34.13678],[-117.89468,34.13656],[-117.89327,34.13661],[-117.8899,34.13698],[-117.88246,34.1385],[-117.88014,34.13868],[-117.87833,34.13857],[-117.87643,34.13813],[-117.87473,34.1374],[-117.86528,34.13119],[-117.86413,34.13065],[-117.86218,34.12998],[-117.86126,34.12985],[-117.85963,34.12982],[-117.83867,34.1298],[-117.8372,34.12961],[-117.83572,34.12907],[-117.83491,34.12859],[-117.83431,34.12812],[-117.83383,34.12761],[-117.83321,34.12674],[-117.83282,34.12601],[-117.83257,34.12529],[-117.83204,34.1222],[-117.83181,34.12148],[-117.83145,34.12069],[-117.83083,34.11972],[-117.82966,34.11831],[-117.82858,34.11675],[-117.82585,34.11327],[-117.82437,34.11182],[-117.82236,34.11034],[-117.82036,34.10923],[-117.81826,34.10835],[-117.81615,34.10771],[-117.79231,34.10179],[-117.78996,34.10139],[-117.78259,34.1007],[-117.77987,34.10031],[-117.75739,34.09442],[-117.75441,34.09397],[-117.7522,34.09393]]]},"properties":{"kind":"line","system":"LA Metro","ref":"A","name":"A Line","color":"#0072BC","text_color":"#FFFFFF"}},{"type":"Feature","geometry":{"type":"LineString","coordinates":[[-118.2345,34.05594],[-118.23637,34.05769],[-118.23697,34.05804],[-118.23773,34.05828],[-118.23863,34.05836],[-118.24103,34.05807],[-118.24199,34.05786],[-118.24307,34.05746],[-118.24417,34.05682],[-118.24488,34.05623],[-118.2527,34.04791],[-118.25329,34.04749],[-118.25401,34.0472],[-118.25472,34.04708],[-118.25542,34.04708],[-118.25604,34.0472],[-118.2567,34.04746],[-118.25982,34.04942],[-118.26296,34.05045],[-118.26493,34.05118],[-118.27195,34.05434],[-118.27929,34.0595],[-118.28083,34.0603],[-118.2835,34.06149],[-118.28417,34.0617],[-118.28547,34.06186],[-118.28783,34.06171],[-118.28864,34.06186],[-118.28938,34.06217],[-118.2916,34.06346],[-118.2921,34.06394],[-118.29248,34.06452],[-118.29276,34.06523],[-118.29289,34.06601],[-118.29274,34.06691],[-118.29184,34.06847],[-118.29166,34.06906],[-118.2916,34.06955],[-118.2917,34.09912],[-118.29184,34.09978],[-118.29225,34.10051],[-118.29281,34.10106],[-118.29358,34.10151],[-118.29464,34.10179],[-118.29588,34.10182],[-118.34263,34.10159],[-118.34354,34.10168],[-118.34435,34.1019],[-118.34504,34.1022],[-118.3457,34.10263],[-118.34643,34.10334],[-118.34698,34.10421],[-118.36337,34.13438],[-118.36361,34.13531],[-118.3636,34.13618],[-118.36232,34.1412],[-118.3622,34.14198],[-118.36225,34.14392],[-118.36263,34.14513],[-118.37675,34.16854]]},"properties":{"kind":"line","system":"LA Metro","ref":"B","name":"B Line","color":"#EB131B","text_color":"#FFFFFF"}},{"type":"Feature","geometry":{"type":"LineString","coordinates":[[-118.37875,33.94997],[-118.3787,33.93708],[-118.37878,33.93029],[-118.37863,33.93],[-118.37838,33.9298],[-118.37801,33.92965],[-118.37603,33.92962],[-118.37438,33.92995],[-118.36925,33.92999],[-118.36771,33.93011],[-118.36662,33.93033],[-118.35685,33.93328],[-118.35484,33.93362],[-118.3537,33.93365],[-118.35262,33.93358],[-118.35026,33.9331],[-118.34897,33.93268],[-118.34715,33.93194],[-118.34487,33.93066],[-118.33956,33.92687],[-118.33791,33.92591],[-118.33694,33.92551],[-118.33559,33.92513],[-118.33473,33.92496],[-118.33296,33.92485],[-118.32143,33.92546],[-118.31223,33.9254],[-118.30999,33.92553],[-118.3071,33.92596],[-118.29669,33.92827],[-118.295,33.92853],[-118.29298,33.92868],[-118.278,33.92871],[-118.27635,33.92853],[-118.27186,33.92765],[-118.27004,33.92747],[-118.25999,33.92746],[-118.25828,33.92756],[-118.25014,33.92863],[-118.24809,33.92878],[-118.24636,33.92876],[-118.23415,33.92802],[-118.23253,33.92804],[-118.23054,33.92833],[-118.22563,33.92955],[-118.22322,33.92968],[-118.22102,33.92942],[-118.21981,33.92913],[-118.21884,33.92881],[-118.19087,33.91653],[-118.18156,33.9133],[-118.17678,33.91176],[-118.17447,33.91124],[-118.17046,33.91106],[-118.16811,33.91114],[-118.15353,33.91253],[-118.14944,33.91285],[-118.1462,33.91301],[-118.12642,33.91318],[-118.12294,33.91332],[-118.1155,33.91384],[-118.10682,33.91387],[-118.10472,33.91403]]},"properties":{"kind":"line","system":"LA Metro","ref":"C","name":"C Line","color":"#58A738","text_color":"#FFFFFF"}},{"type":"Feature","geometry":{"type":"LineString","coordinates":[[-118.37471,34.06478],[-118.37174,34.06409],[-118.35703,34.06245],[-118.31795,34.06165],[-118.29863,34.06173],[-118.29775,34.06187],[-118.29709,34.06207],[-118.2939,34.06351],[-118.29324,34.06363],[-118.2924,34.06359],[-118.29156,34.06335],[-118.28918,34.06207],[-118.28847,34.06181],[-118.28767,34.0617],[-118.28596,34.06183],[-118.285,34.06178],[-118.28377,34.06149],[-118.28253,34.06095],[-118.27962,34.05958],[-118.27276,34.05472],[-118.2719,34.05419],[-118.26501,34.05111],[-118.26317,34.05042],[-118.26005,34.04941],[-118.25669,34.04732],[-118.25592,34.04705],[-118.25514,34.04694],[-118.25395,34.04709],[-118.25324,34.04737],[-118.25271,34.04772],[-118.24476,34.05615],[-118.24388,34.05686],[-118.24292,34.0574],[-118.24206,34.05772],[-118.24087,34.05799],[-118.2389,34.05824],[-118.23775,34.05817],[-118.23704,34.05794],[-118.23638,34.05754],[-118.23459,34.05585]]},"properties":{"kind":"line","system":"LA Metro","ref":"D","name":"D Line","color":"#A05DA5","text_color":"#FFFFFF"}},{"type":"Feature","geometry":{"type":"LineString","coordinates":[[-118.15447,34.03343],[-118.17169,34.0333],[-118.17505,34.03339],[-118.19174,34.03327],[-118.1921,34.03352],[-118.19223,34.03559],[-118.19235,34.03586],[-118.19261,34.03607],[-118.19603,34.03767],[-118.21113,34.04427],[-118.21272,34.04464],[-118.21346,34.04489],[-118.21602,34.04604],[-118.21782,34.04706],[-118.21835,34.04723],[-118.21892,34.04729],[-118.22225,34.0474],[-118.22967,34.04791],[-118.23774,34.04902],[-118.23821,34.049],[-118.23978,34.0487],[-118.24054,34.04876],[-118.2411,34.04897],[-118.24363,34.05049],[-118.2499,34.05453],[-118.25052,34.05476],[-118.25113,34.0548],[-118.25279,34.05464],[-118.25333,34.05443],[-118.25372,34.05415],[-118.25803,34.04943],[-118.2667,34.04015],[-118.27049,34.03425],[-118.27087,34.03378],[-118.27167,34.0325],[-118.27286,34.03033],[-118.27364,34.0291],[-118.27422,34.02828],[-118.27476,34.02778],[-118.27531,34.02663],[-118.27741,34.0234],[-118.27825,34.02192],[-118.27916,34.02063],[-118.28041,34.01866],[-118.2806,34.01849],[-118.28097,34.01837],[-118.28647,34.01825],[-118.30453,34.01831],[-118.31522,34.01845],[-118.31899,34.01903],[-118.32804,34.02113],[-118.33295,34.02215],[-118.33606,34.02273],[-118.34049,34.02336],[-118.34576,34.02396],[-118.36305,34.02558],[-118.36602,34.02592],[-118.37323,34.02649],[-118.38394,34.02755],[-118.38791,34.02784],[-118.40791,34.02968],[-118.41031,34.03012],[-118.41295,34.03098],[-118.41402,34.03194],[-118.41535,34.03259],[-118.41598,34.03308],[-118.41633,34.03353],[-118.41739,34.03536],[-118.41833,34.03627],[-118.41898,34.03666],[-118.41974,34.03697],[-118.42063,34.03716],[-118.42147,34.03722],[-118.42386,34.03695],[-118.43115,34.03586],[-118.43534,34.03531],[-118.45227,34.03189],[-118.46573,34.02909],[-118.46689,34.02877],[-118.47193,34.02706],[-118.47434,34.02613],[-118.47548,34.02558],[-118.47795,34.02423],[-118.47974,34.02372],[-118.49108,34.01454],[-118.49145,34.01406]]},"properties":{"kind":"line","system":"LA Metro","ref":"E","name":"E Line","color":"#FDB913","text_color":"#000000"}},{"type":"Feature","geometry":{"type":"LineString","coordinates":[[-118.33489,34.02223],[-118.33542,34.01034],[-118.33532,34.00837],[-118.33517,34.00772],[-118.33471,34.00685],[-118.33388,34.00582],[-118.33187,34.00363],[-118.33109,34.00218],[-118.33084,34.00111],[-118.33091,33.97865],[-118.33103,33.97801],[-118.33136,33.97758],[-118.33192,33.97724],[-118.34973,33.96884],[-118.35078,33.96805],[-118.35236,33.9663],[-118.35312,33.96583],[-118.35469,33.96536],[-118.35567,33.96528],[-118.35651,33.96539],[-118.35806,33.96594],[-118.35871,33.96607],[-118.36233,33.96635],[-118.36365,33.96624],[-118.36491,33.96584],[-118.37519,33.96176],[-118.37608,33.96132],[-118.37711,33.96057],[-118.37777,33.95984],[-118.37822,33.95914],[-118.37857,33.95821],[-118.37871,33.95724],[-118.37878,33.94499],[-118.3787,33.93708],[-118.37881,33.93092],[-118.379,33.93027],[-118.37919,33.93004],[-118.37969,33.92975],[-118.38154,33.92969],[-118.38263,33.92949],[-118.38647,33.92818],[-118.3871,33.92774],[-118.38732,33.92745],[-118.38751,33.92699],[-118.38758,33.92386],[-118.3875,33.91708],[-118.38728,33.91666],[-118.38578,33.9154],[-118.38547,33.91494],[-118.38532,33.91448],[-118.38527,33.90796],[-118.38515,33.90733],[-118.38498,33.90697],[-118.38437,33.90626],[-118.3806,33.90334],[-118.37963,33.90251],[-118.3692,33.89464]]},"properties":{"kind":"line","system":"LA Metro","ref":"K","name":"K Line","color":"#E56DB1","text_color":"#000000"}},{"type":"Feature","geometry":{"type":"Point","coordinates":[-118.19292,33.76807]},"properties":{"kind":"station","system":"LA Metro","name":"Downtown Long Beach","refs":"A"}},{"type":"Feature","geometry":{"type":"Point","coordinates":[-118.1937,33.77226]},"properties":{"kind":"station","system":"LA Metro","name":"Pacific Ave","refs":"A"}},{"type":"Feature","geometry":{"type":"Point","coordinates":[-118.18938,33.78183]},"properties":{"kind":"station","system":"LA Metro","name":"Anaheim Street","refs":"A"}},{"type":"Feature","geometry":{"type":"Point","coordinates":[-118.18938,33.78909]},"properties":{"kind":"station","system":"LA Metro","name":"Pacific Coast Hwy","refs":"A"}},{"type":"Feature","geometry":{"type":"Point","coordinates":[-118.18983,33.80708]},"properties":{"kind":"station","system":"LA Metro","name":"Willow Street","refs":"A"}},{"type":"Feature","geometry":{"type":"Point","coordinates":[-118.19609,33.81987]},"properties":{"kind":"station","system":"LA Metro","name":"Wardlow","refs":"A"}},{"type":"Feature","geometry":{"type":"Point","coordinates":[-118.21102,33.84822]},"properties":{"kind":"station","system":"LA Metro","name":"Del Amo","refs":"A"}},{"type":"Feature","geometry":{"type":"Point","coordinates":[-118.2225,33.87608]},"properties":{"kind":"station","system":"LA Metro","name":"Artesia","refs":"A"}},{"type":"Feature","geometry":{"type":"Point","coordinates":[-118.22425,33.89749]},"properties":{"kind":"station","system":"LA Metro","name":"Compton","refs":"A"}},{"type":"Feature","geometry":{"type":"Point","coordinates":[-118.23756,33.92805]},"properties":{"kind":"station","system":"LA Metro","name":"Willowbrook - Rosa Parks","refs":"A,C"}},{"type":"Feature","geometry":{"type":"Point","coordinates":[-118.24316,33.94222]},"properties":{"kind":"station","system":"LA Metro","name":"103rd Street / Watts Towers","refs":"A"}},{"type":"Feature","geometry":{"type":"Point","coordinates":[-118.24321,33.95961]},"properties":{"kind":"station","system":"LA Metro","name":"Firestone","refs":"A"}},{"type":"Feature","geometry":{"type":"Point","coordinates":[-118.24327,33.97374]},"properties":{"kind":"station","system":"LA Metro","name":"Florence","refs":"A"}},{"type":"Feature","geometry":{"type":"Point","coordinates":[-118.2434,33.98876]},"properties":{"kind":"station","system":"LA Metro","name":"Slauson","refs":"A"}},{"type":"Feature","geometry":{"type":"Point","coordinates":[-118.2433,34.00292]},"properties":{"kind":"station","system":"LA Metro","name":"Vernon","refs":"A"}},{"type":"Feature","geometry":{"type":"Point","coordinates":[-118.24308,34.01965]},"properties":{"kind":"station","system":"LA Metro","name":"Washington","refs":"A"}},{"type":"Feature","geometry":{"type":"Point","coordinates":[-118.2555,34.02681]},"properties":{"kind":"station","system":"LA Metro","name":"San Pedro Street","refs":"A"}},{"type":"Feature","geometry":{"type":"Point","coordinates":[-118.26933,34.03316]},"properties":{"kind":"station","system":"LA Metro","name":"Grand / LATTC","refs":"A"}},{"type":"Feature","geometry":{"type":"Point","coordinates":[-118.26612,34.04073]},"properties":{"kind":"station","system":"LA Metro","name":"Pico","refs":"A,E"}},{"type":"Feature","geometry":{"type":"Point","coordinates":[-118.25882,34.04861]},"properties":{"kind":"station","system":"LA Metro","name":"7th Street / Metro Center","refs":"A,B,D,E"}},{"type":"Feature","geometry":{"type":"Point","coordinates":[-118.25153,34.05472]},"properties":{"kind":"station","system":"LA Metro","name":"Grand Ave Arts / Bunker Hill","refs":"A,E"}},{"type":"Feature","geometry":{"type":"Point","coordinates":[-118.24632,34.05216]},"properties":{"kind":"station","system":"LA Metro","name":"Historic Broadway","refs":"A,E"}},{"type":"Feature","geometry":{"type":"Point","coordinates":[-118.23876,34.04885]},"properties":{"kind":"station","system":"LA Metro","name":"Little Tokyo / Arts District","refs":"A,E"}},{"type":"Feature","geometry":{"type":"Point","coordinates":[-118.23425,34.0562]},"properties":{"kind":"station","system":"LA Metro","name":"Union","refs":"A,B,D"}},{"type":"Feature","geometry":{"type":"Point","coordinates":[-118.23584,34.06386]},"properties":{"kind":"station","system":"LA Metro","name":"Chinatown","refs":"A"}},{"type":"Feature","geometry":{"type":"Point","coordinates":[-118.22043,34.08095]},"properties":{"kind":"station","system":"LA Metro","name":"Lincoln Heights / Cypress Park","refs":"A"}},{"type":"Feature","geometry":{"type":"Point","coordinates":[-118.21321,34.08723]},"properties":{"kind":"station","system":"LA Metro","name":"Heritage Square / Arroyo","refs":"A"}},{"type":"Feature","geometry":{"type":"Point","coordinates":[-118.20671,34.09824]},"properties":{"kind":"station","system":"LA Metro","name":"Southwest Museum","refs":"A"}},{"type":"Feature","geometry":{"type":"Point","coordinates":[-118.19261,34.11118]},"properties":{"kind":"station","system":"LA Metro","name":"Highland Park","refs":"A"}},{"type":"Feature","geometry":{"type":"Point","coordinates":[-118.15789,34.11519]},"properties":{"kind":"station","system":"LA Metro","name":"South Pasadena","refs":"A"}},{"type":"Feature","geometry":{"type":"Point","coordinates":[-118.14813,34.13352]},"properties":{"kind":"station","system":"LA Metro","name":"Fillmore","refs":"A"}},{"type":"Feature","geometry":{"type":"Point","coordinates":[-118.14821,34.14191]},"properties":{"kind":"station","system":"LA Metro","name":"Del Mar","refs":"A"}},{"type":"Feature","geometry":{"type":"Point","coordinates":[-118.14751,34.14836]},"properties":{"kind":"station","system":"LA Metro","name":"Memorial Park","refs":"A"}},{"type":"Feature","geometry":{"type":"Point","coordinates":[-118.13139,34.15181]},"properties":{"kind":"station","system":"LA Metro","name":"Lake","refs":"A"}},{"type":"Feature","geometry":{"type":"Point","coordinates":[-118.11435,34.15242]},"properties":{"kind":"station","system":"LA Metro","name":"Allen","refs":"A"}},{"type":"Feature","geometry":{"type":"Point","coordinates":[-118.08121,34.14775]},"properties":{"kind":"station","system":"LA Metro","name":"Sierra Madre Villa","refs":"A"}},{"type":"Feature","geometry":{"type":"Point","coordinates":[-118.0292,34.14286]},"properties":{"kind":"station","system":"LA Metro","name":"Arcadia","refs":"A"}},{"type":"Feature","geometry":{"type":"Point","coordinates":[-118.00347,34.13316]},"properties":{"kind":"station","system":"LA Metro","name":"Monrovia","refs":"A"}},{"type":"Feature","geometry":{"type":"Point","coordinates":[-117.96768,34.13252]},"properties":{"kind":"station","system":"LA Metro","name":"Duarte / City of Hope","refs":"A"}},{"type":"Feature","geometry":{"type":"Point","coordinates":[-117.93251,34.12905]},"properties":{"kind":"station","system":"LA Metro","name":"Irwindale","refs":"A"}},{"type":"Feature","geometry":{"type":"Point","coordinates":[-117.90663,34.13586]},"properties":{"kind":"station","system":"LA Metro","name":"Azusa Downtown","refs":"A"}},{"type":"Feature","geometry":{"type":"Point","coordinates":[-117.89164,34.13681]},"properties":{"kind":"station","system":"LA Metro","name":"APU / Citrus College","refs":"A"}},{"type":"Feature","geometry":{"type":"Point","coordinates":[-117.8663,34.1319]},"properties":{"kind":"station","system":"LA Metro","name":"Glendora","refs":"A"}},{"type":"Feature","geometry":{"type":"Point","coordinates":[-117.8058,34.1052]},"properties":{"kind":"station","system":"LA Metro","name":"San Dimas","refs":"A"}},{"type":"Feature","geometry":{"type":"Point","coordinates":[-117.7681,34.0972]},"properties":{"kind":"station","system":"LA Metro","name":"La Verne / Fairplex","refs":"A"}},{"type":"Feature","geometry":{"type":"Point","coordinates":[-117.7522,34.094]},"properties":{"kind":"station","system":"LA Metro","name":"Pomona North","refs":"A"}},{"type":"Feature","geometry":{"type":"Point","coordinates":[-118.18941,33.7736]},"properties":{"kind":"station","system":"LA Metro","name":"5th Street","refs":"A"}},{"type":"Feature","geometry":{"type":"Point","coordinates":[-118.18936,33.76874]},"properties":{"kind":"station","system":"LA Metro","name":"1st Street","refs":"A"}},{"type":"Feature","geometry":{"type":"Point","coordinates":[-118.24606,34.0549]},"properties":{"kind":"station","system":"LA Metro","name":"Civic Center / Grand Park","refs":"B,D"}},{"type":"Feature","geometry":{"type":"Point","coordinates":[-118.25126,34.04932]},"properties":{"kind":"station","system":"LA Metro","name":"Pershing Square","refs":"B,D"}},{"type":"Feature","geometry":{"type":"Point","coordinates":[-118.27488,34.05637]},"properties":{"kind":"station","system":"LA Metro","name":"Westlake / MacArthur Park","refs":"B,D"}},{"type":"Feature","geometry":{"type":"Point","coordinates":[-118.29008,34.0627]},"properties":{"kind":"station","system":"LA Metro","name":"Wilshire / Vermont","refs":"B,D"}},{"type":"Feature","geometry":{"type":"Point","coordinates":[-118.30146,34.06175]},"properties":{"kind":"station","system":"LA Metro","name":"Wilshire / Normandie","refs":"D"}},{"type":"Feature","geometry":{"type":"Point","coordinates":[-118.30876,34.06169]},"properties":{"kind":"station","system":"LA Metro","name":"Wilshire / Western","refs":"D"}},{"type":"Feature","geometry":{"type":"Point","coordinates":[-118.34345,34.06221]},"properties":{"kind":"station","system":"LA Metro","name":"Wilshire / La Brea","refs":"D"}},{"type":"Feature","geometry":{"type":"Point","coordinates":[-118.36117,34.06297]},"properties":{"kind":"station","system":"LA Metro","name":"Wilshire / Fairfax","refs":"D"}},{"type":"Feature","geometry":{"type":"Point","coordinates":[-118.3747,34.06483]},"properties":{"kind":"station","system":"LA Metro","name":"Wilshire / La Cienega","refs":"D"}},{"type":"Feature","geometry":{"type":"Point","coordinates":[-118.29169,34.07653]},"properties":{"kind":"station","system":"LA Metro","name":"Vermont / Beverly","refs":"B"}},{"type":"Feature","geometry":{"type":"Point","coordinates":[-118.29173,34.08991]},"properties":{"kind":"station","system":"LA Metro","name":"Vermont / Santa Monica","refs":"B"}},{"type":"Feature","geometry":{"type":"Point","coordinates":[-118.29176,34.09771]},"properties":{"kind":"station","system":"LA Metro","name":"Vermont / Sunset","refs":"B"}},{"type":"Feature","geometry":{"type":"Point","coordinates":[-118.30812,34.10174]},"properties":{"kind":"station","system":"LA Metro","name":"Hollywood / Western","refs":"B"}},{"type":"Feature","geometry":{"type":"Point","coordinates":[-118.32518,34.10163]},"properties":{"kind":"station","system":"LA Metro","name":"Hollywood / Vine","refs":"B"}},{"type":"Feature","geometry":{"type":"Point","coordinates":[-118.33855,34.10155]},"properties":{"kind":"station","system":"LA Metro","name":"Hollywood / Highland","refs":"B"}},{"type":"Feature","geometry":{"type":"Point","coordinates":[-118.3627,34.14]},"properties":{"kind":"station","system":"LA Metro","name":"Universal / Studio City","refs":"B"}},{"type":"Feature","geometry":{"type":"Point","coordinates":[-118.37681,34.1685]},"properties":{"kind":"station","system":"LA Metro","name":"North Hollywood","refs":"B"}},{"type":"Feature","geometry":{"type":"Point","coordinates":[-118.10472,33.91403]},"properties":{"kind":"station","system":"LA Metro","name":"Norwalk","refs":"C"}},{"type":"Feature","geometry":{"type":"Point","coordinates":[-118.1406,33.91307]},"properties":{"kind":"station","system":"LA Metro","name":"Lakewood Blvd","refs":"C"}},{"type":"Feature","geometry":{"type":"Point","coordinates":[-118.20995,33.92488]},"properties":{"kind":"station","system":"LA Metro","name":"Lynwood","refs":"C"}},{"type":"Feature","geometry":{"type":"Point","coordinates":[-118.26522,33.92746]},"properties":{"kind":"station","system":"LA Metro","name":"Avalon","refs":"C"}},{"type":"Feature","geometry":{"type":"Point","coordinates":[-118.2811,33.92871]},"properties":{"kind":"station","system":"LA Metro","name":"Harbor Freeway","refs":"C"}},{"type":"Feature","geometry":{"type":"Point","coordinates":[-118.29173,33.92868]},"properties":{"kind":"station","system":"LA Metro","name":"Vermont / Athens","refs":"C"}},{"type":"Feature","geometry":{"type":"Point","coordinates":[-118.32655,33.9252]},"properties":{"kind":"station","system":"LA Metro","name":"Crenshaw","refs":"C"}},{"type":"Feature","geometry":{"type":"Point","coordinates":[-118.3516,33.93341]},"properties":{"kind":"station","system":"LA Metro","name":"Hawthorne / Lennox","refs":"C"}},{"type":"Feature","geometry":{"type":"Point","coordinates":[-118.37713,33.92962]},"properties":{"kind":"station","system":"LA Metro","name":"Aviation / Imperial","refs":"C"}},{"type":"Feature","geometry":{"type":"Point","coordinates":[-118.37868,33.94557]},"properties":{"kind":"station","system":"LA Metro","name":"Aviation / Century","refs":"C,K"}},{"type":"Feature","geometry":{"type":"Point","coordinates":[-118.37866,33.95008]},"properties":{"kind":"station","system":"LA Metro","name":"LAX / Metro Transit Center","refs":"C,K"}},{"type":"Feature","geometry":{"type":"Point","coordinates":[-118.3692,33.89464]},"properties":{"kind":"station","system":"LA Metro","name":"Redondo Beach","refs":"K"}},{"type":"Feature","geometry":{"type":"Point","coordinates":[-118.38311,33.9053]},"properties":{"kind":"station","system":"LA Metro","name":"Douglas","refs":"K"}},{"type":"Feature","geometry":{"type":"Point","coordinates":[-118.38654,33.91606]},"properties":{"kind":"station","system":"LA Metro","name":"El Segundo","refs":"K"}},{"type":"Feature","geometry":{"type":"Point","coordinates":[-118.38757,33.9232]},"properties":{"kind":"station","system":"LA Metro","name":"Mariposa","refs":"K"}},{"type":"Feature","geometry":{"type":"Point","coordinates":[-118.37438,33.96203]},"properties":{"kind":"station","system":"LA Metro","name":"Westchester / Veterans","refs":"K"}},{"type":"Feature","geometry":{"type":"Point","coordinates":[-118.3515,33.96716]},"properties":{"kind":"station","system":"LA Metro","name":"Downtown Inglewood","refs":"K"}},{"type":"Feature","geometry":{"type":"Point","coordinates":[-118.33607,33.97525]},"properties":{"kind":"station","system":"LA Metro","name":"Fairview Heights","refs":"K"}},{"type":"Feature","geometry":{"type":"Point","coordinates":[-118.33082,33.98819]},"properties":{"kind":"station","system":"LA Metro","name":"Hyde Park","refs":"K"}},{"type":"Feature","geometry":{"type":"Point","coordinates":[-118.33202,34.00391]},"properties":{"kind":"station","system":"LA Metro","name":"Leimert Park","refs":"K"}},{"type":"Feature","geometry":{"type":"Point","coordinates":[-118.33536,34.00956]},"properties":{"kind":"station","system":"LA Metro","name":"Martin Luther King Jr","refs":"K"}},{"type":"Feature","geometry":{"type":"Point","coordinates":[-118.33496,34.02234]},"properties":{"kind":"station","system":"LA Metro","name":"Expo / Crenshaw","refs":"E,K"}},{"type":"Feature","geometry":{"type":"Point","coordinates":[-118.4529,34.03171]},"properties":{"kind":"station","system":"LA Metro","name":"Expo / Bundy","refs":"E"}},{"type":"Feature","geometry":{"type":"Point","coordinates":[-118.43423,34.03541]},"properties":{"kind":"station","system":"LA Metro","name":"Expo / Sepulveda","refs":"E"}},{"type":"Feature","geometry":{"type":"Point","coordinates":[-118.42458,34.03682]},"properties":{"kind":"station","system":"LA Metro","name":"Westwood / Rancho Park","refs":"E"}},{"type":"Feature","geometry":{"type":"Point","coordinates":[-118.40426,34.02932]},"properties":{"kind":"station","system":"LA Metro","name":"Palms","refs":"E"}},{"type":"Feature","geometry":{"type":"Point","coordinates":[-118.38899,34.0279]},"properties":{"kind":"station","system":"LA Metro","name":"Culver City","refs":"E"}},{"type":"Feature","geometry":{"type":"Point","coordinates":[-118.37212,34.02636]},"properties":{"kind":"station","system":"LA Metro","name":"La Cienega / Jefferson","refs":"E"}},{"type":"Feature","geometry":{"type":"Point","coordinates":[-118.35516,34.0248]},"properties":{"kind":"station","system":"LA Metro","name":"Expo / La Brea / Ethel Bradley","refs":"E"}},{"type":"Feature","geometry":{"type":"Point","coordinates":[-118.3461,34.02398]},"properties":{"kind":"station","system":"LA Metro","name":"Farmdale","refs":"E"}},{"type":"Feature","geometry":{"type":"Point","coordinates":[-118.30891,34.01833]},"properties":{"kind":"station","system":"LA Metro","name":"Expo / Western","refs":"E"}},{"type":"Feature","geometry":{"type":"Point","coordinates":[-118.29154,34.01825]},"properties":{"kind":"station","system":"LA Metro","name":"Expo / Vermont","refs":"E"}},{"type":"Feature","geometry":{"type":"Point","coordinates":[-118.28573,34.01823]},"properties":{"kind":"station","system":"LA Metro","name":"Expo Park / USC","refs":"E"}},{"type":"Feature","geometry":{"type":"Point","coordinates":[-118.27812,34.02212]},"properties":{"kind":"station","system":"LA Metro","name":"Jefferson / USC","refs":"E"}},{"type":"Feature","geometry":{"type":"Point","coordinates":[-118.2736,34.02911]},"properties":{"kind":"station","system":"LA Metro","name":"LATTC / Ortho Institute","refs":"E"}},{"type":"Feature","geometry":{"type":"Point","coordinates":[-118.22594,34.04763]},"properties":{"kind":"station","system":"LA Metro","name":"Pico / Aliso","refs":"E"}},{"type":"Feature","geometry":{"type":"Point","coordinates":[-118.21965,34.04722]},"properties":{"kind":"station","system":"LA Metro","name":"Mariachi Plaza / Boyle Heights","refs":"E"}},{"type":"Feature","geometry":{"type":"Point","coordinates":[-118.21006,34.04375]},"properties":{"kind":"station","system":"LA Metro","name":"Soto","refs":"E"}},{"type":"Feature","geometry":{"type":"Point","coordinates":[-118.19218,34.0343]},"properties":{"kind":"station","system":"LA Metro","name":"Indiana","refs":"E"}},{"type":"Feature","geometry":{"type":"Point","coordinates":[-118.16814,34.03332]},"properties":{"kind":"station","system":"LA Metro","name":"Maravilla","refs":"E"}},{"type":"Feature","geometry":{"type":"Point","coordinates":[-118.16121,34.03336]},"properties":{"kind":"station","system":"LA Metro","name":"East LA Civic Center","refs":"E"}},{"type":"Feature","geometry":{"type":"Point","coordinates":[-118.15447,34.0334]},"properties":{"kind":"station","system":"LA Metro","name":"Atlantic","refs":"E"}},{"type":"Feature","geometry":{"type":"Point","coordinates":[-118.49138,34.01401]},"properties":{"kind":"station","system":"LA Metro","name":"Downtown Santa Monica","refs":"E"}},{"type":"Feature","geometry":{"type":"Point","coordinates":[-118.48037,34.02316]},"properties":{"kind":"station","system":"LA Metro","name":"17th Street / SMC","refs":"E"}},{"type":"Feature","geometry":{"type":"Point","coordinates":[-118.46912,34.02799]},"properties":{"kind":"station","system":"LA Metro","name":"26th Street / Bergamot","refs":"E"}}]}