{"type":"FeatureCollection","features":[{"type":"Feature","geometry":{"type":"LineString","coordinates":[[-75.07799,40.02304],[-75.07877,40.02218],[-75.07894,40.02183],[-75.08783,40.01222],[-75.0894,40.00987],[-75.08986,40.00945],[-75.11321,39.99664],[-75.13183,39.98628],[-75.1342,39.97527],[-75.1372,39.96564],[-75.13741,39.96501],[-75.13827,39.96412],[-75.13941,39.96257],[-75.1404,39.96056],[-75.14097,39.95765],[-75.14112,39.95592],[-75.1413,39.95497],[-75.14134,39.95104],[-75.14144,39.95039],[-75.14161,39.95009],[-75.14215,39.94977],[-75.14252,39.94969],[-75.14371,39.94982],[-75.14433,39.94998],[-75.15024,39.95073],[-75.20788,39.95789],[-75.20814,39.95793],[-75.20946,39.95857],[-75.21355,39.95859],[-75.24768,39.96282],[-75.24858,39.96297],[-75.24921,39.9632],[-75.25062,39.96407],[-75.25334,39.96458],[-75.25422,39.96457],[-75.25498,39.9644],[-75.25549,39.96419],[-75.25811,39.96248],[-75.25999,39.9626],[-75.26079,39.96309],[-75.26101,39.96313],[-75.26136,39.96299],[-75.26146,39.96281],[-75.26138,39.96246],[-75.26108,39.96229],[-75.26059,39.96234],[-75.26006,39.96251],[-75.25855,39.96237]]},"properties":{"kind":"line","system":"SEPTA","ref":"L","name":"Market-Frankford Line","color":"#0097D6","text_color":"#FFFFFF"}},{"type":"Feature","geometry":{"type":"MultiLineString","coordinates":[[[-75.17386,39.90543],[-75.17291,39.91061],[-75.17192,39.91426],[-75.16379,39.95159],[-75.16409,39.95246],[-75.16417,39.95337],[-75.16407,39.95354],[-75.16345,39.95379],[-75.16329,39.95394],[-75.16317,39.95441],[-75.16,39.969],[-75.15833,39.97641],[-75.15438,39.99491],[-75.15364,39.99791],[-75.14425,40.04109],[-75.14405,40.04132],[-75.1437,40.04132],[-75.13963,40.04078],[-75.13901,40.03983],[-75.13846,40.0394],[-75.13659,40.03909],[-75.13603,40.03911],[-75.13557,40.03936],[-75.1354,40.03966],[-75.13528,40.04023],[-75.13525,40.04131],[-75.13571,40.04173],[-75.13675,40.04185]],[[-75.15359,39.95114],[-75.15274,39.95502],[-75.15296,39.95561],[-75.15496,39.95853],[-75.15819,39.96267],[-75.15883,39.96368],[-75.16008,39.96613],[-75.1605,39.9667],[-75.16047,39.9668]]]},"properties":{"kind":"line","system":"SEPTA","ref":"B","name":"Broad Street Line (incl. Broad-Ridge Spur)","color":"#F26100","text_color":"#FFFFFF"}},{"type":"Feature","geometry":{"type":"LineString","coordinates":[[-75.16261,39.95254],[-75.1625,39.95307],[-75.16257,39.95323],[-75.16423,39.95351],[-75.16473,39.95345],[-75.16493,39.95333],[-75.1652,39.95298],[-75.16528,39.9526],[-75.18722,39.95533],[-75.18961,39.95482],[-75.19432,39.95541],[-75.19363,39.95856],[-75.20195,39.96292],[-75.21168,39.96893],[-75.22059,39.97431],[-75.22732,39.97745],[-75.22758,39.97731],[-75.24555,39.97531],[-75.2471,39.98359],[-75.24602,39.98414],[-75.24579,39.98395],[-75.24593,39.9838]]},"properties":{"kind":"line","system":"SEPTA","ref":"T1","name":"Subway-Surface T1: 13th St to 63rd-Malvern/Overbrook","color":"#5A960A","text_color":"#FFFFFF"}},{"type":"Feature","geometry":{"type":"LineString","coordinates":[[-75.24634,39.94393],[-75.24658,39.94385],[-75.24656,39.94357],[-75.24026,39.94586],[-75.23667,39.94658],[-75.23187,39.94777],[-75.22455,39.9478],[-75.2112,39.94925],[-75.20796,39.94975],[-75.2038,39.94991],[-75.20337,39.94955],[-75.19724,39.95099],[-75.19575,39.9511],[-75.19546,39.95117],[-75.19521,39.9514],[-75.19487,39.95257],[-75.19432,39.95541],[-75.18961,39.95482],[-75.18722,39.95533],[-75.16723,39.95285],[-75.16528,39.9526],[-75.16523,39.95201],[-75.16507,39.95182],[-75.16457,39.95167],[-75.1632,39.95152],[-75.16293,39.95153],[-75.16284,39.95162],[-75.16261,39.95254]]},"properties":{"kind":"line","system":"SEPTA","ref":"T2","name":"Subway-Surface T2: 13th St to 61st-Baltimore/Angora","color":"#5A960A","text_color":"#FFFFFF"}},{"type":"Feature","geometry":{"type":"LineString","coordinates":[[-75.25261,39.92455],[-75.2518,39.92488],[-75.24992,39.92545],[-75.2459,39.92658],[-75.2457,39.92676],[-75.24482,39.92936],[-75.24426,39.92972],[-75.23874,39.92864],[-75.23833,39.92896],[-75.23701,39.92787],[-75.23024,39.9326],[-75.23154,39.93366],[-75.2106,39.94832],[-75.20503,39.94851],[-75.2037,39.94903],[-75.20337,39.94955],[-75.19724,39.95099],[-75.19546,39.95117],[-75.19521,39.9514],[-75.19502,39.95203],[-75.19432,39.95541],[-75.18961,39.95482],[-75.18722,39.95533],[-75.16723,39.95285],[-75.16528,39.9526],[-75.16523,39.95201],[-75.16507,39.95182],[-75.16457,39.95167],[-75.1632,39.95152],[-75.16293,39.95153],[-75.16284,39.95162],[-75.16261,39.95254]]},"properties":{"kind":"line","system":"SEPTA","ref":"T3","name":"Subway-Surface T3: 13th St to Yeadon or Darby TC","color":"#5A960A","text_color":"#FFFFFF"}},{"type":"Feature","geometry":{"type":"LineString","coordinates":[[-75.16261,39.95254],[-75.1625,39.95307],[-75.16257,39.95323],[-75.16423,39.95351],[-75.16473,39.95345],[-75.16493,39.95333],[-75.1652,39.95298],[-75.16528,39.9526],[-75.18722,39.95533],[-75.18961,39.95482],[-75.19432,39.95541],[-75.19502,39.95203],[-75.19521,39.9514],[-75.19546,39.95117],[-75.19724,39.95099],[-75.20337,39.94955],[-75.2037,39.94903],[-75.20533,39.94834],[-75.21061,39.94369],[-75.21231,39.9412],[-75.21262,39.94086],[-75.24643,39.91712],[-75.24837,39.91639],[-75.24955,39.91644],[-75.25843,39.91843],[-75.26012,39.91814],[-75.26152,39.91836],[-75.26229,39.91862],[-75.26174,39.91906],[-75.26187,39.91923],[-75.26209,39.91923],[-75.26233,39.91906]]},"properties":{"kind":"line","system":"SEPTA","ref":"T4","name":"Subway-Surface T4: 13th St to Darby Transit Center","color":"#5A960A","text_color":"#FFFFFF"}},{"type":"Feature","geometry":{"type":"LineString","coordinates":[[-75.16261,39.95254],[-75.1625,39.95307],[-75.16257,39.95323],[-75.16423,39.95351],[-75.16473,39.95345],[-75.16493,39.95333],[-75.1652,39.95298],[-75.16528,39.9526],[-75.18722,39.95533],[-75.18961,39.95482],[-75.19432,39.95541],[-75.19502,39.95203],[-75.19521,39.9514],[-75.19546,39.95117],[-75.19724,39.95099],[-75.20337,39.94955],[-75.2037,39.94903],[-75.20533,39.94834],[-75.21061,39.94369],[-75.21231,39.9412],[-75.21262,39.94086],[-75.21043,39.93897],[-75.21031,39.93877],[-75.21035,39.93847],[-75.21055,39.93827],[-75.21389,39.93591],[-75.21672,39.93178],[-75.22387,39.92683],[-75.22691,39.92469],[-75.22771,39.92404],[-75.2433,39.91309],[-75.23969,39.90168],[-75.23926,39.89913],[-75.23953,39.89868],[-75.23933,39.89868]]},"properties":{"kind":"line","system":"SEPTA","ref":"T5","name":"Subway-Surface T5: 13th St to 80th St/Eastwick","color":"#5A960A","text_color":"#FFFFFF"}},{"type":"Feature","geometry":{"type":"Point","coordinates":[-75.18951,39.95483]},"properties":{"kind":"station","system":"SEPTA","name":"33rd St","refs":"T1,T2,T3,T4,T5"}},{"type":"Feature","geometry":{"type":"Point","coordinates":[-75.18338,39.95498]},"properties":{"kind":"station","system":"SEPTA","name":"Drexel Station at 30th St","refs":"L,T1,T2,T3,T4,T5"}},{"type":"Feature","geometry":{"type":"Point","coordinates":[-75.17665,39.95401]},"properties":{"kind":"station","system":"SEPTA","name":"22nd St","refs":"T1,T2,T3,T4,T5"}},{"type":"Feature","geometry":{"type":"Point","coordinates":[-75.17156,39.95338]},"properties":{"kind":"station","system":"SEPTA","name":"19th St","refs":"T1,T2,T3,T4,T5"}},{"type":"Feature","geometry":{"type":"Point","coordinates":[-75.16482,39.95255]},"properties":{"kind":"station","system":"SEPTA","name":"15th St/City Hall","refs":"L,B,T1,T2,T3,T4,T5"}},{"type":"Feature","geometry":{"type":"Point","coordinates":[-75.16182,39.95224]},"properties":{"kind":"station","system":"SEPTA","name":"13th St","refs":"L,T1,T2,T3,T4,T5"}},{"type":"Feature","geometry":{"type":"Point","coordinates":[-75.19695,39.95102]},"properties":{"kind":"station","system":"SEPTA","name":"37th-Spruce","refs":"T2,T3,T4,T5"}},{"type":"Feature","geometry":{"type":"Point","coordinates":[-75.19463,39.95387]},"properties":{"kind":"station","system":"SEPTA","name":"36th-Sansom","refs":"T2,T3,T4,T5"}},{"type":"Feature","geometry":{"type":"Point","coordinates":[-75.13676,40.04185]},"properties":{"kind":"station","system":"SEPTA","name":"Fern Rock Transit Center","refs":"B"}},{"type":"Feature","geometry":{"type":"Point","coordinates":[-75.14411,40.03875]},"properties":{"kind":"station","system":"SEPTA","name":"Olney Transit Center","refs":"B"}},{"type":"Feature","geometry":{"type":"Point","coordinates":[-75.14653,40.03062]},"properties":{"kind":"station","system":"SEPTA","name":"Logan","refs":"B"}},{"type":"Feature","geometry":{"type":"Point","coordinates":[-75.14786,40.02456]},"properties":{"kind":"station","system":"SEPTA","name":"Wyoming","refs":"B"}},{"type":"Feature","geometry":{"type":"Point","coordinates":[-75.14953,40.01693]},"properties":{"kind":"station","system":"SEPTA","name":"Hunting Park","refs":"B"}},{"type":"Feature","geometry":{"type":"Point","coordinates":[-75.1512,40.00923]},"properties":{"kind":"station","system":"SEPTA","name":"Erie","refs":"B"}},{"type":"Feature","geometry":{"type":"Point","coordinates":[-75.15287,40.00159]},"properties":{"kind":"station","system":"SEPTA","name":"Broad-Allegheny","refs":"B"}},{"type":"Feature","geometry":{"type":"Point","coordinates":[-75.15459,39.99394]},"properties":{"kind":"station","system":"SEPTA","name":"North Philadelphia","refs":"B"}},{"type":"Feature","geometry":{"type":"Point","coordinates":[-75.15607,39.98703]},"properties":{"kind":"station","system":"SEPTA","name":"Susquehanna-Dauphin","refs":"B"}},{"type":"Feature","geometry":{"type":"Point","coordinates":[-75.15788,39.97867]},"properties":{"kind":"station","system":"SEPTA","name":"Cecil B. Moore","refs":"B"}},{"type":"Feature","geometry":{"type":"Point","coordinates":[-75.15944,39.97147]},"properties":{"kind":"station","system":"SEPTA","name":"Broad-Girard","refs":"B"}},{"type":"Feature","geometry":{"type":"Point","coordinates":[-75.16042,39.96703]},"properties":{"kind":"station","system":"SEPTA","name":"Fairmount","refs":"B"}},{"type":"Feature","geometry":{"type":"Point","coordinates":[-75.16143,39.96238]},"properties":{"kind":"station","system":"SEPTA","name":"Broad-Spring Garden","refs":"B"}},{"type":"Feature","geometry":{"type":"Point","coordinates":[-75.16259,39.95704]},"properties":{"kind":"station","system":"SEPTA","name":"Race-Vine","refs":"B"}},{"type":"Feature","geometry":{"type":"Point","coordinates":[-75.16441,39.94873]},"properties":{"kind":"station","system":"SEPTA","name":"Walnut-Locust","refs":"B"}},{"type":"Feature","geometry":{"type":"Point","coordinates":[-75.16542,39.94407]},"properties":{"kind":"station","system":"SEPTA","name":"Lombard-South","refs":"B"}},{"type":"Feature","geometry":{"type":"Point","coordinates":[-75.16713,39.93618]},"properties":{"kind":"station","system":"SEPTA","name":"Ellsworth-Federal","refs":"B"}},{"type":"Feature","geometry":{"type":"Point","coordinates":[-75.16852,39.92981]},"properties":{"kind":"station","system":"SEPTA","name":"Tasker-Morris","refs":"B"}},{"type":"Feature","geometry":{"type":"Point","coordinates":[-75.1697,39.92438]},"properties":{"kind":"station","system":"SEPTA","name":"Snyder","refs":"B"}},{"type":"Feature","geometry":{"type":"Point","coordinates":[-75.17137,39.91678]},"properties":{"kind":"station","system":"SEPTA","name":"Oregon","refs":"B"}},{"type":"Feature","geometry":{"type":"Point","coordinates":[-75.17323,39.90514]},"properties":{"kind":"station","system":"SEPTA","name":"NRG","refs":"B"}},{"type":"Feature","geometry":{"type":"Point","coordinates":[-75.15275,39.95503]},"properties":{"kind":"station","system":"SEPTA","name":"Chinatown","refs":"B"}},{"type":"Feature","geometry":{"type":"Point","coordinates":[-75.15359,39.95114]},"properties":{"kind":"station","system":"SEPTA","name":"8th-Market","refs":"L,B"}},{"type":"Feature","geometry":{"type":"Point","coordinates":[-75.25876,39.96227]},"properties":{"kind":"station","system":"SEPTA","name":"69th Street Transit Center","refs":"L"}},{"type":"Feature","geometry":{"type":"Point","coordinates":[-75.25224,39.96436]},"properties":{"kind":"station","system":"SEPTA","name":"Millbourne","refs":"L"}},{"type":"Feature","geometry":{"type":"Point","coordinates":[-75.24677,39.96275]},"properties":{"kind":"station","system":"SEPTA","name":"63rd St","refs":"L"}},{"type":"Feature","geometry":{"type":"Point","coordinates":[-75.24076,39.96199]},"properties":{"kind":"station","system":"SEPTA","name":"60th St","refs":"L"}},{"type":"Feature","geometry":{"type":"Point","coordinates":[-75.23285,39.961]},"properties":{"kind":"station","system":"SEPTA","name":"56th St","refs":"L"}},{"type":"Feature","geometry":{"type":"Point","coordinates":[-75.22491,39.96]},"properties":{"kind":"station","system":"SEPTA","name":"52nd St","refs":"L"}},{"type":"Feature","geometry":{"type":"Point","coordinates":[-75.21403,39.95866]},"properties":{"kind":"station","system":"SEPTA","name":"46th St","refs":"L"}},{"type":"Feature","geometry":{"type":"Point","coordinates":[-75.20196,39.95715]},"properties":{"kind":"station","system":"SEPTA","name":"40th St","refs":"L"}},{"type":"Feature","geometry":{"type":"Point","coordinates":[-75.19148,39.95587]},"properties":{"kind":"station","system":"SEPTA","name":"34th St","refs":"L"}},{"type":"Feature","geometry":{"type":"Point","coordinates":[-75.14894,39.95057]},"properties":{"kind":"station","system":"SEPTA","name":"5th St/Independence Hall","refs":"L"}},{"type":"Feature","geometry":{"type":"Point","coordinates":[-75.14375,39.94983]},"properties":{"kind":"station","system":"SEPTA","name":"2nd St","refs":"L"}},{"type":"Feature","geometry":{"type":"Point","coordinates":[-75.1404,39.96054]},"properties":{"kind":"station","system":"SEPTA","name":"Spring Garden","refs":"L"}},{"type":"Feature","geometry":{"type":"Point","coordinates":[-75.1362,39.96889]},"properties":{"kind":"station","system":"SEPTA","name":"Front-Girard","refs":"L"}},{"type":"Feature","geometry":{"type":"Point","coordinates":[-75.13351,39.97863]},"properties":{"kind":"station","system":"SEPTA","name":"Berks","refs":"L"}},{"type":"Feature","geometry":{"type":"Point","coordinates":[-75.13201,39.98553]},"properties":{"kind":"station","system":"SEPTA","name":"York-Dauphin","refs":"L"}},{"type":"Feature","geometry":{"type":"Point","coordinates":[-75.1273,39.98883]},"properties":{"kind":"station","system":"SEPTA","name":"Huntingdon","refs":"L"}},{"type":"Feature","geometry":{"type":"Point","coordinates":[-75.12252,39.99146]},"properties":{"kind":"station","system":"SEPTA","name":"Somerset","refs":"L"}},{"type":"Feature","geometry":{"type":"Point","coordinates":[-75.11347,39.9965]},"properties":{"kind":"station","system":"SEPTA","name":"Kensington-Allegheny","refs":"L"}},{"type":"Feature","geometry":{"type":"Point","coordinates":[-75.10647,40.00032]},"properties":{"kind":"station","system":"SEPTA","name":"Tioga","refs":"L"}},{"type":"Feature","geometry":{"type":"Point","coordinates":[-75.09643,40.00586]},"properties":{"kind":"station","system":"SEPTA","name":"Erie-Torresdale","refs":"L"}},{"type":"Feature","geometry":{"type":"Point","coordinates":[-75.0887,40.01092]},"properties":{"kind":"station","system":"SEPTA","name":"Church","refs":"L"}},{"type":"Feature","geometry":{"type":"Point","coordinates":[-75.08384,40.01659]},"properties":{"kind":"station","system":"SEPTA","name":"Arrott Transit Center","refs":"L"}},{"type":"Feature","geometry":{"type":"Point","coordinates":[-75.07708,40.0233]},"properties":{"kind":"station","system":"SEPTA","name":"Frankford Transit Center","refs":"L"}},{"type":"Feature","geometry":{"type":"LineString","coordinates":[[-75.00052,39.83394],[-75.00185,39.83602],[-75.00792,39.85059],[-75.00889,39.85348],[-75.00913,39.85497],[-75.00936,39.86497],[-75.01027,39.86857],[-75.01201,39.87159],[-75.01342,39.8733],[-75.01431,39.87415],[-75.0155,39.8751],[-75.01772,39.87661],[-75.02403,39.88005],[-75.02608,39.88158],[-75.03048,39.88531],[-75.03125,39.88622],[-75.03211,39.8877],[-75.03384,39.89211],[-75.0348,39.89421],[-75.03575,39.89575],[-75.03714,39.89761],[-75.03728,39.89802],[-75.03852,39.90028],[-75.04002,39.90225],[-75.04238,39.90429],[-75.04435,39.9057],[-75.04654,39.90709],[-75.04843,39.90809],[-75.05019,39.9089],[-75.05356,39.91018],[-75.06456,39.91359],[-75.06527,39.91387],[-75.08742,39.92088],[-75.08995,39.92185],[-75.09168,39.92276],[-75.09203,39.92287],[-75.1005,39.92828],[-75.1023,39.92931],[-75.10709,39.93178],[-75.1082,39.93242],[-75.109,39.93301],[-75.10986,39.93384],[-75.11061,39.93485],[-75.11128,39.93631],[-75.1127,39.94131],[-75.11311,39.94192],[-75.11358,39.94236],[-75.11424,39.94275],[-75.11477,39.9429],[-75.11534,39.94295],[-75.119,39.94295],[-75.11922,39.94261],[-75.12129,39.94406],[-75.12137,39.94433],[-75.1211,39.94569],[-75.12068,39.94662],[-75.12022,39.94808],[-75.1201,39.94858],[-75.12012,39.94904],[-75.12065,39.94987],[-75.12189,39.95051],[-75.12279,39.95083],[-75.14821,39.95534],[-75.15012,39.9556],[-75.15062,39.95561],[-75.15119,39.95554],[-75.15211,39.95513],[-75.15252,39.95472],[-75.15276,39.95432],[-75.15297,39.95384],[-75.15451,39.94696],[-75.16779,39.94864]]},"properties":{"kind":"line","system":"PATCO","ref":"PATCO","name":"PATCO Speedline","color":"#BC0035","text_color":"#FFFFFF"}},{"type":"Feature","geometry":{"type":"Point","coordinates":[-75.00066,39.83396]},"properties":{"kind":"station","system":"PATCO","name":"Lindenwold","refs":"PATCO"}},{"type":"Feature","geometry":{"type":"Point","coordinates":[-75.00921,39.85871]},"properties":{"kind":"station","system":"PATCO","name":"Ashland","refs":"PATCO"}},{"type":"Feature","geometry":{"type":"Point","coordinates":[-75.01124,39.87026]},"properties":{"kind":"station","system":"PATCO","name":"Woodcrest","refs":"PATCO"}},{"type":"Feature","geometry":{"type":"Point","coordinates":[-75.03714,39.89764]},"properties":{"kind":"station","system":"PATCO","name":"Haddonfield","refs":"PATCO"}},{"type":"Feature","geometry":{"type":"Point","coordinates":[-75.04655,39.90706]},"properties":{"kind":"station","system":"PATCO","name":"Westmont","refs":"PATCO"}},{"type":"Feature","geometry":{"type":"Point","coordinates":[-75.06456,39.91359]},"properties":{"kind":"station","system":"PATCO","name":"Collingswood","refs":"PATCO"}},{"type":"Feature","geometry":{"type":"Point","coordinates":[-75.0918,39.92257]},"properties":{"kind":"station","system":"PATCO","name":"Ferry Avenue","refs":"PATCO"}},{"type":"Feature","geometry":{"type":"Point","coordinates":[-75.12036,39.94313]},"properties":{"kind":"station","system":"PATCO","name":"Broadway","refs":"PATCO"}},{"type":"Feature","geometry":{"type":"Point","coordinates":[-75.12124,39.94547]},"properties":{"kind":"station","system":"PATCO","name":"City Hall","refs":"PATCO"}},{"type":"Feature","geometry":{"type":"Point","coordinates":[-75.15116,39.9553]},"properties":{"kind":"station","system":"PATCO","name":"Franklin Square","refs":"PATCO"}},{"type":"Feature","geometry":{"type":"Point","coordinates":[-75.15351,39.95098]},"properties":{"kind":"station","system":"PATCO","name":"8th and Market","refs":"PATCO"}},{"type":"Feature","geometry":{"type":"Point","coordinates":[-75.15751,39.94734]},"properties":{"kind":"station","system":"PATCO","name":"9-10th and Locust","refs":"PATCO"}},{"type":"Feature","geometry":{"type":"Point","coordinates":[-75.16236,39.94794]},"properties":{"kind":"station","system":"PATCO","name":"12-13th and Locust","refs":"PATCO"}},{"type":"Feature","geometry":{"type":"Point","coordinates":[-75.16779,39.94863]},"properties":{"kind":"station","system":"PATCO","name":"15-16th and Locust","refs":"PATCO"}}]}