{"type":"FeatureCollection","features":[{"type":"Feature","properties":{"city":"NY","name":"Midtown Manhattan"},"geometry":{"type":"Polygon","coordinates":[[[-74.0048,40.75781],[-74.00528,40.75803],[-74.00503,40.75836],[-74.007,40.75923],[-74.00651,40.75989],[-74.0045,40.75908],[-74.00421,40.7595],[-74.00391,40.75938],[-74.00381,40.75951],[-74.00425,40.7597],[-74.00415,40.75984],[-74.00432,40.75991],[-74.00367,40.75971],[-74.00357,40.75985],[-74.00393,40.76],[-74.00313,40.76108],[-74.00279,40.76093],[-74.00234,40.76154],[-74.00456,40.76252],[-74.0044,40.76267],[-74.0022,40.76173],[-74.00179,40.76229],[-74.00153,40.76264],[-74.00376,40.76358],[-74.00361,40.76378],[-74.00139,40.76285],[-74.00097,40.76342],[-74.00315,40.76433],[-74.00295,40.76462],[-74.00322,40.76464],[-74.00316,40.76473],[-73.99993,40.76341],[-73.99962,40.76356],[-73.99915,40.76421],[-74.00227,40.76553],[-74.00206,40.76588],[-73.99888,40.76457],[-73.99858,40.765],[-73.99869,40.76521],[-73.99827,40.76555],[-74.00154,40.76694],[-74.00139,40.76723],[-73.99807,40.76587],[-73.99738,40.76682],[-74.00065,40.76825],[-74.00039,40.7685],[-73.99716,40.76713],[-73.99646,40.7681],[-73.99974,40.76951],[-73.99947,40.76976],[-73.99707,40.76873],[-73.99715,40.76885],[-73.99701,40.76903],[-73.99689,40.76898],[-73.99657,40.76942],[-73.99903,40.77046],[-73.99876,40.77083],[-73.99631,40.7698],[-73.99588,40.7704],[-73.99602,40.77045],[-73.9959,40.77061],[-73.99577,40.77055],[-73.99542,40.77103],[-73.996,40.77131],[-73.9959,40.77145],[-73.99531,40.7712],[-73.99493,40.77152],[-73.99498,40.77166],[-73.99707,40.77254],[-73.99687,40.77282],[-73.99477,40.77193],[-73.99445,40.77238],[-73.99623,40.77313],[-73.99612,40.77328],[-73.99416,40.77249],[-73.99383,40.77293],[-73.99414,40.7729],[-73.99438,40.77304],[-73.99429,40.77316],[-73.99502,40.77348],[-73.99505,40.7733],[-73.99624,40.77379],[-73.99606,40.77389],[-73.99614,40.77403],[-73.95877,40.75828],[-73.96066,40.75592],[-73.96163,40.75515],[-73.96532,40.75105],[-73.96837,40.74743],[-73.96823,40.74737],[-73.9683,40.74727],[-73.96988,40.74544],[-73.96997,40.7455],[-73.97079,40.74441],[-73.97094,40.74447],[-73.97111,40.7442],[-73.9707,40.74399],[-73.97118,40.7441],[-73.97136,40.74384],[-73.97121,40.74377],[-73.97169,40.74304],[-74.00547,40.75725],[-74.00521,40.75723],[-74.0048,40.75781]],[[-74.00104,40.76197],[-73.99831,40.76082],[-74.00142,40.76214],[-74.00104,40.76197]],[[-73.97996,40.74899],[-73.98026,40.74856],[-73.9795,40.7496],[-73.97996,40.74899]],[[-73.98195,40.76771],[-73.98185,40.76771],[-73.98211,40.76774],[-73.98206,40.76773],[-73.98195,40.76771]]]}},{"type":"Feature","properties":{"city":"NY","name":"Midtown East"},"geometry":{"type":"Polygon","coordinates":[[[-73.95877,40.75828],[-73.96066,40.75592],[-73.96163,40.75515],[-73.96532,40.75105],[-73.96837,40.74743],[-73.96823,40.74737],[-73.96877,40.74672],[-73.9786,40.75085],[-73.98183,40.7522],[-73.97301,40.76428],[-73.96657,40.76157],[-73.95877,40.75828]],[[-73.97815,40.75145],[-73.97807,40.75157],[-73.9786,40.75085],[-73.97815,40.75145]]]}},{"type":"Feature","properties":{"city":"NY","name":"Midtown West"},"geometry":{"type":"Polygon","coordinates":[[[-74.00528,40.75803],[-74.00503,40.75836],[-74.007,40.75923],[-74.00651,40.75989],[-74.0045,40.75908],[-74.00421,40.7595],[-74.00391,40.75938],[-74.00381,40.75951],[-74.00425,40.7597],[-74.00415,40.75984],[-74.00432,40.75991],[-74.00367,40.75971],[-74.00357,40.75985],[-74.00393,40.76],[-74.00313,40.76108],[-74.00279,40.76093],[-74.00234,40.76154],[-74.00456,40.76252],[-74.0044,40.76267],[-74.0022,40.76173],[-74.00179,40.76229],[-74.00153,40.76264],[-74.00376,40.76358],[-74.00361,40.76378],[-74.00139,40.76285],[-74.00097,40.76342],[-74.00315,40.76433],[-74.00295,40.76462],[-74.00322,40.76464],[-74.00315,40.76474],[-73.99993,40.76341],[-73.99962,40.76356],[-73.99915,40.76421],[-74.00229,40.76556],[-74.00202,40.76589],[-73.99888,40.76457],[-73.99858,40.765],[-73.99869,40.76521],[-73.99844,40.76532],[-73.99828,40.76557],[-74.00157,40.76698],[-74.00131,40.76725],[-73.99807,40.76587],[-73.99738,40.76682],[-74.00065,40.76825],[-74.00039,40.7685],[-73.99716,40.76713],[-73.99646,40.7681],[-73.99974,40.76951],[-73.99947,40.76976],[-73.99707,40.76873],[-73.99715,40.76885],[-73.99701,40.76903],[-73.99689,40.76898],[-73.99657,40.76942],[-73.99903,40.77046],[-73.99876,40.77083],[-73.99631,40.7698],[-73.99588,40.7704],[-73.99602,40.77045],[-73.9959,40.77061],[-73.99577,40.77055],[-73.99542,40.77103],[-73.996,40.77131],[-73.9959,40.77145],[-73.99531,40.7712],[-73.99493,40.77152],[-73.99498,40.77166],[-73.99707,40.77254],[-73.99687,40.77282],[-73.99477,40.77193],[-73.99445,40.77238],[-73.99623,40.77313],[-73.99612,40.77328],[-73.99416,40.77249],[-73.99383,40.77293],[-73.99414,40.7729],[-73.99438,40.77304],[-73.99429,40.77316],[-73.99502,40.77348],[-73.99505,40.7733],[-73.99624,40.77379],[-73.99606,40.77389],[-73.99614,40.77403],[-73.97301,40.76428],[-73.98456,40.74846],[-74.00547,40.75725],[-74.00521,40.75723],[-74.0048,40.75781],[-74.00528,40.75803]],[[-74.00104,40.76197],[-73.99831,40.76082],[-74.00142,40.76214],[-74.00104,40.76197]],[[-73.98206,40.76773],[-73.98201,40.76772],[-73.98195,40.76771],[-73.9819,40.76771],[-73.98211,40.76774],[-73.98206,40.76773]]]}},{"type":"Feature","properties":{"city":"NY","name":"Financial District (FiDi)"},"geometry":{"type":"Polygon","coordinates":[[[-74.00861,40.71137],[-74.00536,40.71215],[-74.00366,40.71149],[-73.9991,40.70797],[-74.00119,40.70686],[-74.00123,40.70674],[-74.00098,40.70642],[-74.00141,40.70618],[-74.00058,40.70543],[-74.00144,40.70487],[-74.00206,40.70542],[-74.00257,40.70552],[-74.00269,40.70545],[-74.00197,40.70474],[-74.00217,40.70461],[-74.00233,40.70475],[-74.00243,40.70468],[-74.00239,40.7048],[-74.00332,40.70563],[-74.00363,40.70543],[-74.00288,40.70483],[-74.00297,40.70477],[-74.00364,40.70542],[-74.00383,40.7053],[-74.00395,40.7054],[-74.00438,40.70511],[-74.00427,40.70501],[-74.00459,40.70479],[-74.0035,40.7038],[-74.00372,40.70365],[-74.00481,40.70464],[-74.00519,40.70442],[-74.00493,40.70421],[-74.005,40.70417],[-74.00521,40.70441],[-74.00535,40.70431],[-74.00416,40.70323],[-74.00412,40.70311],[-74.00427,40.70302],[-74.00566,40.7041],[-74.00602,40.70387],[-74.00614,40.70398],[-74.0066,40.70369],[-74.0053,40.70256],[-74.00549,40.70243],[-74.00561,40.70253],[-74.00554,40.70265],[-74.00568,40.70258],[-74.00679,40.70357],[-74.00753,40.70311],[-74.00771,40.70288],[-74.00931,40.70195],[-74.0087,40.70114],[-74.00776,40.70155],[-74.00759,40.70133],[-74.00854,40.70092],[-74.00835,40.70067],[-74.00862,40.70055],[-74.0096,40.70187],[-74.01117,40.70148],[-74.0111,40.70127],[-74.01129,40.70125],[-74.01082,40.7002],[-74.01115,40.7009],[-74.01136,40.70085],[-74.01133,40.70057],[-74.0115,40.70082],[-74.01173,40.70077],[-74.01163,40.70046],[-74.01185,40.70074],[-74.01209,40.70068],[-74.01186,40.70011],[-74.01196,40.70004],[-74.01239,40.70062],[-74.01259,40.70057],[-74.01252,40.70015],[-74.01261,40.70011],[-74.01291,40.70052],[-74.01311,40.70051],[-74.01301,40.69982],[-74.01311,40.69977],[-74.01327,40.7005],[-74.01349,40.70048],[-74.01353,40.70011],[-74.01367,40.70013],[-74.01353,40.70031],[-74.01356,40.70094],[-74.01396,40.70097],[-74.01513,40.70139],[-74.01617,40.70257],[-74.01654,40.70473],[-74.01426,40.71093],[-74.01375,40.71369],[-74.00861,40.71137]]]}},{"type":"Feature","properties":{"city":"NY","name":"Hudson Yards"},"geometry":{"type":"Polygon","coordinates":[[[-74.00542,40.75732],[-74.00521,40.75723],[-74.0048,40.75781],[-74.00528,40.75803],[-74.00503,40.75836],[-74.007,40.75923],[-74.00648,40.75989],[-74.0045,40.75908],[-74.00421,40.7595],[-74.00391,40.75938],[-74.00381,40.75951],[-74.00425,40.7597],[-74.00415,40.75984],[-74.00432,40.75991],[-74.00367,40.75971],[-74.00357,40.75985],[-74.00393,40.76],[-74.00313,40.76108],[-74.00279,40.76093],[-74.00234,40.76154],[-74.00455,40.76249],[-74.00452,40.76257],[-73.99027,40.75658],[-73.9905,40.75626],[-73.99073,40.75595],[-73.99095,40.75564],[-73.99163,40.75471],[-73.99526,40.74972],[-74.00737,40.75486],[-74.00696,40.75518],[-74.00542,40.75732]]]}},{"type":"Feature","properties":{"city":"NY","name":"Flatiron / NoMad"},"geometry":{"type":"Polygon","coordinates":[[[-73.98958,40.74731],[-73.98317,40.74458],[-73.98858,40.73715],[-73.99502,40.73986],[-73.98958,40.74731]]]}},{"type":"Feature","properties":{"city":"NY","name":"Chelsea"},"geometry":{"type":"Polygon","coordinates":[[[-73.98793,40.74985],[-73.98797,40.74947],[-73.99421,40.74101],[-73.98978,40.73917],[-73.99037,40.7371],[-73.99172,40.73525],[-74.00916,40.74251],[-74.00909,40.74289],[-74.00962,40.74295],[-74.00957,40.74326],[-74.01214,40.74353],[-74.01202,40.74394],[-74.00951,40.74368],[-74.00944,40.74397],[-74.0089,40.74392],[-74.00873,40.74488],[-74.00961,40.745],[-74.00956,40.74529],[-74.00992,40.74533],[-74.01,40.74496],[-74.00987,40.74492],[-74.01017,40.74494],[-74.01004,40.74496],[-74.00997,40.74532],[-74.01047,40.74539],[-74.01055,40.74501],[-74.01042,40.74498],[-74.01076,40.74501],[-74.01059,40.74502],[-74.01055,40.74539],[-74.0111,40.74545],[-74.01117,40.74508],[-74.01104,40.74505],[-74.01139,40.74507],[-74.01123,40.74508],[-74.01115,40.74545],[-74.01174,40.74552],[-74.0118,40.74515],[-74.01167,40.74511],[-74.01184,40.74513],[-74.01168,40.74598],[-74.00946,40.74575],[-74.00937,40.74634],[-74.01153,40.74658],[-74.01153,40.74697],[-74.00924,40.74676],[-74.00914,40.74736],[-74.00996,40.74738],[-74.0099,40.74744],[-74.01141,40.74763],[-74.0113,40.74801],[-74.00906,40.74779],[-74.00895,40.74841],[-74.01122,40.74868],[-74.01111,40.74905],[-74.00995,40.74893],[-74.00956,40.74994],[-74.01081,40.75032],[-74.01076,40.75041],[-74.00925,40.74999],[-74.00912,40.75033],[-74.01067,40.75107],[-74.01059,40.75132],[-74.009,40.75065],[-74.00853,40.75188],[-74.01022,40.75255],[-74.01013,40.75267],[-74.00848,40.75202],[-74.00843,40.75216],[-74.00999,40.75282],[-74.00997,40.75293],[-74.00979,40.75295],[-74.00989,40.75281],[-74.00879,40.75235],[-74.00869,40.75249],[-74.00835,40.75235],[-74.00762,40.75428],[-74.00774,40.75434],[-74.0076,40.75453],[-74.00747,40.75448],[-74.00728,40.75474],[-74.00741,40.75479],[-74.00727,40.75499],[-74.00714,40.75493],[-74.00557,40.75712],[-74.00493,40.75702],[-73.99346,40.75219],[-73.98793,40.74985]]]}},{"type":"Feature","properties":{"city":"NY","name":"Union Square"},"geometry":{"type":"Polygon","coordinates":[[[-73.98987,40.73353],[-73.99414,40.73532],[-73.99181,40.73851],[-73.98537,40.7358],[-73.98769,40.73261],[-73.98987,40.73352],[-73.98987,40.73353]],[[-73.98985,40.7341],[-73.98984,40.73387],[-73.98984,40.73398],[-73.98985,40.7341]]]}},{"type":"Feature","properties":{"city":"NY","name":"SoHo"},"geometry":{"type":"Polygon","coordinates":[[[-73.99763,40.72579],[-73.9954,40.725],[-73.99666,40.72347],[-73.99767,40.72082],[-73.99999,40.71798],[-74.0083,40.72398],[-74.01106,40.72574],[-74.01138,40.72428],[-74.01197,40.72433],[-74.01165,40.72587],[-74.0152,40.72636],[-74.01512,40.72679],[-74.01154,40.72645],[-74.01138,40.72823],[-74.0108,40.7282],[-74.01066,40.72983],[-74.00921,40.72971],[-74.00935,40.72899],[-74.00286,40.72835],[-73.99763,40.72579]]]}},{"type":"Feature","properties":{"city":"NY","name":"Downtown Brooklyn"},"geometry":{"type":"Polygon","coordinates":[[[-73.98559,40.69849],[-73.98054,40.69825],[-73.98051,40.6965],[-73.98242,40.69597],[-73.98263,40.69222],[-73.98088,40.68884],[-73.9799,40.68747],[-73.98585,40.6896],[-73.9862,40.689],[-73.99174,40.69099],[-73.99045,40.69373],[-73.99136,40.69701],[-73.99141,40.69863],[-73.99103,40.69985],[-73.99093,40.70077],[-73.99199,40.70161],[-73.99047,40.70169],[-73.98678,40.70112],[-73.98559,40.69849]]]}},{"type":"Feature","properties":{"city":"NY","name":"Long Island City (LIC)"},"geometry":{"type":"Polygon","coordinates":[[[-73.93664,40.7482],[-73.94033,40.74541],[-73.94343,40.74423],[-73.94401,40.74364],[-73.9442,40.74288],[-73.94032,40.7444],[-73.9377,40.74524],[-73.93726,40.74518],[-73.93868,40.73821],[-73.94146,40.73925],[-73.94051,40.74011],[-73.94036,40.74034],[-73.94056,40.74042],[-73.93911,40.74262],[-73.93867,40.74253],[-73.93859,40.74293],[-73.94002,40.74321],[-73.94015,40.74283],[-73.93965,40.74273],[-73.94119,40.74029],[-73.94159,40.73986],[-73.9426,40.7394],[-73.94279,40.73919],[-73.94271,40.73912],[-73.9429,40.739],[-73.94382,40.73887],[-73.94548,40.73821],[-73.94715,40.7379],[-73.95138,40.73934],[-73.95381,40.73982],[-73.95549,40.73978],[-73.95741,40.73956],[-73.95978,40.73851],[-73.96007,40.73848],[-73.96029,40.73824],[-73.96073,40.73808],[-73.96217,40.73827],[-73.96213,40.73845],[-73.96261,40.7388],[-73.96243,40.73967],[-73.96221,40.74001],[-73.96179,40.74001],[-73.96125,40.74042],[-73.96183,40.74063],[-73.96194,40.74079],[-73.9618,40.7411],[-73.96122,40.74111],[-73.96107,40.74169],[-73.96136,40.74184],[-73.96111,40.74183],[-73.96155,40.74199],[-73.96119,40.74264],[-73.9611,40.74278],[-73.96097,40.74275],[-73.96054,40.74347],[-73.95977,40.7435],[-73.95971,40.74386],[-73.96002,40.74392],[-73.95995,40.74378],[-73.96012,40.74394],[-73.96006,40.7438],[-73.96021,40.74398],[-73.96057,40.74403],[-73.96052,40.74411],[-73.95963,40.74393],[-73.95939,40.74428],[-73.95973,40.74427],[-73.96016,40.74437],[-73.96013,40.74444],[-73.95923,40.74431],[-73.95878,40.74456],[-73.95944,40.7446],[-73.95939,40.74471],[-73.95888,40.74462],[-73.95876,40.74495],[-73.95967,40.74517],[-73.95849,40.74499],[-73.95845,40.74512],[-73.95925,40.74532],[-73.95934,40.74551],[-73.95906,40.74575],[-73.9585,40.74576],[-73.9586,40.7459],[-73.95914,40.746],[-73.95872,40.74665],[-73.95841,40.74689],[-73.95831,40.74707],[-73.95845,40.7471],[-73.95704,40.74892],[-73.95485,40.74804],[-73.95415,40.74801],[-73.95436,40.74795],[-73.95318,40.74773],[-73.95305,40.74809],[-73.95478,40.74843],[-73.95632,40.74908],[-73.95601,40.74937],[-73.95622,40.74952],[-73.956,40.74938],[-73.95576,40.7496],[-73.9562,40.74969],[-73.95609,40.74977],[-73.95546,40.74967],[-73.95535,40.75001],[-73.95513,40.74993],[-73.9552,40.74968],[-73.95507,40.74963],[-73.95452,40.75059],[-73.95465,40.75083],[-73.9545,40.75123],[-73.95293,40.75276],[-73.95084,40.75522],[-73.94488,40.75261],[-73.94409,40.75228],[-73.94402,40.75235],[-73.93812,40.74983],[-73.93799,40.74969],[-73.93805,40.74945],[-73.93686,40.74842],[-73.93664,40.7482]]]}},{"type":"Feature","properties":{"city":"LA","name":"DTLA"},"geometry":{"type":"Polygon","coordinates":[[[-118.2439,34.06063],[-118.24359,34.06085],[-118.2435,34.06037],[-118.23955,34.05827],[-118.23739,34.05818],[-118.23111,34.05639],[-118.22728,34.05502],[-118.22896,34.05305],[-118.22915,34.05307],[-118.22897,34.05302],[-118.23035,34.04758],[-118.22411,34.01998],[-118.22376,34.01749],[-118.22337,34.01738],[-118.22272,34.01495],[-118.22324,34.01495],[-118.22341,34.01537],[-118.22372,34.01537],[-118.2237,34.01495],[-118.22571,34.01494],[-118.22572,34.01532],[-118.22751,34.01529],[-118.22771,34.01483],[-118.23972,34.01472],[-118.23955,34.01998],[-118.24324,34.02069],[-118.2451,34.02154],[-118.2452,34.02143],[-118.25046,34.02455],[-118.25911,34.02857],[-118.25926,34.02848],[-118.26352,34.03061],[-118.26361,34.0305],[-118.26575,34.03147],[-118.26567,34.03159],[-118.2675,34.03242],[-118.26759,34.0323],[-118.26835,34.03264],[-118.26827,34.03276],[-118.2743,34.0354],[-118.27392,34.03806],[-118.27413,34.03807],[-118.27368,34.041],[-118.27314,34.0425],[-118.272,34.04423],[-118.27005,34.04592],[-118.26102,34.05121],[-118.26149,34.05149],[-118.26023,34.0523],[-118.25967,34.05288],[-118.26003,34.05318],[-118.25984,34.05309],[-118.25527,34.05794],[-118.25421,34.05916],[-118.25206,34.06251],[-118.24922,34.06521],[-118.24464,34.06125],[-118.2439,34.06063]]]}},{"type":"Feature","properties":{"city":"LA","name":"Century City"},"geometry":{"type":"Polygon","coordinates":[[[-118.41222,34.06011],[-118.41156,34.06043],[-118.40604,34.05267],[-118.41708,34.0463],[-118.42144,34.05137],[-118.42157,34.0525],[-118.42283,34.05343],[-118.42339,34.05648],[-118.42419,34.05757],[-118.41436,34.06433],[-118.41353,34.06317],[-118.41418,34.06285],[-118.41222,34.06011]]]}},{"type":"Feature","properties":{"city":"LA","name":"Culver City"},"geometry":{"type":"Polygon","coordinates":[[[-118.37191,34.02993],[-118.37366,34.03043],[-118.37558,34.0291],[-118.37654,34.02663],[-118.37666,34.02601],[-118.37638,34.02585],[-118.37671,34.02399],[-118.37697,34.02375],[-118.37746,34.02271],[-118.37824,34.022],[-118.37796,34.02197],[-118.37796,34.02139],[-118.37841,34.02132],[-118.37835,34.02119],[-118.38136,34.02069],[-118.3809,34.02013],[-118.37877,34.01873],[-118.37799,34.01802],[-118.37587,34.01805],[-118.3759,34.01852],[-118.37283,34.01837],[-118.37264,34.01848],[-118.37375,34.01638],[-118.37408,34.01514],[-118.37394,34.01387],[-118.37311,34.01192],[-118.37902,34.01171],[-118.37963,34.01151],[-118.38523,34.01261],[-118.38734,34.00969],[-118.3906,34.00253],[-118.3904,34.00245],[-118.39075,34.00202],[-118.39018,34.00177],[-118.39062,34.00173],[-118.39079,34.0015],[-118.38273,34.00041],[-118.38404,33.99626],[-118.38514,33.99651],[-118.38607,33.99349],[-118.38362,33.99217],[-118.38802,33.98892],[-118.38222,33.98896],[-118.38212,33.99112],[-118.37892,33.99272],[-118.37866,33.98899],[-118.37885,33.98852],[-118.38452,33.97847],[-118.38566,33.97857],[-118.38667,33.97691],[-118.39766,33.98207],[-118.39758,33.98219],[-118.39848,33.98318],[-118.3951,33.98382],[-118.39569,33.98437],[-118.39586,33.98492],[-118.39846,33.98778],[-118.39899,33.98782],[-118.40125,33.98639],[-118.40622,33.98941],[-118.40516,33.99051],[-118.40787,33.99212],[-118.40588,33.99328],[-118.4042,33.99506],[-118.40374,33.99533],[-118.40312,33.99617],[-118.40113,33.99986],[-118.40126,33.99987],[-118.40077,34.00122],[-118.40068,34.00143],[-118.40044,34.00144],[-118.40019,34.00204],[-118.40278,34.00347],[-118.4059,33.99924],[-118.40909,34.00122],[-118.40966,34.0005],[-118.41424,34.00344],[-118.41437,34.00367],[-118.41607,34.0005],[-118.41807,33.99921],[-118.41903,33.99804],[-118.41969,33.99761],[-118.42845,33.99656],[-118.43111,33.99639],[-118.43019,33.99013],[-118.42973,33.98976],[-118.43089,33.9892],[-118.43248,33.99146],[-118.43719,33.99528],[-118.44704,33.99052],[-118.44719,33.99076],[-118.44848,33.99336],[-118.44473,33.99438],[-118.44336,33.99532],[-118.44247,33.9936],[-118.43582,33.99692],[-118.43532,33.9969],[-118.43034,33.99945],[-118.43085,34.00011],[-118.4285,34.00135],[-118.42599,33.99807],[-118.42041,33.99869],[-118.41919,34.00004],[-118.41825,34.00062],[-118.42126,34.00443],[-118.41736,34.00675],[-118.41924,34.00911],[-118.4201,34.00865],[-118.42142,34.01033],[-118.40688,34.01858],[-118.40547,34.01686],[-118.40049,34.0199],[-118.4013,34.02109],[-118.40062,34.02148],[-118.40026,34.02086],[-118.3995,34.0213],[-118.39911,34.02079],[-118.39881,34.02087],[-118.39747,34.02167],[-118.39836,34.02292],[-118.3941,34.02531],[-118.39421,34.02556],[-118.39395,34.02571],[-118.39346,34.02538],[-118.39335,34.02552],[-118.39325,34.02531],[-118.39304,34.02561],[-118.39294,34.02553],[-118.39263,34.02628],[-118.38718,34.0294],[-118.38681,34.02913],[-118.38667,34.02921],[-118.38641,34.02891],[-118.38422,34.03022],[-118.37593,34.03242],[-118.36959,34.03508],[-118.37158,34.03067],[-118.37191,34.02993]],[[-118.37865,34.02181],[-118.37831,34.02201],[-118.37876,34.02205],[-118.37865,34.02181]]]}},{"type":"Feature","properties":{"city":"LA","name":"Santa Monica"},"geometry":{"type":"Polygon","coordinates":[[[-118.48378,34.04143],[-118.48003,34.04446],[-118.48017,34.04453],[-118.47976,34.04471],[-118.47967,34.0452],[-118.47917,34.04512],[-118.47903,34.04569],[-118.47845,34.04563],[-118.47836,34.04627],[-118.4773,34.0467],[-118.47439,34.04421],[-118.47429,34.04432],[-118.47373,34.04404],[-118.47129,34.04195],[-118.47153,34.04175],[-118.45919,34.03133],[-118.45763,34.03166],[-118.45708,34.0298],[-118.45292,34.02804],[-118.44594,34.01942],[-118.44344,34.01663],[-118.45595,34.01003],[-118.456,34.00988],[-118.45699,34.00966],[-118.45712,34.00944],[-118.45786,34.00904],[-118.47993,33.99736],[-118.48142,33.99631],[-118.48169,33.9966],[-118.48349,33.99542],[-118.4828,33.99472],[-118.48354,33.99431],[-118.48384,33.99501],[-118.48499,33.99462],[-118.48632,33.99381],[-118.48432,33.99631],[-118.48512,33.99711],[-118.48422,33.99771],[-118.49276,34.00584],[-118.49663,34.00891],[-118.49803,34.00781],[-118.49843,34.00841],[-118.49963,34.00741],[-118.49993,34.00771],[-118.49743,34.00951],[-118.50281,34.01549],[-118.50916,34.02084],[-118.51675,34.02573],[-118.51609,34.02627],[-118.51555,34.02623],[-118.515,34.02755],[-118.51265,34.02993],[-118.51071,34.03142],[-118.50949,34.03271],[-118.50868,34.03298],[-118.50881,34.03336],[-118.50872,34.03397],[-118.5077,34.03627],[-118.5081,34.0381],[-118.50823,34.0381],[-118.50828,34.03835],[-118.50813,34.03908],[-118.50836,34.03916],[-118.50811,34.03913],[-118.50757,34.04007],[-118.50661,34.04059],[-118.50459,34.0413],[-118.50398,34.04073],[-118.49542,34.04959],[-118.49487,34.05035],[-118.49465,34.05017],[-118.49448,34.05056],[-118.49435,34.05045],[-118.48378,34.04143]]]}},{"type":"Feature","properties":{"city":"LA","name":"Playa Vista"},"geometry":{"type":"Polygon","coordinates":[[[-118.40125,33.98639],[-118.39899,33.98782],[-118.39846,33.98778],[-118.39586,33.98492],[-118.39569,33.98437],[-118.3951,33.98382],[-118.39848,33.98318],[-118.39758,33.98219],[-118.39765,33.9821],[-118.39924,33.9828],[-118.40163,33.98229],[-118.4045,33.97722],[-118.40478,33.97696],[-118.41162,33.9753],[-118.41892,33.97232],[-118.41892,33.97212],[-118.42269,33.97001],[-118.42354,33.96699],[-118.42548,33.96564],[-118.42613,33.96599],[-118.42666,33.96652],[-118.43227,33.97502],[-118.42836,33.97737],[-118.42321,33.98078],[-118.42067,33.98112],[-118.41921,33.98166],[-118.41402,33.98545],[-118.41383,33.9853],[-118.41206,33.9866],[-118.4103,33.98748],[-118.40743,33.98817],[-118.40408,33.98811],[-118.40211,33.98691],[-118.40125,33.98639]]]}},{"type":"Feature","properties":{"city":"LA","name":"Beverly Hills"},"geometry":{"type":"Polygon","coordinates":[[[-118.39059,34.10921],[-118.39121,34.10737],[-118.39214,34.10632],[-118.3921,34.09906],[-118.3926,34.09867],[-118.39257,34.0985],[-118.39542,34.09618],[-118.39652,34.09619],[-118.39652,34.09507],[-118.39617,34.09517],[-118.39593,34.09502],[-118.39586,34.09059],[-118.39453,34.09058],[-118.3936,34.08964],[-118.38977,34.0885],[-118.38975,34.07649],[-118.39073,34.07651],[-118.39072,34.07209],[-118.38378,34.07213],[-118.38374,34.06969],[-118.37742,34.06971],[-118.37739,34.06933],[-118.37633,34.06934],[-118.37636,34.06958],[-118.37605,34.06958],[-118.37605,34.06981],[-118.37577,34.0701],[-118.37303,34.0654],[-118.37204,34.06419],[-118.37227,34.06425],[-118.37204,34.06387],[-118.37226,34.0622],[-118.37601,34.05997],[-118.37602,34.05962],[-118.37619,34.05947],[-118.37728,34.05939],[-118.37734,34.06296],[-118.38355,34.06294],[-118.38368,34.0571],[-118.39973,34.0571],[-118.40006,34.05686],[-118.40029,34.0571],[-118.4008,34.05687],[-118.40092,34.057],[-118.40076,34.0571],[-118.40128,34.0571],[-118.4016,34.05692],[-118.40169,34.05703],[-118.40157,34.0571],[-118.40189,34.0571],[-118.40228,34.05689],[-118.40238,34.057],[-118.4022,34.0571],[-118.40248,34.0571],[-118.40278,34.05689],[-118.40294,34.05706],[-118.40327,34.05684],[-118.40347,34.05703],[-118.40401,34.05711],[-118.40593,34.05711],[-118.40594,34.05483],[-118.40546,34.05487],[-118.4053,34.05441],[-118.40557,34.05432],[-118.40557,34.05415],[-118.40613,34.05415],[-118.4055,34.05285],[-118.40604,34.05267],[-118.41156,34.06043],[-118.41222,34.06011],[-118.41418,34.06285],[-118.41353,34.06317],[-118.41727,34.06839],[-118.41638,34.06884],[-118.41739,34.07021],[-118.41847,34.07237],[-118.41965,34.07266],[-118.42094,34.07543],[-118.42185,34.0751],[-118.42256,34.07528],[-118.4233,34.07569],[-118.42278,34.07705],[-118.42331,34.07757],[-118.42364,34.07877],[-118.42349,34.07882],[-118.42384,34.07974],[-118.42266,34.08001],[-118.42279,34.0831],[-118.42697,34.08305],[-118.42705,34.09064],[-118.42416,34.09064],[-118.42411,34.09045],[-118.42375,34.0904],[-118.42297,34.09064],[-118.4227,34.09057],[-118.42275,34.09432],[-118.41395,34.09427],[-118.41262,34.09292],[-118.41198,34.09248],[-118.4119,34.09225],[-118.41148,34.0935],[-118.40945,34.09486],[-118.4092,34.09554],[-118.40951,34.09615],[-118.40907,34.09657],[-118.4089,34.09712],[-118.40865,34.09715],[-118.40908,34.09756],[-118.4088,34.09846],[-118.40902,34.09901],[-118.40907,34.10016],[-118.40862,34.10046],[-118.40871,34.10151],[-118.40542,34.10147],[-118.4052,34.09713],[-118.40533,34.0963],[-118.40243,34.09367],[-118.40208,34.0938],[-118.40169,34.09421],[-118.40141,34.09384],[-118.4009,34.094],[-118.40091,34.09513],[-118.40028,34.09558],[-118.40003,34.09598],[-118.40092,34.09631],[-118.40105,34.10875],[-118.39868,34.10876],[-118.40009,34.11094],[-118.39922,34.11149],[-118.39659,34.11165],[-118.3966,34.11242],[-118.39115,34.11243],[-118.39059,34.10921]]]}},{"type":"Feature","properties":{"city":"LA","name":"Pasadena"},"geometry":{"type":"MultiPolygon","coordinates":[[[[-118.18649,34.23747],[-118.18642,34.23357],[-118.18653,34.23326],[-118.18654,34.23086],[-118.1869,34.23081],[-118.18696,34.22717],[-118.18661,34.22716],[-118.18669,34.22316],[-118.18349,34.22311],[-118.18345,34.22241],[-118.17769,34.22246],[-118.17772,34.22202],[-118.17792,34.22216],[-118.1777,34.2219],[-118.17732,34.21541],[-118.17441,34.21509],[-118.17061,34.21531],[-118.17061,34.21543],[-118.16794,34.21537],[-118.16781,34.21515],[-118.16699,34.21547],[-118.16687,34.21532],[-118.16343,34.21524],[-118.16423,34.21454],[-118.16474,34.2138],[-118.16495,34.21328],[-118.16478,34.21304],[-118.16527,34.21251],[-118.165,34.21218],[-118.16536,34.21241],[-118.16596,34.21177],[-118.16726,34.21176],[-118.16716,34.21119],[-118.16606,34.21002],[-118.16605,34.20808],[-118.16557,34.20807],[-118.16567,34.20725],[-118.16377,34.20485],[-118.16273,34.20459],[-118.16271,34.20362],[-118.16153,34.20198],[-118.16152,34.20167],[-118.16067,34.20174],[-118.16086,34.20132],[-118.15956,34.20001],[-118.16017,34.19866],[-118.16346,34.19972],[-118.16259,34.20165],[-118.16398,34.2015],[-118.16491,34.20017],[-118.16581,34.19805],[-118.16681,34.19622],[-118.1675,34.1953],[-118.16843,34.19339],[-118.16854,34.1921],[-118.1673,34.19169],[-118.16736,34.1915],[-118.16652,34.19124],[-118.16688,34.19026],[-118.16752,34.19054],[-118.1675,34.18881],[-118.16859,34.18881],[-118.1686,34.19068],[-118.16923,34.19247],[-118.17053,34.19114],[-118.17062,34.19013],[-118.17153,34.18958],[-118.17173,34.18929],[-118.16873,34.18919],[-118.16875,34.18545],[-118.16973,34.18548],[-118.17036,34.18604],[-118.17084,34.18476],[-118.17062,34.18469],[-118.17054,34.18433],[-118.1701,34.18409],[-118.17021,34.18395],[-118.17046,34.18409],[-118.17037,34.18356],[-118.16961,34.18144],[-118.16729,34.18144],[-118.16743,34.18308],[-118.16414,34.18309],[-118.16413,34.18144],[-118.15968,34.18145],[-118.15968,34.18182],[-118.15548,34.18192],[-118.15524,34.18192],[-118.15523,34.18149],[-118.14221,34.18157],[-118.13212,34.17704],[-118.1319,34.17707],[-118.13192,34.17651],[-118.12864,34.17652],[-118.12864,34.17523],[-118.12317,34.17511],[-118.12243,34.17527],[-118.12243,34.17551],[-118.1216,34.17552],[-118.1216,34.17528],[-118.11851,34.1753],[-118.11852,34.17547],[-118.11835,34.17547],[-118.11836,34.17594],[-118.11737,34.17587],[-118.11737,34.17531],[-118.11663,34.17531],[-118.11662,34.17376],[-118.11701,34.17376],[-118.11697,34.16961],[-118.11304,34.16964],[-118.11303,34.17034],[-118.11142,34.17039],[-118.11122,34.17025],[-118.11124,34.16915],[-118.11155,34.16915],[-118.11156,34.1686],[-118.10937,34.1686],[-118.10939,34.16759],[-118.09835,34.16757],[-118.09834,34.16862],[-118.09781,34.16862],[-118.09782,34.16914],[-118.09507,34.16918],[-118.09524,34.16969],[-118.09502,34.16977],[-118.09512,34.16996],[-118.0956,34.17045],[-118.09603,34.17044],[-118.09662,34.172],[-118.09566,34.17336],[-118.09553,34.17452],[-118.0953,34.17462],[-118.09522,34.17515],[-118.09501,34.1751],[-118.09501,34.17564],[-118.09827,34.17569],[-118.1003,34.18038],[-118.10041,34.18333],[-118.10068,34.18368],[-118.10158,34.18417],[-118.10245,34.18493],[-118.10215,34.18519],[-118.10243,34.18575],[-118.10253,34.18568],[-118.10282,34.18591],[-118.10322,34.18648],[-118.10306,34.18666],[-118.1036,34.18659],[-118.10382,34.18698],[-118.10373,34.18768],[-118.10386,34.18793],[-118.10487,34.18921],[-118.10493,34.19033],[-118.1046,34.19071],[-118.10493,34.19088],[-118.10492,34.1911],[-118.10559,34.19192],[-118.10693,34.1933],[-118.10488,34.19338],[-118.10482,34.19685],[-118.10049,34.19685],[-118.10046,34.19325],[-118.09942,34.19324],[-118.09942,34.1901],[-118.0979,34.19034],[-118.09687,34.1902],[-118.09686,34.19001],[-118.09712,34.18983],[-118.09615,34.18983],[-118.09645,34.19341],[-118.0893,34.19337],[-118.08914,34.19373],[-118.08805,34.19435],[-118.08754,34.19514],[-118.08728,34.19411],[-118.08769,34.19365],[-118.08726,34.19338],[-118.08638,34.19338],[-118.08598,34.19442],[-118.08609,34.19475],[-118.08572,34.19451],[-118.08519,34.19335],[-118.08251,34.19341],[-118.08241,34.1824],[-118.08128,34.1824],[-118.08145,34.18168],[-118.08191,34.18173],[-118.08369,34.18091],[-118.08342,34.18028],[-118.08339,34.17917],[-118.07897,34.17892],[-118.06567,34.17934],[-118.06563,34.17239],[-118.06687,34.17238],[-118.06821,34.17295],[-118.06784,34.15029],[-118.07344,34.15022],[-118.0734,34.14777],[-118.07373,34.14787],[-118.07796,34.14739],[-118.07795,34.14673],[-118.07812,34.14626],[-118.07939,34.14625],[-118.07937,34.14466],[-118.07995,34.14466],[-118.07996,34.14525],[-118.08045,34.14524],[-118.08051,34.14573],[-118.08238,34.14573],[-118.08238,34.14624],[-118.08461,34.14622],[-118.08461,34.14575],[-118.08612,34.14569],[-118.08612,34.1452],[-118.08698,34.1452],[-118.08698,34.14471],[-118.0862,34.14471],[-118.08608,34.14456],[-118.08329,34.14457],[-118.08351,34.14222],[-118.07897,34.14225],[-118.07893,34.13961],[-118.08153,34.1396],[-118.08154,34.14048],[-118.08375,34.14047],[-118.0839,34.1392],[-118.08385,34.1338],[-118.08397,34.13317],[-118.08412,34.13306],[-118.08602,34.13304],[-118.086,34.13144],[-118.08731,34.1313],[-118.08734,34.1337],[-118.08951,34.13368],[-118.08952,34.13528],[-118.09431,34.13525],[-118.09454,34.13694],[-118.09521,34.13693],[-118.09527,34.14021],[-118.09551,34.14021],[-118.09549,34.14164],[-118.09872,34.14165],[-118.09872,34.14141],[-118.0998,34.1414],[-118.0998,34.14068],[-118.10052,34.14067],[-118.10053,34.14143],[-118.10296,34.14128],[-118.1029,34.14158],[-118.10316,34.14165],[-118.10331,34.14213],[-118.10618,34.14205],[-118.10616,34.14082],[-118.10831,34.14081],[-118.10832,34.14156],[-118.11004,34.14155],[-118.11004,34.14119],[-118.11029,34.14117],[-118.11029,34.14037],[-118.11004,34.14036],[-118.11003,34.13993],[-118.11026,34.13841],[-118.1105,34.13841],[-118.11049,34.13795],[-118.11024,34.13772],[-118.11023,34.13744],[-118.11003,34.13744],[-118.11004,34.13686],[-118.11403,34.13686],[-118.11403,34.1364],[-118.1143,34.13588],[-118.11383,34.13588],[-118.11384,34.13295],[-118.11913,34.13261],[-118.13126,34.12979],[-118.13101,34.1294],[-118.13114,34.1286],[-118.13084,34.12815],[-118.13078,34.12746],[-118.13117,34.12647],[-118.13079,34.12616],[-118.13008,34.12405],[-118.12907,34.12303],[-118.12922,34.12214],[-118.12945,34.12206],[-118.12952,34.12168],[-118.12841,34.12059],[-118.12809,34.11942],[-118.12834,34.11934],[-118.12798,34.11795],[-118.13077,34.11734],[-118.13245,34.11722],[-118.13254,34.11734],[-118.13372,34.11738],[-118.13521,34.1177],[-118.13948,34.11918],[-118.14223,34.11959],[-118.14263,34.1204],[-118.14378,34.12101],[-118.14385,34.12156],[-118.14434,34.12207],[-118.14436,34.12262],[-118.14483,34.12308],[-118.1457,34.12378],[-118.14569,34.1235],[-118.14607,34.12364],[-118.14783,34.12506],[-118.14896,34.12567],[-118.14968,34.1246],[-118.15028,34.12404],[-118.164,34.12403],[-118.1641,34.12346],[-118.16557,34.12345],[-118.16551,34.12394],[-118.16847,34.12392],[-118.1678,34.12477],[-118.16723,34.12466],[-118.16639,34.12502],[-118.16567,34.12558],[-118.16588,34.12624],[-118.16723,34.12589],[-118.17034,34.12695],[-118.17143,34.12631],[-118.17239,34.12604],[-118.17282,34.12478],[-118.17697,34.12315],[-118.17655,34.12663],[-118.1778,34.12683],[-118.17769,34.12665],[-118.1786,34.12672],[-118.18021,34.12643],[-118.18091,34.12834],[-118.18145,34.1282],[-118.18135,34.1295],[-118.18259,34.12919],[-118.18285,34.12975],[-118.18283,34.13122],[-118.18611,34.13374],[-118.18554,34.13473],[-118.18522,34.13607],[-118.1859,34.13619],[-118.1859,34.13648],[-118.1857,34.13667],[-118.18581,34.13737],[-118.18554,34.13734],[-118.18554,34.13857],[-118.18541,34.13885],[-118.18568,34.13886],[-118.1857,34.13904],[-118.18491,34.13956],[-118.18435,34.13941],[-118.18314,34.14026],[-118.18197,34.14064],[-118.18021,34.14082],[-118.18009,34.1411],[-118.18077,34.1413],[-118.18118,34.1422],[-118.18222,34.14307],[-118.18231,34.14374],[-118.18457,34.14541],[-118.18423,34.14628],[-118.18389,34.14909],[-118.18185,34.14907],[-118.1816,34.14991],[-118.18221,34.15227],[-118.18248,34.15234],[-118.18248,34.15259],[-118.18231,34.15265],[-118.184,34.15907],[-118.18537,34.15905],[-118.18592,34.15837],[-118.18543,34.15932],[-118.1856,34.15993],[-118.1853,34.16044],[-118.18553,34.16086],[-118.18602,34.16105],[-118.18575,34.16149],[-118.186,34.16254],[-118.18583,34.16308],[-118.18725,34.16491],[-118.18869,34.16517],[-118.18792,34.16673],[-118.18908,34.16908],[-118.18978,34.1691],[-118.19049,34.17032],[-118.19098,34.17321],[-118.18883,34.17792],[-118.18733,34.17948],[-118.18444,34.1797],[-118.18402,34.17978],[-118.18338,34.18024],[-118.18163,34.17971],[-118.18015,34.18076],[-118.1762,34.18185],[-118.17629,34.18216],[-118.17501,34.18274],[-118.17424,34.18276],[-118.17446,34.18344],[-118.17531,34.18416],[-118.17559,34.18471],[-118.17558,34.18505],[-118.176,34.18551],[-118.17678,34.18573],[-118.17764,34.18544],[-118.17816,34.18573],[-118.17778,34.18541],[-118.17799,34.18541],[-118.17973,34.18593],[-118.18073,34.18643],[-118.18032,34.18741],[-118.18,34.18751],[-118.1792,34.18703],[-118.17917,34.18748],[-118.17906,34.18727],[-118.17879,34.18722],[-118.1789,34.18807],[-118.17835,34.18946],[-118.1782,34.19328],[-118.17752,34.19478],[-118.17603,34.19662],[-118.17547,34.19768],[-118.17362,34.19771],[-118.17362,34.19691],[-118.17222,34.19691],[-118.17091,34.19898],[-118.16804,34.20112],[-118.16743,34.20228],[-118.16766,34.20442],[-118.17025,34.20449],[-118.17026,34.20535],[-118.1712,34.20528],[-118.17236,34.20573],[-118.17241,34.20611],[-118.17368,34.20616],[-118.17375,34.20652],[-118.17345,34.20693],[-118.17391,34.2067],[-118.17402,34.20678],[-118.17426,34.20607],[-118.17496,34.20569],[-118.17533,34.20564],[-118.17566,34.20579],[-118.17577,34.20609],[-118.17556,34.20684],[-118.17594,34.20772],[-118.17597,34.20821],[-118.17656,34.20923],[-118.17664,34.21084],[-118.17552,34.21101],[-118.17522,34.21091],[-118.17462,34.21151],[-118.17562,34.21231],[-118.17602,34.21221],[-118.17612,34.21171],[-118.17652,34.21231],[-118.17714,34.21252],[-118.17835,34.21381],[-118.17814,34.21382],[-118.1785,34.21435],[-118.17982,34.21479],[-118.17985,34.21533],[-118.18012,34.21544],[-118.18173,34.21534],[-118.1825,34.2157],[-118.18412,34.21605],[-118.1836,34.21641],[-118.18349,34.21808],[-118.18291,34.21845],[-118.18187,34.21849],[-118.18112,34.21818],[-118.18124,34.21936],[-118.18187,34.22018],[-118.18483,34.22101],[-118.18482,34.22261],[-118.18815,34.22261],[-118.18806,34.22289],[-118.18819,34.22323],[-118.18986,34.22364],[-118.19021,34.22457],[-118.19098,34.2254],[-118.19103,34.2258],[-118.19144,34.22655],[-118.19088,34.22756],[-118.19046,34.22795],[-118.19069,34.22897],[-118.19003,34.23112],[-118.19329,34.23277],[-118.19391,34.23294],[-118.1943,34.23327],[-118.19597,34.23332],[-118.19684,34.2349],[-118.19753,34.23522],[-118.19824,34.23604],[-118.19822,34.23679],[-118.19794,34.23677],[-118.19774,34.23756],[-118.19697,34.23738],[-118.19551,34.2374],[-118.19527,34.25152],[-118.18691,34.25155],[-118.18649,34.23771],[-118.18649,34.23752],[-118.18678,34.23752],[-118.18649,34.23747]],[[-118.18487,34.16007],[-118.18479,34.15977],[-118.18426,34.15973],[-118.18437,34.16011],[-118.18487,34.16007]]],[[[-118.08984,34.19583],[-118.09061,34.19596],[-118.09183,34.19542],[-118.09298,34.19518],[-118.09303,34.1955],[-118.09288,34.19547],[-118.09227,34.19614],[-118.09202,34.19658],[-118.09197,34.19711],[-118.09154,34.19746],[-118.09018,34.1979],[-118.08906,34.1973],[-118.08752,34.19732],[-118.08799,34.19682],[-118.08984,34.19583]]]]}},{"type":"Feature","properties":{"city":"LA","name":"Burbank"},"geometry":{"type":"Polygon","coordinates":[[[-118.29098,34.22133],[-118.28022,34.20717],[-118.27997,34.19046],[-118.28242,34.18717],[-118.28261,34.18718],[-118.28328,34.18601],[-118.2877,34.18784],[-118.29064,34.1841],[-118.2904,34.18393],[-118.2978,34.17715],[-118.2964,34.17613],[-118.2993,34.17335],[-118.29701,34.1716],[-118.30448,34.16463],[-118.30452,34.1643],[-118.30469,34.16442],[-118.30715,34.16211],[-118.30703,34.16179],[-118.30744,34.16183],[-118.30808,34.16123],[-118.30874,34.16144],[-118.30966,34.16126],[-118.31033,34.16076],[-118.3122,34.15535],[-118.31398,34.1546],[-118.3125,34.15469],[-118.31263,34.15448],[-118.31406,34.1544],[-118.31601,34.15467],[-118.31769,34.15632],[-118.32212,34.15573],[-118.32573,34.15326],[-118.32904,34.15019],[-118.33008,34.14975],[-118.33104,34.14832],[-118.33665,34.1465],[-118.33882,34.14523],[-118.34,34.14559],[-118.34091,34.14546],[-118.3409,34.14473],[-118.34496,34.14243],[-118.34568,34.14237],[-118.3457,34.14258],[-118.34518,34.14275],[-118.35312,34.16129],[-118.35716,34.16129],[-118.35717,34.16491],[-118.35474,34.16491],[-118.35777,34.17217],[-118.36106,34.19398],[-118.3612,34.19398],[-118.36116,34.19466],[-118.37033,34.19638],[-118.37032,34.2012],[-118.36227,34.20124],[-118.36218,34.20142],[-118.363,34.20682],[-118.33994,34.20651],[-118.33982,34.2112],[-118.33775,34.21128],[-118.33772,34.21259],[-118.33604,34.21431],[-118.33643,34.21457],[-118.33523,34.21539],[-118.33456,34.21562],[-118.33747,34.22132],[-118.29144,34.22157],[-118.29098,34.22133]]]}},{"type":"Feature","properties":{"city":"LA","name":"Hollywood"},"geometry":{"type":"Polygon","coordinates":[[[-118.30929,34.10539],[-118.30916,34.08351],[-118.34406,34.08344],[-118.34407,34.0889],[-118.3434,34.08893],[-118.34339,34.09433],[-118.36155,34.09446],[-118.36158,34.10131],[-118.35964,34.10169],[-118.35395,34.10166],[-118.35396,34.10347],[-118.34677,34.10343],[-118.34428,34.10412],[-118.33838,34.10414],[-118.3377,34.10457],[-118.33748,34.10518],[-118.32939,34.10525],[-118.32802,34.10545],[-118.32688,34.10525],[-118.30929,34.10539]]]}},{"type":"Feature","properties":{"city":"LA","name":"El Segundo"},"geometry":{"type":"Polygon","coordinates":[[[-118.39803,33.93089],[-118.3803,33.93093],[-118.37874,33.93055],[-118.37874,33.92901],[-118.37844,33.92901],[-118.37839,33.92001],[-118.37654,33.92001],[-118.37655,33.91974],[-118.37641,33.91974],[-118.37642,33.91722],[-118.37434,33.91719],[-118.37435,33.91631],[-118.3784,33.91638],[-118.37869,33.91489],[-118.37871,33.90191],[-118.41443,33.9019],[-118.41579,33.90165],[-118.41585,33.90178],[-118.41749,33.90178],[-118.41964,33.90615],[-118.42344,33.90482],[-118.42987,33.91676],[-118.42946,33.91632],[-118.42223,33.91633],[-118.42223,33.91996],[-118.4244,33.91996],[-118.42441,33.92177],[-118.42658,33.92177],[-118.42659,33.92359],[-118.42767,33.92359],[-118.42768,33.92721],[-118.42877,33.92721],[-118.42879,33.93097],[-118.42544,33.93136],[-118.40207,33.9315],[-118.39803,33.93089]]]}},{"type":"Feature","properties":{"city":"DC","name":"Foggy Bottom"},"geometry":{"type":"Polygon","coordinates":[[[-77.05731,38.89984],[-77.05739,38.90028],[-77.05847,38.90121],[-77.05835,38.90168],[-77.05772,38.90255],[-77.05753,38.90237],[-77.0538,38.90246],[-77.05093,38.90236],[-77.05053,38.902],[-77.05027,38.90192],[-77.04928,38.90211],[-77.04356,38.90012],[-77.04355,38.89964],[-77.04497,38.89964],[-77.04497,38.89827],[-77.04354,38.89826],[-77.04357,38.89611],[-77.04871,38.89606],[-77.05255,38.89622],[-77.05285,38.89648],[-77.05283,38.89681],[-77.05363,38.8974],[-77.05634,38.89744],[-77.05627,38.89841],[-77.05847,38.89865],[-77.05746,38.89958],[-77.05731,38.89984]]]}},{"type":"Feature","properties":{"city":"DC","name":"Capitol Hill"},"geometry":{"type":"Polygon","coordinates":[[[-76.98375,38.87749],[-76.98479,38.87734],[-76.9873,38.87737],[-76.99068,38.87788],[-76.99229,38.87857],[-76.99633,38.87923],[-77.00292,38.88104],[-77.00496,38.88116],[-77.00895,38.88234],[-77.00899,38.88502],[-77.00714,38.88501],[-77.00744,38.886],[-77.00346,38.88599],[-77.00345,38.88761],[-77.00199,38.88756],[-77.00199,38.88917],[-77.00348,38.88917],[-77.00345,38.88974],[-76.99489,38.88974],[-76.99486,38.89197],[-76.98373,38.89197],[-76.98375,38.87749]]]}},{"type":"Feature","properties":{"city":"DC","name":"NoMa"},"geometry":{"type":"Polygon","coordinates":[[[-77.00351,38.89521],[-77.00541,38.89599],[-77.00688,38.89609],[-77.00733,38.89637],[-77.00793,38.89704],[-77.00907,38.89746],[-77.00915,38.9074],[-77.00614,38.90848],[-77.00613,38.9095],[-77.00295,38.90805],[-77.00306,38.90565],[-77.00351,38.9038],[-77.00351,38.89564],[-77.00351,38.89521]]]}},{"type":"Feature","properties":{"city":"DC","name":"Navy Yard"},"geometry":{"type":"Polygon","coordinates":[[[-77.00872,38.8764],[-77.0089,38.87663],[-77.00894,38.87829],[-77.00881,38.87939],[-77.00882,38.8819],[-77.003,38.88049],[-76.99141,38.87729],[-76.98876,38.87682],[-76.98358,38.87634],[-76.98743,38.87428],[-76.99005,38.87266],[-76.99274,38.87119],[-76.9989,38.8727],[-77.00204,38.87263],[-77.00422,38.8722],[-77.0056,38.87144],[-77.00685,38.87033],[-77.00741,38.86967],[-77.00839,38.87031],[-77.00868,38.87069],[-77.00891,38.87137],[-77.00889,38.87638],[-77.00872,38.8764]]]}},{"type":"Feature","properties":{"city":"DC","name":"Downtown DC"},"geometry":{"type":"Polygon","coordinates":[[[-77.03441,38.90641],[-77.03259,38.90573],[-77.03232,38.9053],[-77.03144,38.90534],[-77.02411,38.90286],[-77.02205,38.90287],[-77.02204,38.90222],[-77.02191,38.90211],[-77.02191,38.90087],[-77.02295,38.90088],[-77.02295,38.89982],[-77.02398,38.89982],[-77.02398,38.89839],[-77.026,38.89832],[-77.02599,38.89444],[-77.0262,38.89465],[-77.02947,38.89556],[-77.02945,38.89619],[-77.03175,38.89618],[-77.0335,38.8965],[-77.0335,38.90267],[-77.03446,38.9027],[-77.03441,38.90641]]]}},{"type":"Feature","properties":{"city":"DC","name":"K Street"},"geometry":{"type":"Polygon","coordinates":[[[-77.02191,38.90403],[-77.02191,38.90121],[-77.05013,38.90112],[-77.05012,38.90359],[-77.02191,38.90403]]]}},{"type":"Feature","properties":{"city":"DC","name":"Penn Quarter / Chinatown"},"geometry":{"type":"Polygon","coordinates":[[[-77.01951,38.89265],[-77.02599,38.89444],[-77.026,38.89735],[-77.02398,38.90088],[-77.01893,38.90087],[-77.01895,38.89264],[-77.01951,38.89265]]]}},{"type":"Feature","properties":{"city":"DC","name":"Rosslyn"},"geometry":{"type":"Polygon","coordinates":[[[-77.06848,38.89658],[-77.06955,38.89649],[-77.06953,38.89638],[-77.06923,38.89639],[-77.06919,38.89606],[-77.06844,38.89612],[-77.06833,38.895],[-77.06898,38.89494],[-77.06898,38.89443],[-77.06833,38.89391],[-77.06833,38.89366],[-77.06858,38.89352],[-77.07,38.89431],[-77.07014,38.89415],[-77.07085,38.89414],[-77.07125,38.89334],[-77.07157,38.89323],[-77.07207,38.89251],[-77.07285,38.89234],[-77.07303,38.89353],[-77.07363,38.89348],[-77.07371,38.89401],[-77.0756,38.89366],[-77.07549,38.89286],[-77.07649,38.89278],[-77.07658,38.89346],[-77.07852,38.89306],[-77.07861,38.89395],[-77.07817,38.8941],[-77.07836,38.89533],[-77.07511,38.89554],[-77.0752,38.89629],[-77.07332,38.89642],[-77.07366,38.89911],[-77.07496,38.89908],[-77.07512,38.89934],[-77.07337,38.90038],[-77.06878,38.89947],[-77.06848,38.89658]]]}},{"type":"Feature","properties":{"city":"DC","name":"Crystal City / National Landing"},"geometry":{"type":"Polygon","coordinates":[[[-77.04648,38.86568],[-77.04737,38.86435],[-77.04836,38.86241],[-77.04822,38.8607],[-77.04846,38.85839],[-77.04814,38.85691],[-77.04853,38.85685],[-77.04907,38.85708],[-77.04908,38.8568],[-77.04935,38.85681],[-77.04941,38.85584],[-77.04919,38.85583],[-77.04916,38.85648],[-77.04903,38.85648],[-77.04904,38.85625],[-77.04877,38.85612],[-77.04796,38.85607],[-77.04796,38.85427],[-77.04827,38.85277],[-77.04853,38.85213],[-77.05022,38.85012],[-77.04986,38.85001],[-77.05038,38.84885],[-77.0509,38.84693],[-77.05071,38.84516],[-77.05009,38.84281],[-77.04949,38.84135],[-77.05003,38.84154],[-77.05064,38.84154],[-77.05217,38.84055],[-77.0529,38.84036],[-77.05356,38.84044],[-77.05543,38.84109],[-77.05488,38.84233],[-77.05357,38.84618],[-77.05354,38.84695],[-77.05373,38.84796],[-77.05365,38.84798],[-77.0537,38.84872],[-77.05337,38.85268],[-77.05395,38.85267],[-77.05396,38.85286],[-77.05528,38.85284],[-77.05566,38.85684],[-77.05612,38.8597],[-77.05704,38.85971],[-77.05875,38.86045],[-77.05978,38.86056],[-77.05957,38.8593],[-77.0588,38.85827],[-77.05767,38.85759],[-77.05604,38.85736],[-77.05657,38.85724],[-77.05956,38.85713],[-77.05958,38.85789],[-77.06148,38.8578],[-77.0615,38.85895],[-77.06335,38.85888],[-77.06334,38.86088],[-77.063,38.86133],[-77.06345,38.86188],[-77.0632,38.86197],[-77.06233,38.86185],[-77.06239,38.86159],[-77.06167,38.86143],[-77.05971,38.86143],[-77.05943,38.86305],[-77.05858,38.86543],[-77.0526,38.86456],[-77.05216,38.86432],[-77.05191,38.86397],[-77.05192,38.86293],[-77.05136,38.86292],[-77.05033,38.86564],[-77.04979,38.86619],[-77.04838,38.86713],[-77.0477,38.86782],[-77.04595,38.87037],[-77.04529,38.87074],[-77.04474,38.87088],[-77.04275,38.871],[-77.04232,38.87074],[-77.04184,38.87113],[-77.0421,38.87083],[-77.04648,38.86568]],[[-77.0495,38.86218],[-77.04945,38.86209],[-77.0499,38.8621],[-77.04991,38.8618],[-77.04914,38.86178],[-77.0489,38.86223],[-77.04904,38.86238],[-77.0495,38.86218]],[[-77.05214,38.86181],[-77.05201,38.86239],[-77.05288,38.86244],[-77.05293,38.86185],[-77.05278,38.86184],[-77.05214,38.86181]]]}},{"type":"Feature","properties":{"city":"DC","name":"Bethesda"},"geometry":{"type":"Polygon","coordinates":[[[-77.09381,38.99208],[-77.09359,38.98979],[-77.09326,38.98903],[-77.09309,38.9881],[-77.08887,38.9884],[-77.08874,38.98854],[-77.08812,38.98814],[-77.08756,38.98819],[-77.08743,38.98747],[-77.08763,38.98741],[-77.08715,38.98628],[-77.08565,38.98674],[-77.0855,38.98647],[-77.08592,38.98554],[-77.08687,38.98459],[-77.08829,38.98396],[-77.09069,38.98335],[-77.09064,38.98313],[-77.0913,38.98295],[-77.09056,38.97933],[-77.0899,38.9794],[-77.08954,38.97721],[-77.09053,38.9772],[-77.09084,38.97699],[-77.09044,38.97642],[-77.09707,38.97625],[-77.09931,38.97387],[-77.09973,38.97443],[-77.09969,38.97612],[-77.10294,38.97501],[-77.10344,38.97561],[-77.10187,38.97598],[-77.10138,38.97633],[-77.10113,38.97673],[-77.10086,38.97792],[-77.10146,38.97906],[-77.10098,38.97964],[-77.10071,38.98186],[-77.09951,38.9819],[-77.09955,38.98262],[-77.09923,38.98276],[-77.09933,38.98424],[-77.09949,38.98424],[-77.09953,38.98476],[-77.10028,38.98474],[-77.10035,38.98604],[-77.10107,38.98602],[-77.10114,38.98721],[-77.10015,38.98723],[-77.10012,38.98759],[-77.10034,38.98765],[-77.10065,38.98809],[-77.10111,38.98842],[-77.10189,38.98867],[-77.10237,38.989],[-77.10174,38.9893],[-77.1042,38.99082],[-77.10332,38.99221],[-77.1038,38.9924],[-77.10393,38.99266],[-77.10458,38.9929],[-77.10449,38.99305],[-77.10512,38.99328],[-77.10492,38.9936],[-77.09382,38.99388],[-77.09381,38.99208]]]}},{"type":"Feature","properties":{"city":"CHI","name":"The Loop"},"geometry":{"type":"Polygon","coordinates":[[[-87.62742,41.86741],[-87.62761,41.87455],[-87.62797,41.87456],[-87.63068,41.87452],[-87.63044,41.86737],[-87.63473,41.86731],[-87.63518,41.87061],[-87.63607,41.87467],[-87.63629,41.8752],[-87.63733,41.87647],[-87.63766,41.87731],[-87.63777,41.87811],[-87.63811,41.87918],[-87.63828,41.88037],[-87.63822,41.88226],[-87.63759,41.88623],[-87.63709,41.88668],[-87.63562,41.88745],[-87.62762,41.88751],[-87.62599,41.88851],[-87.62509,41.88891],[-87.62271,41.88884],[-87.61801,41.88831],[-87.61143,41.88851],[-87.60248,41.88837],[-87.60252,41.88827],[-87.60781,41.88818],[-87.60985,41.88797],[-87.60999,41.88408],[-87.61274,41.88406],[-87.61288,41.88339],[-87.61351,41.88286],[-87.61434,41.88257],[-87.61579,41.88244],[-87.61636,41.88208],[-87.6165,41.88141],[-87.61575,41.88142],[-87.61572,41.88057],[-87.61648,41.88056],[-87.61618,41.87567],[-87.6162,41.87197],[-87.61628,41.87197],[-87.61621,41.8689],[-87.61571,41.86865],[-87.61535,41.8683],[-87.61854,41.86799],[-87.61896,41.8675],[-87.62742,41.86741]]]}},{"type":"Feature","properties":{"city":"CHI","name":"River North"},"geometry":{"type":"Polygon","coordinates":[[[-87.63122,41.89563],[-87.62548,41.89572],[-87.6252,41.88887],[-87.62762,41.88751],[-87.63562,41.88745],[-87.63709,41.88668],[-87.63759,41.88623],[-87.63839,41.88673],[-87.63877,41.88716],[-87.63944,41.88923],[-87.64067,41.89064],[-87.64151,41.89197],[-87.64245,41.89287],[-87.64355,41.89354],[-87.64407,41.89414],[-87.64423,41.89664],[-87.64443,41.89724],[-87.64489,41.89769],[-87.64879,41.89809],[-87.6494,41.89831],[-87.65086,41.89941],[-87.6519,41.90001],[-87.65451,41.90053],[-87.65538,41.90081],[-87.65589,41.90117],[-87.65647,41.90262],[-87.6575,41.9036],[-87.65816,41.90453],[-87.65829,41.90504],[-87.65775,41.90837],[-87.65749,41.90909],[-87.65923,41.90907],[-87.65895,41.90985],[-87.65694,41.91052],[-87.65686,41.91078],[-87.6495,41.9109],[-87.63964,41.90377],[-87.63145,41.9039],[-87.63122,41.89563]]]}},{"type":"Feature","properties":{"city":"CHI","name":"West Loop / Fulton Market"},"geometry":{"type":"Polygon","coordinates":[[[-87.65129,41.87529],[-87.65834,41.8756],[-87.66664,41.87549],[-87.66707,41.88885],[-87.64758,41.88905],[-87.64757,41.88857],[-87.64432,41.88858],[-87.64433,41.88903],[-87.63936,41.88908],[-87.63877,41.88716],[-87.63839,41.88673],[-87.63759,41.88623],[-87.63822,41.88226],[-87.63828,41.88037],[-87.63811,41.87918],[-87.63777,41.87811],[-87.63766,41.87731],[-87.63733,41.87647],[-87.63629,41.8752],[-87.63607,41.87467],[-87.63507,41.86994],[-87.63469,41.86675],[-87.63451,41.85938],[-87.63509,41.8582],[-87.63516,41.85772],[-87.63894,41.85767],[-87.63901,41.86002],[-87.64447,41.85995],[-87.64475,41.86696],[-87.64525,41.87137],[-87.64566,41.87371],[-87.64558,41.87542],[-87.65129,41.87529]]]}},{"type":"Feature","properties":{"city":"CHI","name":"Streeterville / Magnificent Mile"},"geometry":{"type":"Polygon","coordinates":[[[-87.61491,41.89467],[-87.61369,41.89313],[-87.61262,41.89341],[-87.61203,41.89333],[-87.61015,41.89623],[-87.60243,41.89637],[-87.60235,41.89326],[-87.60982,41.89315],[-87.6098,41.89222],[-87.60071,41.89244],[-87.60059,41.89242],[-87.60058,41.89224],[-87.59855,41.89227],[-87.59852,41.89145],[-87.60057,41.89142],[-87.60056,41.89111],[-87.60072,41.89107],[-87.60954,41.89101],[-87.60949,41.88939],[-87.60766,41.88937],[-87.60765,41.88867],[-87.60751,41.88864],[-87.60468,41.88864],[-87.6052,41.88847],[-87.61143,41.88851],[-87.61801,41.88831],[-87.62361,41.88891],[-87.6252,41.88887],[-87.6255,41.89671],[-87.62561,41.89671],[-87.62685,41.89917],[-87.62751,41.90076],[-87.61913,41.90097],[-87.61766,41.89876],[-87.61491,41.89467]]]}},{"type":"Feature","properties":{"city":"CHI","name":"LaSalle Street Corridor"},"geometry":{"type":"Polygon","coordinates":[[[-87.63103,41.88744],[-87.63071,41.87561],[-87.63368,41.87559],[-87.63399,41.88753],[-87.63103,41.88744]]]}},{"type":"Feature","properties":{"city":"CHI","name":"Fulton Market"},"geometry":{"type":"Polygon","coordinates":[[[-87.66068,41.88891],[-87.65734,41.88894],[-87.65736,41.88998],[-87.64765,41.89007],[-87.64745,41.88357],[-87.64857,41.88355],[-87.64855,41.88316],[-87.65438,41.88306],[-87.65439,41.88342],[-87.65668,41.88338],[-87.65667,41.88302],[-87.65763,41.88301],[-87.65764,41.88346],[-87.65878,41.88345],[-87.65878,41.88357],[-87.66299,41.88355],[-87.66356,41.88387],[-87.66068,41.88891]]]}},{"type":"Feature","properties":{"city":"CHI","name":"Medical District"},"geometry":{"type":"Polygon","coordinates":[[[-87.66189,41.87521],[-87.66187,41.87428],[-87.66675,41.87428],[-87.66638,41.86147],[-87.6712,41.8614],[-87.67125,41.86321],[-87.67972,41.86305],[-87.68244,41.86324],[-87.68352,41.86348],[-87.68371,41.87493],[-87.66189,41.87521]]]}},{"type":"Feature","properties":{"city":"CHI","name":"Evanston"},"geometry":{"type":"Polygon","coordinates":[[[-87.67729,42.05111],[-87.67698,42.05096],[-87.67439,42.05017],[-87.67449,42.04856],[-87.6742,42.0468],[-87.67311,42.04399],[-87.6887,42.04419],[-87.68848,42.05121],[-87.67727,42.0512],[-87.67729,42.05111]]]}},{"type":"Feature","properties":{"city":"PHL","name":"University City"},"geometry":{"type":"Polygon","coordinates":[[[-75.18005,39.96012],[-75.17935,39.95822],[-75.17945,39.95632],[-75.17965,39.95602],[-75.18004,39.95445],[-75.18156,39.95149],[-75.18335,39.94932],[-75.18565,39.94802],[-75.18875,39.94592],[-75.19151,39.94317],[-75.19377,39.9422],[-75.19695,39.94272],[-75.20035,39.94372],[-75.20305,39.94342],[-75.20394,39.94291],[-75.20516,39.94374],[-75.20549,39.94412],[-75.20824,39.94576],[-75.20515,39.94852],[-75.20393,39.94894],[-75.20398,39.9499],[-75.20576,39.94984],[-75.2058,39.95099],[-75.20477,39.95595],[-75.20446,39.95591],[-75.20415,39.9574],[-75.20195,39.95715],[-75.2018,39.95786],[-75.20097,39.9578],[-75.20086,39.95925],[-75.19585,39.95969],[-75.19117,39.9573],[-75.19084,39.95877],[-75.18754,39.95886],[-75.18742,39.95943],[-75.18759,39.96048],[-75.18715,39.96052],[-75.18705,39.96122],[-75.18727,39.96261],[-75.18282,39.96337],[-75.18005,39.96012]]]}},{"type":"Feature","properties":{"city":"PHL","name":"Old City"},"geometry":{"type":"Polygon","coordinates":[[[-75.14074,39.95411],[-75.14178,39.95142],[-75.14281,39.94666],[-75.15426,39.94809],[-75.1536,39.95114],[-75.15516,39.95133],[-75.15391,39.95703],[-75.15118,39.95696],[-75.15098,39.95729],[-75.15045,39.95741],[-75.14929,39.95756],[-75.14745,39.95744],[-75.14462,39.95692],[-75.14244,39.95631],[-75.14155,39.95573],[-75.14139,39.95548],[-75.14038,39.95553],[-75.14074,39.95411]]]}},{"type":"Feature","properties":{"city":"PHL","name":"Center City"},"geometry":{"type":"Polygon","coordinates":[[[-75.18322,39.94972],[-75.18219,39.95083],[-75.18134,39.95248],[-75.17958,39.95652],[-75.17936,39.95797],[-75.17966,39.95929],[-75.18005,39.96015],[-75.13387,39.95459],[-75.13521,39.95124],[-75.13599,39.94767],[-75.13639,39.94304],[-75.13624,39.94003],[-75.18763,39.9464],[-75.18322,39.94972]]]}},{"type":"Feature","properties":{"city":"PHL","name":"Market Street West"},"geometry":{"type":"Polygon","coordinates":[[[-75.17351,39.95207],[-75.17299,39.95461],[-75.16506,39.95363],[-75.1656,39.95108],[-75.17351,39.95207]]]}},{"type":"Feature","properties":{"city":"PHL","name":"Market East"},"geometry":{"type":"Polygon","coordinates":[[[-75.16179,39.95061],[-75.16102,39.95415],[-75.15155,39.95297],[-75.15233,39.94943],[-75.16179,39.95061]]]}},{"type":"Feature","properties":{"city":"PHL","name":"Navy Yard"},"geometry":{"type":"Polygon","coordinates":[[[-75.17534,39.89719],[-75.17404,39.89704],[-75.17395,39.89739],[-75.17475,39.89747],[-75.17493,39.89768],[-75.17488,39.89827],[-75.16979,39.89693],[-75.15108,39.89464],[-75.14274,39.89503],[-75.14259,39.89472],[-75.14296,39.89427],[-75.14278,39.89374],[-75.14238,39.89362],[-75.14225,39.89375],[-75.14045,39.89365],[-75.14,39.89342],[-75.14015,39.89268],[-75.14208,39.8899],[-75.14309,39.88935],[-75.14427,39.88911],[-75.14982,39.88854],[-75.15166,39.88855],[-75.15172,39.8884],[-75.16397,39.88754],[-75.16394,39.88733],[-75.16467,39.88727],[-75.16469,39.88749],[-75.17147,39.88704],[-75.17356,39.88738],[-75.17536,39.88738],[-75.1761,39.89395],[-75.17534,39.89719]],[[-75.1663,39.89119],[-75.16294,39.89143],[-75.1639,39.89236],[-75.16644,39.89219],[-75.1663,39.89119]]]}},{"type":"Feature","properties":{"city":"PHL","name":"King of Prussia"},"geometry":{"type":"Polygon","coordinates":[[[-75.41743,40.09632],[-75.41802,40.09736],[-75.41808,40.09972],[-75.41856,40.10121],[-75.41229,40.10311],[-75.40887,40.105],[-75.40605,40.105],[-75.40381,40.10392],[-75.4006,40.10312],[-75.40002,40.1042],[-75.39972,40.10452],[-75.39897,40.10398],[-75.39849,40.1038],[-75.39646,40.10384],[-75.395,40.10358],[-75.39171,40.10223],[-75.38208,40.10389],[-75.3817,40.10383],[-75.38082,40.10337],[-75.37999,40.10224],[-75.37957,40.10204],[-75.37704,40.1023],[-75.37445,40.10273],[-75.37015,40.10244],[-75.36995,40.10192],[-75.36884,40.101],[-75.36571,40.09674],[-75.36382,40.09525],[-75.36293,40.09473],[-75.36778,40.09326],[-75.38105,40.08876],[-75.38676,40.08635],[-75.38888,40.08527],[-75.38948,40.08568],[-75.39011,40.08583],[-75.39373,40.08543],[-75.40064,40.08546],[-75.40169,40.08562],[-75.4066,40.08801],[-75.41333,40.08994],[-75.41426,40.09033],[-75.41489,40.09089],[-75.41659,40.09324],[-75.41696,40.09402],[-75.41712,40.09483],[-75.41743,40.09632]]]}},{"type":"Feature","properties":{"city":"PHL","name":"Conshohocken"},"geometry":{"type":"Polygon","coordinates":[[[-75.31119,40.08105],[-75.31091,40.08164],[-75.30508,40.08747],[-75.29642,40.08234],[-75.29631,40.08245],[-75.29536,40.08189],[-75.29505,40.08221],[-75.2959,40.08271],[-75.29521,40.08334],[-75.29381,40.08255],[-75.29487,40.08152],[-75.28998,40.07857],[-75.29228,40.07622],[-75.29282,40.07549],[-75.29322,40.07542],[-75.29419,40.07444],[-75.29536,40.07278],[-75.29911,40.06983],[-75.29894,40.06943],[-75.30129,40.06899],[-75.30373,40.06887],[-75.30596,40.0691],[-75.30958,40.07044],[-75.31565,40.07462],[-75.31642,40.07583],[-75.31119,40.08105]]]}}]}