{"type":"FeatureCollection","features":[{"type":"Feature","properties":{"city":"NY","name":"Midtown Manhattan"},"geometry":{"type":"Polygon","coordinates":[[[-74.0048,40.75781],[-74.00528,40.75803],[-74.00503,40.75836],[-74.007,40.75923],[-74.00651,40.75989],[-74.0045,40.75908],[-74.00421,40.7595],[-74.00391,40.75938],[-74.00381,40.75951],[-74.00425,40.7597],[-74.00415,40.75984],[-74.00432,40.75991],[-74.00367,40.75971],[-74.00357,40.75985],[-74.00393,40.76],[-74.00313,40.76108],[-74.00279,40.76093],[-74.00234,40.76154],[-74.00456,40.76252],[-74.0044,40.76267],[-74.0022,40.76173],[-74.00179,40.76229],[-74.00153,40.76264],[-74.00376,40.76358],[-74.00361,40.76378],[-74.00139,40.76285],[-74.00097,40.76342],[-74.00315,40.76433],[-74.00295,40.76462],[-74.00322,40.76464],[-74.00316,40.76473],[-73.99993,40.76341],[-73.99962,40.76356],[-73.99915,40.76421],[-74.00227,40.76553],[-74.00206,40.76588],[-73.99888,40.76457],[-73.99858,40.765],[-73.99869,40.76521],[-73.99827,40.76555],[-74.00154,40.76694],[-74.00139,40.76723],[-73.99807,40.76587],[-73.99738,40.76682],[-74.00065,40.76825],[-74.00039,40.7685],[-73.99716,40.76713],[-73.99646,40.7681],[-73.99974,40.76951],[-73.99947,40.76976],[-73.99707,40.76873],[-73.99715,40.76885],[-73.99701,40.76903],[-73.99689,40.76898],[-73.99657,40.76942],[-73.99903,40.77046],[-73.99876,40.77083],[-73.99631,40.7698],[-73.99588,40.7704],[-73.99602,40.77045],[-73.9959,40.77061],[-73.99577,40.77055],[-73.99542,40.77103],[-73.996,40.77131],[-73.9959,40.77145],[-73.99531,40.7712],[-73.99493,40.77152],[-73.99498,40.77166],[-73.99707,40.77254],[-73.99687,40.77282],[-73.99477,40.77193],[-73.99445,40.77238],[-73.99623,40.77313],[-73.99612,40.77328],[-73.99416,40.77249],[-73.99383,40.77293],[-73.99414,40.7729],[-73.99438,40.77304],[-73.99429,40.77316],[-73.99502,40.77348],[-73.99505,40.7733],[-73.99624,40.77379],[-73.99606,40.77389],[-73.99614,40.77403],[-73.95877,40.75828],[-73.96066,40.75592],[-73.96163,40.75515],[-73.96532,40.75105],[-73.96837,40.74743],[-73.96823,40.74737],[-73.9683,40.74727],[-73.96988,40.74544],[-73.96997,40.7455],[-73.97079,40.74441],[-73.97094,40.74447],[-73.97111,40.7442],[-73.9707,40.74399],[-73.97118,40.7441],[-73.97136,40.74384],[-73.97121,40.74377],[-73.97169,40.74304],[-74.00547,40.75725],[-74.00521,40.75723],[-74.0048,40.75781]],[[-74.00104,40.76197],[-73.99831,40.76082],[-74.00142,40.76214],[-74.00104,40.76197]],[[-73.97996,40.74899],[-73.98026,40.74856],[-73.9795,40.7496],[-73.97996,40.74899]],[[-73.98195,40.76771],[-73.98185,40.76771],[-73.98211,40.76774],[-73.98206,40.76773],[-73.98195,40.76771]]]}},{"type":"Feature","properties":{"city":"NY","name":"Midtown East"},"geometry":{"type":"Polygon","coordinates":[[[-73.95877,40.75828],[-73.96066,40.75592],[-73.96163,40.75515],[-73.96532,40.75105],[-73.96837,40.74743],[-73.96823,40.74737],[-73.96877,40.74672],[-73.9786,40.75085],[-73.98183,40.7522],[-73.97301,40.76428],[-73.96657,40.76157],[-73.95877,40.75828]],[[-73.97815,40.75145],[-73.97807,40.75157],[-73.9786,40.75085],[-73.97815,40.75145]]]}},{"type":"Feature","properties":{"city":"NY","name":"Midtown West"},"geometry":{"type":"Polygon","coordinates":[[[-74.00528,40.75803],[-74.00503,40.75836],[-74.007,40.75923],[-74.00651,40.75989],[-74.0045,40.75908],[-74.00421,40.7595],[-74.00391,40.75938],[-74.00381,40.75951],[-74.00425,40.7597],[-74.00415,40.75984],[-74.00432,40.75991],[-74.00367,40.75971],[-74.00357,40.75985],[-74.00393,40.76],[-74.00313,40.76108],[-74.00279,40.76093],[-74.00234,40.76154],[-74.00456,40.76252],[-74.0044,40.76267],[-74.0022,40.76173],[-74.00179,40.76229],[-74.00153,40.76264],[-74.00376,40.76358],[-74.00361,40.76378],[-74.00139,40.76285],[-74.00097,40.76342],[-74.00315,40.76433],[-74.00295,40.76462],[-74.00322,40.76464],[-74.00315,40.76474],[-73.99993,40.76341],[-73.99962,40.76356],[-73.99915,40.76421],[-74.00229,40.76556],[-74.00202,40.76589],[-73.99888,40.76457],[-73.99858,40.765],[-73.99869,40.76521],[-73.99844,40.76532],[-73.99828,40.76557],[-74.00157,40.76698],[-74.00131,40.76725],[-73.99807,40.76587],[-73.99738,40.76682],[-74.00065,40.76825],[-74.00039,40.7685],[-73.99716,40.76713],[-73.99646,40.7681],[-73.99974,40.76951],[-73.99947,40.76976],[-73.99707,40.76873],[-73.99715,40.76885],[-73.99701,40.76903],[-73.99689,40.76898],[-73.99657,40.76942],[-73.99903,40.77046],[-73.99876,40.77083],[-73.99631,40.7698],[-73.99588,40.7704],[-73.99602,40.77045],[-73.9959,40.77061],[-73.99577,40.77055],[-73.99542,40.77103],[-73.996,40.77131],[-73.9959,40.77145],[-73.99531,40.7712],[-73.99493,40.77152],[-73.99498,40.77166],[-73.99707,40.77254],[-73.99687,40.77282],[-73.99477,40.77193],[-73.99445,40.77238],[-73.99623,40.77313],[-73.99612,40.77328],[-73.99416,40.77249],[-73.99383,40.77293],[-73.99414,40.7729],[-73.99438,40.77304],[-73.99429,40.77316],[-73.99502,40.77348],[-73.99505,40.7733],[-73.99624,40.77379],[-73.99606,40.77389],[-73.99614,40.77403],[-73.97301,40.76428],[-73.98456,40.74846],[-74.00547,40.75725],[-74.00521,40.75723],[-74.0048,40.75781],[-74.00528,40.75803]],[[-74.00104,40.76197],[-73.99831,40.76082],[-74.00142,40.76214],[-74.00104,40.76197]],[[-73.98206,40.76773],[-73.98201,40.76772],[-73.98195,40.76771],[-73.9819,40.76771],[-73.98211,40.76774],[-73.98206,40.76773]]]}},{"type":"Feature","properties":{"city":"NY","name":"Hudson Yards"},"geometry":{"type":"Polygon","coordinates":[[[-74.00542,40.75732],[-74.00521,40.75723],[-74.0048,40.75781],[-74.00528,40.75803],[-74.00503,40.75836],[-74.007,40.75923],[-74.00648,40.75989],[-74.0045,40.75908],[-74.00421,40.7595],[-74.00391,40.75938],[-74.00381,40.75951],[-74.00425,40.7597],[-74.00415,40.75984],[-74.00432,40.75991],[-74.00367,40.75971],[-74.00357,40.75985],[-74.00393,40.76],[-74.00313,40.76108],[-74.00279,40.76093],[-74.00234,40.76154],[-74.00455,40.76249],[-74.00452,40.76257],[-73.99027,40.75658],[-73.9905,40.75626],[-73.99073,40.75595],[-73.99095,40.75564],[-73.99163,40.75471],[-73.99526,40.74972],[-74.00737,40.75486],[-74.00696,40.75518],[-74.00542,40.75732]]]}},{"type":"Feature","properties":{"city":"NY","name":"Flatiron / NoMad"},"geometry":{"type":"Polygon","coordinates":[[[-73.98958,40.74731],[-73.98317,40.74458],[-73.98858,40.73715],[-73.99502,40.73986],[-73.98958,40.74731]]]}},{"type":"Feature","properties":{"city":"NY","name":"Union Square"},"geometry":{"type":"Polygon","coordinates":[[[-73.98987,40.73353],[-73.99414,40.73532],[-73.99181,40.73851],[-73.98537,40.7358],[-73.98769,40.73261],[-73.98987,40.73352],[-73.98987,40.73353]],[[-73.98985,40.7341],[-73.98984,40.73387],[-73.98984,40.73398],[-73.98985,40.7341]]]}},{"type":"Feature","properties":{"city":"NY","name":"Financial District (FiDi)"},"geometry":{"type":"Polygon","coordinates":[[[-74.00861,40.71137],[-74.00536,40.71215],[-74.00366,40.71149],[-73.9991,40.70797],[-74.00119,40.70686],[-74.00123,40.70674],[-74.00098,40.70642],[-74.00141,40.70618],[-74.00058,40.70543],[-74.00144,40.70487],[-74.00206,40.70542],[-74.00257,40.70552],[-74.00269,40.70545],[-74.00197,40.70474],[-74.00217,40.70461],[-74.00233,40.70475],[-74.00243,40.70468],[-74.00239,40.7048],[-74.00332,40.70563],[-74.00363,40.70543],[-74.00288,40.70483],[-74.00297,40.70477],[-74.00364,40.70542],[-74.00383,40.7053],[-74.00395,40.7054],[-74.00438,40.70511],[-74.00427,40.70501],[-74.00459,40.70479],[-74.0035,40.7038],[-74.00372,40.70365],[-74.00481,40.70464],[-74.00519,40.70442],[-74.00493,40.70421],[-74.005,40.70417],[-74.00521,40.70441],[-74.00535,40.70431],[-74.00416,40.70323],[-74.00412,40.70311],[-74.00427,40.70302],[-74.00566,40.7041],[-74.00602,40.70387],[-74.00614,40.70398],[-74.0066,40.70369],[-74.0053,40.70256],[-74.00549,40.70243],[-74.00561,40.70253],[-74.00554,40.70265],[-74.00568,40.70258],[-74.00679,40.70357],[-74.00753,40.70311],[-74.00771,40.70288],[-74.00931,40.70195],[-74.0087,40.70114],[-74.00776,40.70155],[-74.00759,40.70133],[-74.00854,40.70092],[-74.00835,40.70067],[-74.00862,40.70055],[-74.0096,40.70187],[-74.01117,40.70148],[-74.0111,40.70127],[-74.01129,40.70125],[-74.01082,40.7002],[-74.01115,40.7009],[-74.01136,40.70085],[-74.01133,40.70057],[-74.0115,40.70082],[-74.01173,40.70077],[-74.01163,40.70046],[-74.01185,40.70074],[-74.01209,40.70068],[-74.01186,40.70011],[-74.01196,40.70004],[-74.01239,40.70062],[-74.01259,40.70057],[-74.01252,40.70015],[-74.01261,40.70011],[-74.01291,40.70052],[-74.01311,40.70051],[-74.01301,40.69982],[-74.01311,40.69977],[-74.01327,40.7005],[-74.01349,40.70048],[-74.01353,40.70011],[-74.01367,40.70013],[-74.01353,40.70031],[-74.01356,40.70094],[-74.01396,40.70097],[-74.01513,40.70139],[-74.01617,40.70257],[-74.01654,40.70473],[-74.01426,40.71093],[-74.01375,40.71369],[-74.00861,40.71137]]]}},{"type":"Feature","properties":{"city":"NY","name":"Chelsea"},"geometry":{"type":"Polygon","coordinates":[[[-73.98793,40.74985],[-73.98797,40.74947],[-73.99421,40.74101],[-73.98978,40.73917],[-73.99037,40.7371],[-73.99172,40.73525],[-74.00916,40.74251],[-74.00909,40.74289],[-74.00962,40.74295],[-74.00957,40.74326],[-74.01214,40.74353],[-74.01202,40.74394],[-74.00951,40.74368],[-74.00944,40.74397],[-74.0089,40.74392],[-74.00873,40.74488],[-74.00961,40.745],[-74.00956,40.74529],[-74.00992,40.74533],[-74.01,40.74496],[-74.00987,40.74492],[-74.01017,40.74494],[-74.01004,40.74496],[-74.00997,40.74532],[-74.01047,40.74539],[-74.01055,40.74501],[-74.01042,40.74498],[-74.01076,40.74501],[-74.01059,40.74502],[-74.01055,40.74539],[-74.0111,40.74545],[-74.01117,40.74508],[-74.01104,40.74505],[-74.01139,40.74507],[-74.01123,40.74508],[-74.01115,40.74545],[-74.01174,40.74552],[-74.0118,40.74515],[-74.01167,40.74511],[-74.01184,40.74513],[-74.01168,40.74598],[-74.00946,40.74575],[-74.00937,40.74634],[-74.01153,40.74658],[-74.01153,40.74697],[-74.00924,40.74676],[-74.00914,40.74736],[-74.00996,40.74738],[-74.0099,40.74744],[-74.01141,40.74763],[-74.0113,40.74801],[-74.00906,40.74779],[-74.00895,40.74841],[-74.01122,40.74868],[-74.01111,40.74905],[-74.00995,40.74893],[-74.00956,40.74994],[-74.01081,40.75032],[-74.01076,40.75041],[-74.00925,40.74999],[-74.00912,40.75033],[-74.01067,40.75107],[-74.01059,40.75132],[-74.009,40.75065],[-74.00853,40.75188],[-74.01022,40.75255],[-74.01013,40.75267],[-74.00848,40.75202],[-74.00843,40.75216],[-74.00999,40.75282],[-74.00997,40.75293],[-74.00979,40.75295],[-74.00989,40.75281],[-74.00879,40.75235],[-74.00869,40.75249],[-74.00835,40.75235],[-74.00762,40.75428],[-74.00774,40.75434],[-74.0076,40.75453],[-74.00747,40.75448],[-74.00728,40.75474],[-74.00741,40.75479],[-74.00727,40.75499],[-74.00714,40.75493],[-74.00557,40.75712],[-74.00493,40.75702],[-73.99346,40.75219],[-73.98793,40.74985]]]}},{"type":"Feature","properties":{"city":"NY","name":"SoHo"},"geometry":{"type":"Polygon","coordinates":[[[-73.99763,40.72579],[-73.9954,40.725],[-73.99666,40.72347],[-73.99767,40.72082],[-73.99999,40.71798],[-74.0083,40.72398],[-74.01106,40.72574],[-74.01138,40.72428],[-74.01197,40.72433],[-74.01165,40.72587],[-74.0152,40.72636],[-74.01512,40.72679],[-74.01154,40.72645],[-74.01138,40.72823],[-74.0108,40.7282],[-74.01066,40.72983],[-74.00921,40.72971],[-74.00935,40.72899],[-74.00286,40.72835],[-73.99763,40.72579]]]}},{"type":"Feature","properties":{"city":"NY","name":"Downtown Brooklyn"},"geometry":{"type":"Polygon","coordinates":[[[-73.98559,40.69849],[-73.98054,40.69825],[-73.98051,40.6965],[-73.98242,40.69597],[-73.98263,40.69222],[-73.98088,40.68884],[-73.9799,40.68747],[-73.98585,40.6896],[-73.9862,40.689],[-73.99174,40.69099],[-73.99045,40.69373],[-73.99136,40.69701],[-73.99141,40.69863],[-73.99103,40.69985],[-73.99093,40.70077],[-73.99199,40.70161],[-73.99047,40.70169],[-73.98678,40.70112],[-73.98559,40.69849]]]}},{"type":"Feature","properties":{"city":"NY","name":"Long Island City (LIC)"},"geometry":{"type":"Polygon","coordinates":[[[-73.93664,40.7482],[-73.94033,40.74541],[-73.94343,40.74423],[-73.94401,40.74364],[-73.9442,40.74288],[-73.94032,40.7444],[-73.9377,40.74524],[-73.93726,40.74518],[-73.93868,40.73821],[-73.94146,40.73925],[-73.94051,40.74011],[-73.94036,40.74034],[-73.94056,40.74042],[-73.93911,40.74262],[-73.93867,40.74253],[-73.93859,40.74293],[-73.94002,40.74321],[-73.94015,40.74283],[-73.93965,40.74273],[-73.94119,40.74029],[-73.94159,40.73986],[-73.9426,40.7394],[-73.94279,40.73919],[-73.94271,40.73912],[-73.9429,40.739],[-73.94382,40.73887],[-73.94548,40.73821],[-73.94715,40.7379],[-73.95138,40.73934],[-73.95381,40.73982],[-73.95549,40.73978],[-73.95741,40.73956],[-73.95978,40.73851],[-73.96007,40.73848],[-73.96029,40.73824],[-73.96073,40.73808],[-73.96217,40.73827],[-73.96213,40.73845],[-73.96261,40.7388],[-73.96243,40.73967],[-73.96221,40.74001],[-73.96179,40.74001],[-73.96125,40.74042],[-73.96183,40.74063],[-73.96194,40.74079],[-73.9618,40.7411],[-73.96122,40.74111],[-73.96107,40.74169],[-73.96136,40.74184],[-73.96111,40.74183],[-73.96155,40.74199],[-73.96119,40.74264],[-73.9611,40.74278],[-73.96097,40.74275],[-73.96054,40.74347],[-73.95977,40.7435],[-73.95971,40.74386],[-73.96002,40.74392],[-73.95995,40.74378],[-73.96012,40.74394],[-73.96006,40.7438],[-73.96021,40.74398],[-73.96057,40.74403],[-73.96052,40.74411],[-73.95963,40.74393],[-73.95939,40.74428],[-73.95973,40.74427],[-73.96016,40.74437],[-73.96013,40.74444],[-73.95923,40.74431],[-73.95878,40.74456],[-73.95944,40.7446],[-73.95939,40.74471],[-73.95888,40.74462],[-73.95876,40.74495],[-73.95967,40.74517],[-73.95849,40.74499],[-73.95845,40.74512],[-73.95925,40.74532],[-73.95934,40.74551],[-73.95906,40.74575],[-73.9585,40.74576],[-73.9586,40.7459],[-73.95914,40.746],[-73.95872,40.74665],[-73.95841,40.74689],[-73.95831,40.74707],[-73.95845,40.7471],[-73.95704,40.74892],[-73.95485,40.74804],[-73.95415,40.74801],[-73.95436,40.74795],[-73.95318,40.74773],[-73.95305,40.74809],[-73.95478,40.74843],[-73.95632,40.74908],[-73.95601,40.74937],[-73.95622,40.74952],[-73.956,40.74938],[-73.95576,40.7496],[-73.9562,40.74969],[-73.95609,40.74977],[-73.95546,40.74967],[-73.95535,40.75001],[-73.95513,40.74993],[-73.9552,40.74968],[-73.95507,40.74963],[-73.95452,40.75059],[-73.95465,40.75083],[-73.9545,40.75123],[-73.95293,40.75276],[-73.95084,40.75522],[-73.94488,40.75261],[-73.94409,40.75228],[-73.94402,40.75235],[-73.93812,40.74983],[-73.93799,40.74969],[-73.93805,40.74945],[-73.93686,40.74842],[-73.93664,40.7482]]]}},{"type":"Feature","properties":{"city":"NY","name":"Hoboken, NJ"},"geometry":{"type":"Polygon","coordinates":[[[-74.03501,40.75495],[-74.03381,40.75722],[-74.03273,40.75867],[-74.0327,40.75887],[-74.03235,40.75887],[-74.03223,40.7591],[-74.03102,40.75882],[-74.02978,40.75873],[-74.02935,40.75809],[-74.02881,40.75822],[-74.02738,40.7573],[-74.02637,40.75741],[-74.02646,40.75717],[-74.02719,40.75727],[-74.0274,40.75649],[-74.02727,40.75634],[-74.02692,40.75633],[-74.02719,40.75549],[-74.02427,40.75497],[-74.02444,40.75442],[-74.02407,40.75436],[-74.02375,40.75531],[-74.02346,40.75527],[-74.0235,40.75477],[-74.0234,40.75466],[-74.02379,40.75431],[-74.02351,40.75427],[-74.02362,40.75385],[-74.02307,40.75364],[-74.02329,40.75287],[-74.0206,40.75239],[-74.02065,40.75229],[-74.02314,40.75274],[-74.02336,40.75265],[-74.02335,40.75244],[-74.02312,40.75228],[-74.0232,40.752],[-74.02076,40.75155],[-74.02081,40.75148],[-74.02315,40.75189],[-74.02344,40.7515],[-74.02331,40.75135],[-74.02089,40.75086],[-74.02351,40.7513],[-74.02362,40.75095],[-74.02098,40.75041],[-74.02103,40.75032],[-74.02367,40.75079],[-74.02373,40.75058],[-74.02173,40.75022],[-74.02179,40.75005],[-74.02348,40.75034],[-74.02354,40.75015],[-74.02326,40.75015],[-74.02353,40.74926],[-74.02246,40.749],[-74.02229,40.74886],[-74.02248,40.74845],[-74.02346,40.74848],[-74.02363,40.7482],[-74.0235,40.74789],[-74.02295,40.74729],[-74.02263,40.74659],[-74.02255,40.74529],[-74.02286,40.74442],[-74.02336,40.74375],[-74.02372,40.74382],[-74.02406,40.74313],[-74.02463,40.74315],[-74.02529,40.74141],[-74.02561,40.74147],[-74.0263,40.74101],[-74.0264,40.74066],[-74.02576,40.74064],[-74.02488,40.74039],[-74.02548,40.74043],[-74.02541,40.74012],[-74.02552,40.73986],[-74.02606,40.73968],[-74.0263,40.73984],[-74.02611,40.74],[-74.02613,40.74032],[-74.026,40.74052],[-74.02641,40.7406],[-74.02732,40.73755],[-74.0249,40.73709],[-74.0252,40.73625],[-74.02758,40.73667],[-74.02771,40.73622],[-74.02615,40.73582],[-74.02685,40.73465],[-74.02694,40.73469],[-74.02714,40.73437],[-74.02765,40.73432],[-74.02756,40.73412],[-74.02765,40.73403],[-74.02907,40.73409],[-74.02911,40.7338],[-74.02929,40.73363],[-74.03062,40.73372],[-74.03226,40.73437],[-74.03688,40.73582],[-74.03864,40.73656],[-74.04172,40.7361],[-74.04241,40.73624],[-74.04321,40.73652],[-74.04399,40.73773],[-74.04377,40.73818],[-74.04398,40.7394],[-74.04322,40.74036],[-74.04228,40.7412],[-74.04244,40.74286],[-74.04211,40.74368],[-74.04157,40.74452],[-74.03955,40.74697],[-74.03726,40.75121],[-74.03501,40.75495]]]}},{"type":"Feature","properties":{"city":"NY","name":"Newport, NJ"},"geometry":{"type":"Polygon","coordinates":[[[-74.03226,40.73437],[-74.03062,40.73372],[-74.03102,40.73367],[-74.03128,40.7338],[-74.03162,40.73376],[-74.03164,40.73365],[-74.03064,40.73348],[-74.03085,40.73156],[-74.03094,40.73156],[-74.03098,40.73128],[-74.028,40.73102],[-74.02814,40.73022],[-74.02731,40.72971],[-74.02754,40.72956],[-74.02906,40.73046],[-74.03079,40.73055],[-74.03127,40.73075],[-74.03136,40.73066],[-74.03096,40.73036],[-74.02977,40.72975],[-74.03062,40.72978],[-74.03115,40.73011],[-74.03122,40.72947],[-74.03095,40.72944],[-74.03094,40.72934],[-74.03111,40.72804],[-74.03025,40.72796],[-74.03043,40.72713],[-74.03034,40.72683],[-74.03007,40.72653],[-74.03012,40.72631],[-74.03035,40.72614],[-74.03131,40.72623],[-74.03256,40.72607],[-74.03446,40.72624],[-74.03454,40.72574],[-74.03206,40.72553],[-74.0321,40.72526],[-74.0338,40.72541],[-74.03378,40.72553],[-74.03456,40.7256],[-74.03461,40.72529],[-74.03382,40.72521],[-74.03386,40.725],[-74.02945,40.72462],[-74.02952,40.72396],[-74.02964,40.72382],[-74.03374,40.72414],[-74.03388,40.72405],[-74.03397,40.72284],[-74.03416,40.72266],[-74.03424,40.72214],[-74.03143,40.72189],[-74.03151,40.72131],[-74.04112,40.72224],[-74.03851,40.7365],[-74.03528,40.7353],[-74.03226,40.73437]]]}},{"type":"Feature","properties":{"city":"NY","name":"Exchange Place, NJ"},"geometry":{"type":"Polygon","coordinates":[[[-74.03133,40.72068],[-74.03148,40.72024],[-74.03255,40.72013],[-74.03211,40.71968],[-74.02927,40.71934],[-74.02938,40.71893],[-74.0325,40.71929],[-74.03247,40.71891],[-74.0326,40.71879],[-74.03285,40.71754],[-74.03277,40.71739],[-74.02994,40.71706],[-74.03001,40.71671],[-74.03208,40.71692],[-74.03218,40.71638],[-74.03129,40.71628],[-74.03147,40.71573],[-74.03173,40.71582],[-74.03171,40.71615],[-74.03262,40.71626],[-74.0328,40.71553],[-74.03294,40.71546],[-74.03316,40.71415],[-74.03298,40.7141],[-74.03294,40.71378],[-74.03186,40.71369],[-74.03196,40.71361],[-74.03193,40.71331],[-74.03215,40.71334],[-74.03201,40.71362],[-74.03261,40.71368],[-74.03264,40.71356],[-74.03295,40.71359],[-74.03293,40.71372],[-74.03303,40.71373],[-74.03326,40.71261],[-74.03811,40.71317],[-74.03638,40.72178],[-74.03151,40.72131],[-74.03153,40.72118],[-74.03136,40.72117],[-74.03133,40.72068]]]}},{"type":"Feature","properties":{"city":"NY","name":"Grove St, NJ"},"geometry":{"type":"Polygon","coordinates":[[[-74.05045,40.72595],[-74.0406,40.72508],[-74.04112,40.72224],[-74.03638,40.72178],[-74.03811,40.71317],[-74.05324,40.71492],[-74.05045,40.72595]]]}},{"type":"Feature","properties":{"city":"NY","name":"Journal Square (JSQ), NJ"},"geometry":{"type":"Polygon","coordinates":[[[-74.06519,40.72412],[-74.07545,40.72836],[-74.07004,40.73664],[-74.05923,40.73488],[-74.06519,40.72412]]]}},{"type":"Feature","properties":{"city":"LA","name":"Santa Monica"},"geometry":{"type":"Polygon","coordinates":[[[-118.48378,34.04143],[-118.48003,34.04446],[-118.48017,34.04453],[-118.47976,34.04471],[-118.47967,34.0452],[-118.47917,34.04512],[-118.47903,34.04569],[-118.47845,34.04563],[-118.47836,34.04627],[-118.4773,34.0467],[-118.47439,34.04421],[-118.47429,34.04432],[-118.47373,34.04404],[-118.47129,34.04195],[-118.47153,34.04175],[-118.45919,34.03133],[-118.45763,34.03166],[-118.45708,34.0298],[-118.45292,34.02804],[-118.44594,34.01942],[-118.44344,34.01663],[-118.45595,34.01003],[-118.456,34.00988],[-118.45699,34.00966],[-118.45712,34.00944],[-118.45786,34.00904],[-118.47993,33.99736],[-118.48142,33.99631],[-118.48169,33.9966],[-118.48349,33.99542],[-118.4828,33.99472],[-118.48354,33.99431],[-118.48384,33.99501],[-118.48499,33.99462],[-118.48632,33.99381],[-118.48432,33.99631],[-118.48512,33.99711],[-118.48422,33.99771],[-118.49276,34.00584],[-118.49663,34.00891],[-118.49803,34.00781],[-118.49843,34.00841],[-118.49963,34.00741],[-118.49993,34.00771],[-118.49743,34.00951],[-118.50281,34.01549],[-118.50916,34.02084],[-118.51675,34.02573],[-118.51609,34.02627],[-118.51555,34.02623],[-118.515,34.02755],[-118.51265,34.02993],[-118.51071,34.03142],[-118.50949,34.03271],[-118.50868,34.03298],[-118.50881,34.03336],[-118.50872,34.03397],[-118.5077,34.03627],[-118.5081,34.0381],[-118.50823,34.0381],[-118.50828,34.03835],[-118.50813,34.03908],[-118.50836,34.03916],[-118.50811,34.03913],[-118.50757,34.04007],[-118.50661,34.04059],[-118.50459,34.0413],[-118.50398,34.04073],[-118.49542,34.04959],[-118.49487,34.05035],[-118.49465,34.05017],[-118.49448,34.05056],[-118.49435,34.05045],[-118.48378,34.04143]]]}},{"type":"Feature","properties":{"city":"LA","name":"Venice"},"geometry":{"type":"MultiPolygon","coordinates":[[[[-118.45843,33.96139],[-118.45878,33.96161],[-118.46012,33.96112],[-118.45231,33.96433],[-118.4579,33.96165],[-118.45843,33.96139]]],[[[-118.456,34.00988],[-118.44435,33.99464],[-118.44473,33.99438],[-118.44848,33.99336],[-118.44719,33.99076],[-118.44784,33.99044],[-118.44431,33.98674],[-118.44162,33.98338],[-118.44831,33.98467],[-118.45506,33.98642],[-118.46349,33.98105],[-118.46199,33.97937],[-118.46181,33.97828],[-118.46143,33.97836],[-118.45761,33.97373],[-118.45749,33.97379],[-118.45495,33.9704],[-118.45454,33.96984],[-118.45477,33.96968],[-118.45305,33.96682],[-118.45509,33.96605],[-118.45512,33.96591],[-118.45682,33.96518],[-118.4618,33.9634],[-118.45872,33.96502],[-118.46061,33.96913],[-118.47233,33.98397],[-118.47405,33.98546],[-118.47605,33.98595],[-118.47666,33.98755],[-118.48264,33.99481],[-118.4828,33.99472],[-118.48349,33.99542],[-118.48169,33.9966],[-118.48142,33.99631],[-118.47993,33.99736],[-118.45786,34.00904],[-118.45712,34.00944],[-118.45699,34.00966],[-118.45614,34.00989],[-118.456,34.00988]]]]}},{"type":"Feature","properties":{"city":"LA","name":"Marina del Rey"},"geometry":{"type":"Polygon","coordinates":[[[-118.44162,33.98338],[-118.44041,33.98194],[-118.43874,33.98032],[-118.43656,33.97851],[-118.43357,33.97648],[-118.43227,33.97502],[-118.45131,33.96424],[-118.4516,33.96466],[-118.44652,33.96773],[-118.44652,33.97442],[-118.44123,33.97702],[-118.44193,33.97802],[-118.44652,33.97592],[-118.44642,33.97732],[-118.44132,33.97982],[-118.44222,33.98122],[-118.44642,33.97922],[-118.44642,33.98032],[-118.44272,33.98212],[-118.44442,33.98282],[-118.44642,33.98172],[-118.44642,33.98312],[-118.45622,33.98352],[-118.45652,33.98292],[-118.45522,33.98212],[-118.44972,33.98212],[-118.44982,33.98122],[-118.45572,33.98122],[-118.45752,33.98222],[-118.45812,33.98162],[-118.45752,33.98002],[-118.44972,33.97952],[-118.44982,33.97852],[-118.45752,33.97902],[-118.45752,33.97742],[-118.44972,33.97682],[-118.44972,33.97592],[-118.45762,33.97642],[-118.45652,33.97422],[-118.44972,33.97422],[-118.44972,33.97332],[-118.45612,33.97322],[-118.45492,33.97162],[-118.44982,33.97162],[-118.44972,33.97122],[-118.44985,33.96988],[-118.45129,33.96788],[-118.45305,33.96682],[-118.45477,33.96968],[-118.45454,33.96984],[-118.45495,33.9704],[-118.45749,33.97379],[-118.45761,33.97373],[-118.46143,33.97836],[-118.46181,33.97828],[-118.46199,33.97937],[-118.46349,33.98105],[-118.45506,33.98642],[-118.44831,33.98467],[-118.44253,33.98356],[-118.44162,33.98338]]]}},{"type":"Feature","properties":{"city":"LA","name":"Playa Vista"},"geometry":{"type":"Polygon","coordinates":[[[-118.40125,33.98639],[-118.39899,33.98782],[-118.39846,33.98778],[-118.39586,33.98492],[-118.39569,33.98437],[-118.3951,33.98382],[-118.39848,33.98318],[-118.39758,33.98219],[-118.39765,33.9821],[-118.39924,33.9828],[-118.40163,33.98229],[-118.4045,33.97722],[-118.40478,33.97696],[-118.41162,33.9753],[-118.41892,33.97232],[-118.41892,33.97212],[-118.42269,33.97001],[-118.42354,33.96699],[-118.42548,33.96564],[-118.42613,33.96599],[-118.42666,33.96652],[-118.43227,33.97502],[-118.42836,33.97737],[-118.42321,33.98078],[-118.42067,33.98112],[-118.41921,33.98166],[-118.41402,33.98545],[-118.41383,33.9853],[-118.41206,33.9866],[-118.4103,33.98748],[-118.40743,33.98817],[-118.40408,33.98811],[-118.40211,33.98691],[-118.40125,33.98639]]]}},{"type":"Feature","properties":{"city":"LA","name":"Westwood"},"geometry":{"type":"Polygon","coordinates":[[[-118.42857,34.0794],[-118.42783,34.08044],[-118.42709,34.08077],[-118.4254,34.08084],[-118.42304,34.07994],[-118.42384,34.07974],[-118.42349,34.07882],[-118.42364,34.07877],[-118.42331,34.07757],[-118.42278,34.07705],[-118.4233,34.07569],[-118.42256,34.07528],[-118.42185,34.0751],[-118.42094,34.07543],[-118.41965,34.07266],[-118.41847,34.07237],[-118.41739,34.07021],[-118.41638,34.06884],[-118.41727,34.06839],[-118.41436,34.06433],[-118.43414,34.05076],[-118.44431,34.04763],[-118.4491,34.05336],[-118.44579,34.05533],[-118.44564,34.0553],[-118.45014,34.06078],[-118.45405,34.06505],[-118.45455,34.06592],[-118.45469,34.0668],[-118.45999,34.06537],[-118.46045,34.06589],[-118.46071,34.06581],[-118.46176,34.067],[-118.46154,34.06712],[-118.46651,34.07286],[-118.46612,34.07306],[-118.46636,34.07334],[-118.46405,34.07404],[-118.46343,34.07393],[-118.46225,34.07311],[-118.46101,34.07314],[-118.45919,34.07439],[-118.45874,34.07446],[-118.45777,34.07429],[-118.45721,34.07446],[-118.45434,34.07682],[-118.45373,34.07701],[-118.45326,34.07692],[-118.45047,34.07558],[-118.44995,34.07507],[-118.44914,34.07379],[-118.44872,34.07352],[-118.44559,34.07365],[-118.44499,34.07414],[-118.44451,34.07628],[-118.44417,34.07679],[-118.44283,34.07741],[-118.44097,34.07749],[-118.44015,34.07777],[-118.43684,34.08014],[-118.43532,34.08081],[-118.43485,34.08228],[-118.43413,34.08274],[-118.43238,34.08256],[-118.43186,34.08232],[-118.43096,34.08142],[-118.43022,34.07963],[-118.42938,34.0792],[-118.42857,34.0794]]]}},{"type":"Feature","properties":{"city":"LA","name":"Brentwood"},"geometry":{"type":"Polygon","coordinates":[[[-118.48975,34.13043],[-118.48915,34.13016],[-118.48515,34.12993],[-118.48469,34.13001],[-118.48406,34.13044],[-118.48266,34.13058],[-118.48167,34.13023],[-118.48113,34.12982],[-118.48053,34.12986],[-118.47956,34.12937],[-118.47927,34.12887],[-118.47911,34.12718],[-118.47846,34.12644],[-118.47759,34.1262],[-118.47568,34.12635],[-118.47767,34.12355],[-118.47843,34.12261],[-118.47864,34.1227],[-118.48096,34.11982],[-118.48158,34.1188],[-118.48192,34.11752],[-118.48226,34.11237],[-118.48211,34.1113],[-118.48181,34.11053],[-118.48162,34.11063],[-118.47803,34.10563],[-118.47734,34.10416],[-118.47724,34.10254],[-118.4779,34.10006],[-118.47789,34.09879],[-118.47761,34.0978],[-118.47689,34.09656],[-118.47557,34.09624],[-118.47501,34.09557],[-118.47497,34.09538],[-118.47547,34.09516],[-118.47574,34.09476],[-118.47569,34.09214],[-118.47591,34.09203],[-118.47543,34.0886],[-118.47482,34.08866],[-118.47426,34.08457],[-118.47374,34.08274],[-118.47296,34.08135],[-118.4718,34.07984],[-118.46903,34.07733],[-118.46843,34.07576],[-118.46612,34.07306],[-118.46651,34.07286],[-118.46154,34.06712],[-118.46176,34.067],[-118.46071,34.06581],[-118.46045,34.06589],[-118.45999,34.06537],[-118.45964,34.06545],[-118.45517,34.06025],[-118.45879,34.05808],[-118.46111,34.06005],[-118.46283,34.06311],[-118.46321,34.06507],[-118.46535,34.06699],[-118.46674,34.06771],[-118.46891,34.06588],[-118.46797,34.06091],[-118.45923,34.05079],[-118.47097,34.04128],[-118.47153,34.04175],[-118.47129,34.04195],[-118.47373,34.04404],[-118.47429,34.04432],[-118.47439,34.04421],[-118.4773,34.0467],[-118.47836,34.04627],[-118.47845,34.04563],[-118.47903,34.04569],[-118.47917,34.04512],[-118.47967,34.0452],[-118.47976,34.04471],[-118.48017,34.04453],[-118.48003,34.04446],[-118.48378,34.04143],[-118.49387,34.05005],[-118.49284,34.05231],[-118.49253,34.05351],[-118.49246,34.05446],[-118.49261,34.05514],[-118.49312,34.05612],[-118.49318,34.05689],[-118.49308,34.05751],[-118.49267,34.05819],[-118.49335,34.05872],[-118.49354,34.06008],[-118.49427,34.06053],[-118.49498,34.06046],[-118.49551,34.05998],[-118.49608,34.05663],[-118.49639,34.05608],[-118.49871,34.05461],[-118.4994,34.05347],[-118.49991,34.05299],[-118.50045,34.05283],[-118.50182,34.05296],[-118.50256,34.05287],[-118.50379,34.05225],[-118.50466,34.05139],[-118.50824,34.04655],[-118.50903,34.04623],[-118.50986,34.04647],[-118.51017,34.04685],[-118.51021,34.04735],[-118.50932,34.04877],[-118.50918,34.04985],[-118.50981,34.05084],[-118.51031,34.0511],[-118.50971,34.05178],[-118.50792,34.0528],[-118.50762,34.0539],[-118.50638,34.05612],[-118.50659,34.05843],[-118.50632,34.05914],[-118.50636,34.05969],[-118.50732,34.06011],[-118.50707,34.06097],[-118.50636,34.06228],[-118.50637,34.06323],[-118.50664,34.06389],[-118.50712,34.06449],[-118.50955,34.0661],[-118.5127,34.06769],[-118.51298,34.06853],[-118.51434,34.06962],[-118.51623,34.07145],[-118.51684,34.073],[-118.51668,34.07347],[-118.51611,34.07409],[-118.51606,34.07448],[-118.51625,34.07504],[-118.51662,34.07532],[-118.51752,34.07543],[-118.51777,34.07562],[-118.51793,34.076],[-118.51783,34.07673],[-118.5182,34.07738],[-118.51911,34.0782],[-118.51883,34.07897],[-118.51915,34.07995],[-118.51961,34.08067],[-118.52088,34.0816],[-118.52009,34.08159],[-118.51966,34.08128],[-118.51877,34.08107],[-118.51861,34.08072],[-118.51845,34.08107],[-118.51917,34.08169],[-118.51912,34.08226],[-118.51971,34.08237],[-118.51975,34.08253],[-118.51889,34.08249],[-118.51866,34.08234],[-118.51857,34.08196],[-118.51843,34.08239],[-118.51865,34.08291],[-118.51923,34.08324],[-118.51905,34.0833],[-118.51809,34.08288],[-118.51803,34.0832],[-118.5187,34.08443],[-118.51959,34.08681],[-118.5213,34.08916],[-118.52129,34.08971],[-118.52164,34.09067],[-118.52255,34.09181],[-118.52274,34.09267],[-118.52201,34.09384],[-118.5223,34.09451],[-118.52226,34.09526],[-118.52295,34.09738],[-118.52295,34.09821],[-118.52345,34.09897],[-118.52336,34.09992],[-118.52371,34.10062],[-118.52372,34.10156],[-118.52397,34.10188],[-118.52399,34.10275],[-118.52422,34.10352],[-118.52525,34.10501],[-118.52533,34.10563],[-118.52566,34.10588],[-118.52586,34.10631],[-118.5258,34.1067],[-118.5253,34.10759],[-118.52523,34.10839],[-118.5259,34.10933],[-118.52571,34.11053],[-118.52603,34.11109],[-118.52592,34.11154],[-118.52619,34.11226],[-118.52595,34.11306],[-118.52612,34.11362],[-118.52593,34.11486],[-118.52633,34.11571],[-118.52628,34.11627],[-118.52647,34.11664],[-118.52648,34.11724],[-118.52689,34.11802],[-118.52637,34.11859],[-118.52707,34.11875],[-118.52749,34.11902],[-118.52763,34.12036],[-118.5287,34.12174],[-118.52862,34.12238],[-118.52802,34.12306],[-118.52817,34.12344],[-118.52801,34.12381],[-118.52796,34.12487],[-118.52753,34.1252],[-118.52735,34.12561],[-118.52702,34.12704],[-118.52711,34.12786],[-118.52696,34.12824],[-118.52646,34.12863],[-118.52545,34.1285],[-118.52479,34.12865],[-118.52275,34.12837],[-118.52183,34.128],[-118.52073,34.12875],[-118.51966,34.12876],[-118.51887,34.12908],[-118.51796,34.12882],[-118.51677,34.12895],[-118.51627,34.1288],[-118.51301,34.12904],[-118.51115,34.12985],[-118.51042,34.13063],[-118.50953,34.13067],[-118.50853,34.13113],[-118.5073,34.13027],[-118.50721,34.12981],[-118.50687,34.1293],[-118.50506,34.12863],[-118.50443,34.12785],[-118.50378,34.1277],[-118.50285,34.12821],[-118.5028,34.12851],[-118.50306,34.12929],[-118.50234,34.13049],[-118.50202,34.13043],[-118.50191,34.13021],[-118.50246,34.12974],[-118.50243,34.12933],[-118.50117,34.12903],[-118.49985,34.12976],[-118.4992,34.12978],[-118.49846,34.13011],[-118.49771,34.13019],[-118.49696,34.13065],[-118.49646,34.13061],[-118.49583,34.13009],[-118.49529,34.12995],[-118.49428,34.13021],[-118.49269,34.13112],[-118.49149,34.13094],[-118.49059,34.13122],[-118.49014,34.13096],[-118.48975,34.13043]]]}},{"type":"Feature","properties":{"city":"LA","name":"Culver City"},"geometry":{"type":"Polygon","coordinates":[[[-118.37191,34.02993],[-118.37366,34.03043],[-118.37558,34.0291],[-118.37654,34.02663],[-118.37666,34.02601],[-118.37638,34.02585],[-118.37671,34.02399],[-118.37697,34.02375],[-118.37746,34.02271],[-118.37824,34.022],[-118.37796,34.02197],[-118.37796,34.02139],[-118.37841,34.02132],[-118.37835,34.02119],[-118.38136,34.02069],[-118.3809,34.02013],[-118.37877,34.01873],[-118.37799,34.01802],[-118.37587,34.01805],[-118.3759,34.01852],[-118.37283,34.01837],[-118.37264,34.01848],[-118.37375,34.01638],[-118.37408,34.01514],[-118.37394,34.01387],[-118.37311,34.01192],[-118.37902,34.01171],[-118.37963,34.01151],[-118.38523,34.01261],[-118.38734,34.00969],[-118.3906,34.00253],[-118.3904,34.00245],[-118.39075,34.00202],[-118.39018,34.00177],[-118.39062,34.00173],[-118.39079,34.0015],[-118.38273,34.00041],[-118.38404,33.99626],[-118.38514,33.99651],[-118.38607,33.99349],[-118.38362,33.99217],[-118.38802,33.98892],[-118.38222,33.98896],[-118.38212,33.99112],[-118.37892,33.99272],[-118.37866,33.98899],[-118.37885,33.98852],[-118.38452,33.97847],[-118.38566,33.97857],[-118.38667,33.97691],[-118.39766,33.98207],[-118.39758,33.98219],[-118.39848,33.98318],[-118.3951,33.98382],[-118.39569,33.98437],[-118.39586,33.98492],[-118.39846,33.98778],[-118.39899,33.98782],[-118.40125,33.98639],[-118.40622,33.98941],[-118.40516,33.99051],[-118.40787,33.99212],[-118.40588,33.99328],[-118.4042,33.99506],[-118.40374,33.99533],[-118.40312,33.99617],[-118.40113,33.99986],[-118.40126,33.99987],[-118.40077,34.00122],[-118.40068,34.00143],[-118.40044,34.00144],[-118.40019,34.00204],[-118.40278,34.00347],[-118.4059,33.99924],[-118.40909,34.00122],[-118.40966,34.0005],[-118.41424,34.00344],[-118.41437,34.00367],[-118.41607,34.0005],[-118.41807,33.99921],[-118.41903,33.99804],[-118.41969,33.99761],[-118.42845,33.99656],[-118.43111,33.99639],[-118.43019,33.99013],[-118.42973,33.98976],[-118.43089,33.9892],[-118.43248,33.99146],[-118.43719,33.99528],[-118.44704,33.99052],[-118.44719,33.99076],[-118.44848,33.99336],[-118.44473,33.99438],[-118.44336,33.99532],[-118.44247,33.9936],[-118.43582,33.99692],[-118.43532,33.9969],[-118.43034,33.99945],[-118.43085,34.00011],[-118.4285,34.00135],[-118.42599,33.99807],[-118.42041,33.99869],[-118.41919,34.00004],[-118.41825,34.00062],[-118.42126,34.00443],[-118.41736,34.00675],[-118.41924,34.00911],[-118.4201,34.00865],[-118.42142,34.01033],[-118.40688,34.01858],[-118.40547,34.01686],[-118.40049,34.0199],[-118.4013,34.02109],[-118.40062,34.02148],[-118.40026,34.02086],[-118.3995,34.0213],[-118.39911,34.02079],[-118.39881,34.02087],[-118.39747,34.02167],[-118.39836,34.02292],[-118.3941,34.02531],[-118.39421,34.02556],[-118.39395,34.02571],[-118.39346,34.02538],[-118.39335,34.02552],[-118.39325,34.02531],[-118.39304,34.02561],[-118.39294,34.02553],[-118.39263,34.02628],[-118.38718,34.0294],[-118.38681,34.02913],[-118.38667,34.02921],[-118.38641,34.02891],[-118.38422,34.03022],[-118.37593,34.03242],[-118.36959,34.03508],[-118.37158,34.03067],[-118.37191,34.02993]],[[-118.37865,34.02181],[-118.37831,34.02201],[-118.37876,34.02205],[-118.37865,34.02181]]]}},{"type":"Feature","properties":{"city":"LA","name":"Century City"},"geometry":{"type":"Polygon","coordinates":[[[-118.41222,34.06011],[-118.41156,34.06043],[-118.40604,34.05267],[-118.41708,34.0463],[-118.42144,34.05137],[-118.42157,34.0525],[-118.42283,34.05343],[-118.42339,34.05648],[-118.42419,34.05757],[-118.41436,34.06433],[-118.41353,34.06317],[-118.41418,34.06285],[-118.41222,34.06011]]]}},{"type":"Feature","properties":{"city":"LA","name":"Beverly Hills"},"geometry":{"type":"Polygon","coordinates":[[[-118.39059,34.10921],[-118.39121,34.10737],[-118.39214,34.10632],[-118.3921,34.09906],[-118.3926,34.09867],[-118.39257,34.0985],[-118.39542,34.09618],[-118.39652,34.09619],[-118.39652,34.09507],[-118.39617,34.09517],[-118.39593,34.09502],[-118.39586,34.09059],[-118.39453,34.09058],[-118.3936,34.08964],[-118.38977,34.0885],[-118.38975,34.07649],[-118.39073,34.07651],[-118.39072,34.07209],[-118.38378,34.07213],[-118.38374,34.06969],[-118.37742,34.06971],[-118.37739,34.06933],[-118.37633,34.06934],[-118.37636,34.06958],[-118.37605,34.06958],[-118.37605,34.06981],[-118.37577,34.0701],[-118.37303,34.0654],[-118.37204,34.06419],[-118.37227,34.06425],[-118.37204,34.06387],[-118.37226,34.0622],[-118.37601,34.05997],[-118.37602,34.05962],[-118.37619,34.05947],[-118.37728,34.05939],[-118.37734,34.06296],[-118.38355,34.06294],[-118.38368,34.0571],[-118.39973,34.0571],[-118.40006,34.05686],[-118.40029,34.0571],[-118.4008,34.05687],[-118.40092,34.057],[-118.40076,34.0571],[-118.40128,34.0571],[-118.4016,34.05692],[-118.40169,34.05703],[-118.40157,34.0571],[-118.40189,34.0571],[-118.40228,34.05689],[-118.40238,34.057],[-118.4022,34.0571],[-118.40248,34.0571],[-118.40278,34.05689],[-118.40294,34.05706],[-118.40327,34.05684],[-118.40347,34.05703],[-118.40401,34.05711],[-118.40593,34.05711],[-118.40594,34.05483],[-118.40546,34.05487],[-118.4053,34.05441],[-118.40557,34.05432],[-118.40557,34.05415],[-118.40613,34.05415],[-118.4055,34.05285],[-118.40604,34.05267],[-118.41156,34.06043],[-118.41222,34.06011],[-118.41418,34.06285],[-118.41353,34.06317],[-118.41727,34.06839],[-118.41638,34.06884],[-118.41739,34.07021],[-118.41847,34.07237],[-118.41965,34.07266],[-118.42094,34.07543],[-118.42185,34.0751],[-118.42256,34.07528],[-118.4233,34.07569],[-118.42278,34.07705],[-118.42331,34.07757],[-118.42364,34.07877],[-118.42349,34.07882],[-118.42384,34.07974],[-118.42266,34.08001],[-118.42279,34.0831],[-118.42697,34.08305],[-118.42705,34.09064],[-118.42416,34.09064],[-118.42411,34.09045],[-118.42375,34.0904],[-118.42297,34.09064],[-118.4227,34.09057],[-118.42275,34.09432],[-118.41395,34.09427],[-118.41262,34.09292],[-118.41198,34.09248],[-118.4119,34.09225],[-118.41148,34.0935],[-118.40945,34.09486],[-118.4092,34.09554],[-118.40951,34.09615],[-118.40907,34.09657],[-118.4089,34.09712],[-118.40865,34.09715],[-118.40908,34.09756],[-118.4088,34.09846],[-118.40902,34.09901],[-118.40907,34.10016],[-118.40862,34.10046],[-118.40871,34.10151],[-118.40542,34.10147],[-118.4052,34.09713],[-118.40533,34.0963],[-118.40243,34.09367],[-118.40208,34.0938],[-118.40169,34.09421],[-118.40141,34.09384],[-118.4009,34.094],[-118.40091,34.09513],[-118.40028,34.09558],[-118.40003,34.09598],[-118.40092,34.09631],[-118.40105,34.10875],[-118.39868,34.10876],[-118.40009,34.11094],[-118.39922,34.11149],[-118.39659,34.11165],[-118.3966,34.11242],[-118.39115,34.11243],[-118.39059,34.10921]]]}},{"type":"Feature","properties":{"city":"LA","name":"West Hollywood"},"geometry":{"type":"Polygon","coordinates":[[[-118.36818,34.09709],[-118.36735,34.0971],[-118.36735,34.09688],[-118.36673,34.09689],[-118.36673,34.09711],[-118.36166,34.09718],[-118.36155,34.09446],[-118.34339,34.09433],[-118.34341,34.0889],[-118.35281,34.08897],[-118.35281,34.08713],[-118.36271,34.0872],[-118.36272,34.08879],[-118.36328,34.08878],[-118.36328,34.08898],[-118.36646,34.08893],[-118.36644,34.08714],[-118.37025,34.08709],[-118.37024,34.08561],[-118.3725,34.08544],[-118.37251,34.09026],[-118.37425,34.08996],[-118.37424,34.08971],[-118.37477,34.0897],[-118.37477,34.08943],[-118.3752,34.08942],[-118.3754,34.08914],[-118.3763,34.08899],[-118.37696,34.08863],[-118.37705,34.08304],[-118.37031,34.08316],[-118.37031,34.08017],[-118.37422,34.08017],[-118.37421,34.08202],[-118.37526,34.08202],[-118.37528,34.08016],[-118.37726,34.08021],[-118.37691,34.07897],[-118.37758,34.07875],[-118.37723,34.07818],[-118.37718,34.0766],[-118.37866,34.07661],[-118.37881,34.07639],[-118.37978,34.07641],[-118.38069,34.07672],[-118.38171,34.07672],[-118.38171,34.0764],[-118.38975,34.07649],[-118.38977,34.0885],[-118.3936,34.08964],[-118.39453,34.09058],[-118.39586,34.09059],[-118.39586,34.09106],[-118.38605,34.09104],[-118.38595,34.09277],[-118.38572,34.09295],[-118.38554,34.09277],[-118.38554,34.09321],[-118.38505,34.09321],[-118.38505,34.09356],[-118.38447,34.09356],[-118.38439,34.09373],[-118.38338,34.09373],[-118.38338,34.09333],[-118.3812,34.09333],[-118.38119,34.09211],[-118.37931,34.09296],[-118.37659,34.09475],[-118.37275,34.09563],[-118.37159,34.09643],[-118.36981,34.09722],[-118.36875,34.09798],[-118.36821,34.09798],[-118.36818,34.09773],[-118.36818,34.09709]]]}},{"type":"Feature","properties":{"city":"LA","name":"Koreatown"},"geometry":{"type":"Polygon","coordinates":[[[-118.2868,34.06772],[-118.28709,34.06772],[-118.28704,34.06182],[-118.28785,34.06182],[-118.28783,34.05979],[-118.2891,34.05979],[-118.28908,34.05241],[-118.29091,34.05241],[-118.29244,34.05266],[-118.31288,34.05263],[-118.31331,34.05282],[-118.31331,34.05261],[-118.31673,34.05251],[-118.31862,34.05306],[-118.32297,34.05469],[-118.3191,34.06173],[-118.3142,34.0617],[-118.31404,34.06254],[-118.31422,34.07114],[-118.31399,34.07153],[-118.31345,34.07179],[-118.31345,34.07272],[-118.31359,34.07291],[-118.3136,34.07624],[-118.28682,34.07634],[-118.28681,34.06899],[-118.2868,34.06772]]]}},{"type":"Feature","properties":{"city":"LA","name":"Silver Lake"},"geometry":{"type":"Polygon","coordinates":[[[-118.26354,34.11151],[-118.26267,34.11087],[-118.26096,34.1098],[-118.25941,34.10913],[-118.25665,34.10825],[-118.25637,34.10868],[-118.25502,34.10853],[-118.25342,34.10864],[-118.25656,34.10598],[-118.25593,34.10555],[-118.25371,34.10464],[-118.2515,34.10244],[-118.25061,34.10043],[-118.25184,34.09861],[-118.25165,34.09852],[-118.25532,34.09404],[-118.25554,34.09383],[-118.25572,34.09395],[-118.25847,34.09154],[-118.25853,34.091],[-118.2592,34.08979],[-118.25992,34.08578],[-118.26334,34.08726],[-118.26444,34.08546],[-118.26664,34.08646],[-118.26851,34.08367],[-118.27026,34.08065],[-118.27188,34.07908],[-118.27418,34.0753],[-118.28023,34.07695],[-118.28442,34.0779],[-118.2846,34.09582],[-118.27717,34.09578],[-118.2764,34.09611],[-118.27552,34.09744],[-118.27399,34.09884],[-118.27345,34.09983],[-118.27304,34.10245],[-118.27337,34.10406],[-118.27138,34.10923],[-118.26914,34.11164],[-118.26903,34.11155],[-118.26614,34.11275],[-118.26554,34.11351],[-118.26484,34.11282],[-118.26354,34.11151]]]}},{"type":"Feature","properties":{"city":"LA","name":"Los Feliz"},"geometry":{"type":"Polygon","coordinates":[[[-118.27177,34.1168],[-118.27169,34.11701],[-118.2704,34.11517],[-118.26822,34.11294],[-118.26728,34.11228],[-118.26903,34.11155],[-118.26914,34.11164],[-118.27138,34.10923],[-118.27337,34.10406],[-118.27304,34.10245],[-118.27353,34.09963],[-118.27413,34.09867],[-118.27552,34.09744],[-118.27622,34.0963],[-118.27667,34.09593],[-118.27717,34.09578],[-118.28414,34.09582],[-118.28622,34.09758],[-118.28711,34.09817],[-118.2874,34.09817],[-118.2874,34.09836],[-118.2922,34.10151],[-118.2928,34.10173],[-118.30927,34.10174],[-118.30931,34.10769],[-118.30766,34.10809],[-118.30798,34.10853],[-118.30736,34.10973],[-118.3072,34.11078],[-118.30752,34.11341],[-118.30662,34.11381],[-118.30367,34.11455],[-118.2992,34.11602],[-118.29581,34.11672],[-118.29246,34.11773],[-118.27669,34.11981],[-118.27425,34.11994],[-118.27322,34.11841],[-118.27177,34.1168]]]}},{"type":"Feature","properties":{"city":"LA","name":"Highland Park"},"geometry":{"type":"Polygon","coordinates":[[[-118.18744,34.12817],[-118.18557,34.12864],[-118.18546,34.12888],[-118.18281,34.12967],[-118.18259,34.12919],[-118.18135,34.1295],[-118.18145,34.1282],[-118.18091,34.12834],[-118.18021,34.12643],[-118.1786,34.12672],[-118.17769,34.12665],[-118.1778,34.12683],[-118.17655,34.12663],[-118.17697,34.12315],[-118.17282,34.12478],[-118.17245,34.12598],[-118.17132,34.12636],[-118.17055,34.12691],[-118.16978,34.12686],[-118.16911,34.1265],[-118.16723,34.12589],[-118.16588,34.12624],[-118.16567,34.12558],[-118.16639,34.12502],[-118.16723,34.12466],[-118.1678,34.12477],[-118.16847,34.12392],[-118.16807,34.12393],[-118.16805,34.12312],[-118.16753,34.12127],[-118.16762,34.12138],[-118.16783,34.12094],[-118.16809,34.12151],[-118.16822,34.12141],[-118.16785,34.1205],[-118.1689,34.11993],[-118.16901,34.11935],[-118.16885,34.11867],[-118.16888,34.11785],[-118.17277,34.11363],[-118.17499,34.11329],[-118.17327,34.11341],[-118.17371,34.1132],[-118.17547,34.11316],[-118.17564,34.11263],[-118.1762,34.11246],[-118.1774,34.11289],[-118.17845,34.11206],[-118.18045,34.11125],[-118.18033,34.11115],[-118.18118,34.11111],[-118.18298,34.11146],[-118.18445,34.11096],[-118.18481,34.11037],[-118.1851,34.10901],[-118.18562,34.10828],[-118.18723,34.10683],[-118.19221,34.10331],[-118.1936,34.1029],[-118.19644,34.103],[-118.19601,34.1026],[-118.19764,34.10251],[-118.20012,34.10148],[-118.2028,34.09903],[-118.20534,34.09517],[-118.20552,34.09524],[-118.20591,34.09465],[-118.20619,34.09389],[-118.20639,34.09195],[-118.20796,34.08949],[-118.21077,34.08705],[-118.21179,34.08658],[-118.21278,34.08642],[-118.21201,34.08813],[-118.21143,34.089],[-118.2111,34.09001],[-118.2111,34.09121],[-118.21146,34.09084],[-118.2116,34.09228],[-118.21155,34.09297],[-118.21128,34.09367],[-118.20968,34.09539],[-118.20849,34.09714],[-118.20584,34.09903],[-118.20513,34.10014],[-118.205,34.10095],[-118.20546,34.10512],[-118.20551,34.10541],[-118.2057,34.10539],[-118.20605,34.10588],[-118.20405,34.10687],[-118.20375,34.10719],[-118.20533,34.1094],[-118.20797,34.11258],[-118.20797,34.11309],[-118.20875,34.11405],[-118.21013,34.11496],[-118.21133,34.11542],[-118.21207,34.11592],[-118.21368,34.11629],[-118.21306,34.11712],[-118.21289,34.11771],[-118.21307,34.11884],[-118.21335,34.11937],[-118.21375,34.11994],[-118.21427,34.12033],[-118.21574,34.12074],[-118.21668,34.12084],[-118.21602,34.12323],[-118.20902,34.12189],[-118.2083,34.12447],[-118.20406,34.12366],[-118.20359,34.12533],[-118.20048,34.12474],[-118.20079,34.12523],[-118.20089,34.12616],[-118.20016,34.12723],[-118.19967,34.12693],[-118.19862,34.12718],[-118.1982,34.12645],[-118.19442,34.12656],[-118.19443,34.1271],[-118.19415,34.12765],[-118.19383,34.12962],[-118.19224,34.12991],[-118.19177,34.13039],[-118.19133,34.13056],[-118.19144,34.13107],[-118.1912,34.13123],[-118.19081,34.13136],[-118.19036,34.13115],[-118.1901,34.13119],[-118.1902,34.1314],[-118.18926,34.13209],[-118.18914,34.13184],[-118.18744,34.12817]]]}},{"type":"Feature","properties":{"city":"LA","name":"Eagle Rock"},"geometry":{"type":"Polygon","coordinates":[[[-118.19821,34.14905],[-118.18389,34.14909],[-118.18423,34.14628],[-118.18457,34.14541],[-118.18231,34.14374],[-118.18222,34.14307],[-118.18118,34.1422],[-118.18077,34.1413],[-118.18009,34.1411],[-118.18021,34.14082],[-118.18197,34.14064],[-118.18314,34.14026],[-118.18435,34.13941],[-118.18491,34.13956],[-118.1857,34.13904],[-118.18568,34.13886],[-118.18541,34.13885],[-118.18554,34.13857],[-118.18554,34.13734],[-118.18581,34.13737],[-118.1857,34.13667],[-118.1859,34.13648],[-118.1859,34.13619],[-118.18522,34.13607],[-118.18554,34.13473],[-118.18611,34.13374],[-118.18283,34.13122],[-118.18281,34.12967],[-118.18546,34.12888],[-118.18557,34.12864],[-118.18744,34.12817],[-118.18926,34.13209],[-118.1902,34.1314],[-118.1901,34.13119],[-118.1909,34.13136],[-118.19144,34.13107],[-118.19133,34.13056],[-118.19185,34.13034],[-118.19218,34.12994],[-118.19383,34.12962],[-118.19415,34.12765],[-118.19443,34.1271],[-118.19442,34.12656],[-118.1982,34.12645],[-118.19862,34.12718],[-118.19967,34.12693],[-118.20016,34.12723],[-118.20089,34.12616],[-118.20079,34.12523],[-118.20048,34.12474],[-118.20359,34.12533],[-118.20406,34.12366],[-118.2083,34.12447],[-118.20902,34.12189],[-118.21602,34.12323],[-118.21668,34.12084],[-118.21574,34.12074],[-118.21427,34.12033],[-118.21375,34.11994],[-118.21335,34.11937],[-118.21307,34.11884],[-118.21289,34.11771],[-118.21306,34.11712],[-118.21368,34.11629],[-118.21488,34.11656],[-118.21673,34.11747],[-118.21839,34.11779],[-118.22095,34.11975],[-118.22189,34.12085],[-118.22364,34.12147],[-118.22438,34.12232],[-118.22522,34.12191],[-118.226,34.12303],[-118.22607,34.12357],[-118.22681,34.12378],[-118.22761,34.1248],[-118.22846,34.12525],[-118.22841,34.1263],[-118.22969,34.13371],[-118.22958,34.13561],[-118.22776,34.13561],[-118.22789,34.13809],[-118.22916,34.13808],[-118.22917,34.13908],[-118.2288,34.13908],[-118.22879,34.14604],[-118.22859,34.14589],[-118.22825,34.14645],[-118.2287,34.14674],[-118.22861,34.14689],[-118.2281,34.14673],[-118.22746,34.14776],[-118.22702,34.14763],[-118.22695,34.14861],[-118.22624,34.14979],[-118.22498,34.14937],[-118.22247,34.14926],[-118.222,34.14886],[-118.21945,34.14828],[-118.21919,34.14752],[-118.21681,34.14753],[-118.21622,34.14723],[-118.21163,34.14718],[-118.21098,34.14622],[-118.20879,34.14651],[-118.20774,34.14725],[-118.20544,34.14744],[-118.20424,34.14928],[-118.20359,34.1497],[-118.20271,34.15064],[-118.19893,34.15116],[-118.1982,34.15163],[-118.19821,34.14905]]]}},{"type":"Feature","properties":{"city":"LA","name":"Pasadena"},"geometry":{"type":"MultiPolygon","coordinates":[[[[-118.18649,34.23747],[-118.18642,34.23357],[-118.18653,34.23326],[-118.18654,34.23086],[-118.1869,34.23081],[-118.18696,34.22717],[-118.18661,34.22716],[-118.18669,34.22316],[-118.18349,34.22311],[-118.18345,34.22241],[-118.17769,34.22246],[-118.17772,34.22202],[-118.17792,34.22216],[-118.1777,34.2219],[-118.17732,34.21541],[-118.17441,34.21509],[-118.17061,34.21531],[-118.17061,34.21543],[-118.16794,34.21537],[-118.16781,34.21515],[-118.16699,34.21547],[-118.16687,34.21532],[-118.16343,34.21524],[-118.16423,34.21454],[-118.16474,34.2138],[-118.16495,34.21328],[-118.16478,34.21304],[-118.16527,34.21251],[-118.165,34.21218],[-118.16536,34.21241],[-118.16596,34.21177],[-118.16726,34.21176],[-118.16716,34.21119],[-118.16606,34.21002],[-118.16605,34.20808],[-118.16557,34.20807],[-118.16567,34.20725],[-118.16377,34.20485],[-118.16273,34.20459],[-118.16271,34.20362],[-118.16153,34.20198],[-118.16152,34.20167],[-118.16067,34.20174],[-118.16086,34.20132],[-118.15956,34.20001],[-118.16017,34.19866],[-118.16346,34.19972],[-118.16259,34.20165],[-118.16398,34.2015],[-118.16491,34.20017],[-118.16581,34.19805],[-118.16681,34.19622],[-118.1675,34.1953],[-118.16843,34.19339],[-118.16854,34.1921],[-118.1673,34.19169],[-118.16736,34.1915],[-118.16652,34.19124],[-118.16688,34.19026],[-118.16752,34.19054],[-118.1675,34.18881],[-118.16859,34.18881],[-118.1686,34.19068],[-118.16923,34.19247],[-118.17053,34.19114],[-118.17062,34.19013],[-118.17153,34.18958],[-118.17173,34.18929],[-118.16873,34.18919],[-118.16875,34.18545],[-118.16973,34.18548],[-118.17036,34.18604],[-118.17084,34.18476],[-118.17062,34.18469],[-118.17054,34.18433],[-118.1701,34.18409],[-118.17021,34.18395],[-118.17046,34.18409],[-118.17037,34.18356],[-118.16961,34.18144],[-118.16729,34.18144],[-118.16743,34.18308],[-118.16414,34.18309],[-118.16413,34.18144],[-118.15968,34.18145],[-118.15968,34.18182],[-118.15548,34.18192],[-118.15524,34.18192],[-118.15523,34.18149],[-118.14221,34.18157],[-118.13212,34.17704],[-118.1319,34.17707],[-118.13192,34.17651],[-118.12864,34.17652],[-118.12864,34.17523],[-118.12317,34.17511],[-118.12243,34.17527],[-118.12243,34.17551],[-118.1216,34.17552],[-118.1216,34.17528],[-118.11851,34.1753],[-118.11852,34.17547],[-118.11835,34.17547],[-118.11836,34.17594],[-118.11737,34.17587],[-118.11737,34.17531],[-118.11663,34.17531],[-118.11662,34.17376],[-118.11701,34.17376],[-118.11697,34.16961],[-118.11304,34.16964],[-118.11303,34.17034],[-118.11142,34.17039],[-118.11122,34.17025],[-118.11124,34.16915],[-118.11155,34.16915],[-118.11156,34.1686],[-118.10937,34.1686],[-118.10939,34.16759],[-118.09835,34.16757],[-118.09834,34.16862],[-118.09781,34.16862],[-118.09782,34.16914],[-118.09507,34.16918],[-118.09524,34.16969],[-118.09502,34.16977],[-118.09512,34.16996],[-118.0956,34.17045],[-118.09603,34.17044],[-118.09662,34.172],[-118.09566,34.17336],[-118.09553,34.17452],[-118.0953,34.17462],[-118.09522,34.17515],[-118.09501,34.1751],[-118.09501,34.17564],[-118.09827,34.17569],[-118.1003,34.18038],[-118.10041,34.18333],[-118.10068,34.18368],[-118.10158,34.18417],[-118.10245,34.18493],[-118.10215,34.18519],[-118.10243,34.18575],[-118.10253,34.18568],[-118.10282,34.18591],[-118.10322,34.18648],[-118.10306,34.18666],[-118.1036,34.18659],[-118.10382,34.18698],[-118.10373,34.18768],[-118.10386,34.18793],[-118.10487,34.18921],[-118.10493,34.19033],[-118.1046,34.19071],[-118.10493,34.19088],[-118.10492,34.1911],[-118.10559,34.19192],[-118.10693,34.1933],[-118.10488,34.19338],[-118.10482,34.19685],[-118.10049,34.19685],[-118.10046,34.19325],[-118.09942,34.19324],[-118.09942,34.1901],[-118.0979,34.19034],[-118.09687,34.1902],[-118.09686,34.19001],[-118.09712,34.18983],[-118.09615,34.18983],[-118.09645,34.19341],[-118.0893,34.19337],[-118.08914,34.19373],[-118.08805,34.19435],[-118.08754,34.19514],[-118.08728,34.19411],[-118.08769,34.19365],[-118.08726,34.19338],[-118.08638,34.19338],[-118.08598,34.19442],[-118.08609,34.19475],[-118.08572,34.19451],[-118.08519,34.19335],[-118.08251,34.19341],[-118.08241,34.1824],[-118.08128,34.1824],[-118.08145,34.18168],[-118.08191,34.18173],[-118.08369,34.18091],[-118.08342,34.18028],[-118.08339,34.17917],[-118.07897,34.17892],[-118.06567,34.17934],[-118.06563,34.17239],[-118.06687,34.17238],[-118.06821,34.17295],[-118.06784,34.15029],[-118.07344,34.15022],[-118.0734,34.14777],[-118.07373,34.14787],[-118.07796,34.14739],[-118.07795,34.14673],[-118.07812,34.14626],[-118.07939,34.14625],[-118.07937,34.14466],[-118.07995,34.14466],[-118.07996,34.14525],[-118.08045,34.14524],[-118.08051,34.14573],[-118.08238,34.14573],[-118.08238,34.14624],[-118.08461,34.14622],[-118.08461,34.14575],[-118.08612,34.14569],[-118.08612,34.1452],[-118.08698,34.1452],[-118.08698,34.14471],[-118.0862,34.14471],[-118.08608,34.14456],[-118.08329,34.14457],[-118.08351,34.14222],[-118.07897,34.14225],[-118.07893,34.13961],[-118.08153,34.1396],[-118.08154,34.14048],[-118.08375,34.14047],[-118.0839,34.1392],[-118.08385,34.1338],[-118.08397,34.13317],[-118.08412,34.13306],[-118.08602,34.13304],[-118.086,34.13144],[-118.08731,34.1313],[-118.08734,34.1337],[-118.08951,34.13368],[-118.08952,34.13528],[-118.09431,34.13525],[-118.09454,34.13694],[-118.09521,34.13693],[-118.09527,34.14021],[-118.09551,34.14021],[-118.09549,34.14164],[-118.09872,34.14165],[-118.09872,34.14141],[-118.0998,34.1414],[-118.0998,34.14068],[-118.10052,34.14067],[-118.10053,34.14143],[-118.10296,34.14128],[-118.1029,34.14158],[-118.10316,34.14165],[-118.10331,34.14213],[-118.10618,34.14205],[-118.10616,34.14082],[-118.10831,34.14081],[-118.10832,34.14156],[-118.11004,34.14155],[-118.11004,34.14119],[-118.11029,34.14117],[-118.11029,34.14037],[-118.11004,34.14036],[-118.11003,34.13993],[-118.11026,34.13841],[-118.1105,34.13841],[-118.11049,34.13795],[-118.11024,34.13772],[-118.11023,34.13744],[-118.11003,34.13744],[-118.11004,34.13686],[-118.11403,34.13686],[-118.11403,34.1364],[-118.1143,34.13588],[-118.11383,34.13588],[-118.11384,34.13295],[-118.11913,34.13261],[-118.13126,34.12979],[-118.13101,34.1294],[-118.13114,34.1286],[-118.13084,34.12815],[-118.13078,34.12746],[-118.13117,34.12647],[-118.13079,34.12616],[-118.13008,34.12405],[-118.12907,34.12303],[-118.12922,34.12214],[-118.12945,34.12206],[-118.12952,34.12168],[-118.12841,34.12059],[-118.12809,34.11942],[-118.12834,34.11934],[-118.12798,34.11795],[-118.13077,34.11734],[-118.13245,34.11722],[-118.13254,34.11734],[-118.13372,34.11738],[-118.13521,34.1177],[-118.13948,34.11918],[-118.14223,34.11959],[-118.14263,34.1204],[-118.14378,34.12101],[-118.14385,34.12156],[-118.14434,34.12207],[-118.14436,34.12262],[-118.14483,34.12308],[-118.1457,34.12378],[-118.14569,34.1235],[-118.14607,34.12364],[-118.14783,34.12506],[-118.14896,34.12567],[-118.14968,34.1246],[-118.15028,34.12404],[-118.164,34.12403],[-118.1641,34.12346],[-118.16557,34.12345],[-118.16551,34.12394],[-118.16847,34.12392],[-118.1678,34.12477],[-118.16723,34.12466],[-118.16639,34.12502],[-118.16567,34.12558],[-118.16588,34.12624],[-118.16723,34.12589],[-118.17034,34.12695],[-118.17143,34.12631],[-118.17239,34.12604],[-118.17282,34.12478],[-118.17697,34.12315],[-118.17655,34.12663],[-118.1778,34.12683],[-118.17769,34.12665],[-118.1786,34.12672],[-118.18021,34.12643],[-118.18091,34.12834],[-118.18145,34.1282],[-118.18135,34.1295],[-118.18259,34.12919],[-118.18285,34.12975],[-118.18283,34.13122],[-118.18611,34.13374],[-118.18554,34.13473],[-118.18522,34.13607],[-118.1859,34.13619],[-118.1859,34.13648],[-118.1857,34.13667],[-118.18581,34.13737],[-118.18554,34.13734],[-118.18554,34.13857],[-118.18541,34.13885],[-118.18568,34.13886],[-118.1857,34.13904],[-118.18491,34.13956],[-118.18435,34.13941],[-118.18314,34.14026],[-118.18197,34.14064],[-118.18021,34.14082],[-118.18009,34.1411],[-118.18077,34.1413],[-118.18118,34.1422],[-118.18222,34.14307],[-118.18231,34.14374],[-118.18457,34.14541],[-118.18423,34.14628],[-118.18389,34.14909],[-118.18185,34.14907],[-118.1816,34.14991],[-118.18221,34.15227],[-118.18248,34.15234],[-118.18248,34.15259],[-118.18231,34.15265],[-118.184,34.15907],[-118.18537,34.15905],[-118.18592,34.15837],[-118.18543,34.15932],[-118.1856,34.15993],[-118.1853,34.16044],[-118.18553,34.16086],[-118.18602,34.16105],[-118.18575,34.16149],[-118.186,34.16254],[-118.18583,34.16308],[-118.18725,34.16491],[-118.18869,34.16517],[-118.18792,34.16673],[-118.18908,34.16908],[-118.18978,34.1691],[-118.19049,34.17032],[-118.19098,34.17321],[-118.18883,34.17792],[-118.18733,34.17948],[-118.18444,34.1797],[-118.18402,34.17978],[-118.18338,34.18024],[-118.18163,34.17971],[-118.18015,34.18076],[-118.1762,34.18185],[-118.17629,34.18216],[-118.17501,34.18274],[-118.17424,34.18276],[-118.17446,34.18344],[-118.17531,34.18416],[-118.17559,34.18471],[-118.17558,34.18505],[-118.176,34.18551],[-118.17678,34.18573],[-118.17764,34.18544],[-118.17816,34.18573],[-118.17778,34.18541],[-118.17799,34.18541],[-118.17973,34.18593],[-118.18073,34.18643],[-118.18032,34.18741],[-118.18,34.18751],[-118.1792,34.18703],[-118.17917,34.18748],[-118.17906,34.18727],[-118.17879,34.18722],[-118.1789,34.18807],[-118.17835,34.18946],[-118.1782,34.19328],[-118.17752,34.19478],[-118.17603,34.19662],[-118.17547,34.19768],[-118.17362,34.19771],[-118.17362,34.19691],[-118.17222,34.19691],[-118.17091,34.19898],[-118.16804,34.20112],[-118.16743,34.20228],[-118.16766,34.20442],[-118.17025,34.20449],[-118.17026,34.20535],[-118.1712,34.20528],[-118.17236,34.20573],[-118.17241,34.20611],[-118.17368,34.20616],[-118.17375,34.20652],[-118.17345,34.20693],[-118.17391,34.2067],[-118.17402,34.20678],[-118.17426,34.20607],[-118.17496,34.20569],[-118.17533,34.20564],[-118.17566,34.20579],[-118.17577,34.20609],[-118.17556,34.20684],[-118.17594,34.20772],[-118.17597,34.20821],[-118.17656,34.20923],[-118.17664,34.21084],[-118.17552,34.21101],[-118.17522,34.21091],[-118.17462,34.21151],[-118.17562,34.21231],[-118.17602,34.21221],[-118.17612,34.21171],[-118.17652,34.21231],[-118.17714,34.21252],[-118.17835,34.21381],[-118.17814,34.21382],[-118.1785,34.21435],[-118.17982,34.21479],[-118.17985,34.21533],[-118.18012,34.21544],[-118.18173,34.21534],[-118.1825,34.2157],[-118.18412,34.21605],[-118.1836,34.21641],[-118.18349,34.21808],[-118.18291,34.21845],[-118.18187,34.21849],[-118.18112,34.21818],[-118.18124,34.21936],[-118.18187,34.22018],[-118.18483,34.22101],[-118.18482,34.22261],[-118.18815,34.22261],[-118.18806,34.22289],[-118.18819,34.22323],[-118.18986,34.22364],[-118.19021,34.22457],[-118.19098,34.2254],[-118.19103,34.2258],[-118.19144,34.22655],[-118.19088,34.22756],[-118.19046,34.22795],[-118.19069,34.22897],[-118.19003,34.23112],[-118.19329,34.23277],[-118.19391,34.23294],[-118.1943,34.23327],[-118.19597,34.23332],[-118.19684,34.2349],[-118.19753,34.23522],[-118.19824,34.23604],[-118.19822,34.23679],[-118.19794,34.23677],[-118.19774,34.23756],[-118.19697,34.23738],[-118.19551,34.2374],[-118.19527,34.25152],[-118.18691,34.25155],[-118.18649,34.23771],[-118.18649,34.23752],[-118.18678,34.23752],[-118.18649,34.23747]],[[-118.18487,34.16007],[-118.18479,34.15977],[-118.18426,34.15973],[-118.18437,34.16011],[-118.18487,34.16007]]],[[[-118.08984,34.19583],[-118.09061,34.19596],[-118.09183,34.19542],[-118.09298,34.19518],[-118.09303,34.1955],[-118.09288,34.19547],[-118.09227,34.19614],[-118.09202,34.19658],[-118.09197,34.19711],[-118.09154,34.19746],[-118.09018,34.1979],[-118.08906,34.1973],[-118.08752,34.19732],[-118.08799,34.19682],[-118.08984,34.19583]]]]}},{"type":"Feature","properties":{"city":"LA","name":"DTLA"},"geometry":{"type":"Polygon","coordinates":[[[-118.2439,34.06063],[-118.24359,34.06085],[-118.2435,34.06037],[-118.23955,34.05827],[-118.23739,34.05818],[-118.23111,34.05639],[-118.22728,34.05502],[-118.22896,34.05305],[-118.22915,34.05307],[-118.22897,34.05302],[-118.23035,34.04758],[-118.22411,34.01998],[-118.22376,34.01749],[-118.22337,34.01738],[-118.22272,34.01495],[-118.22324,34.01495],[-118.22341,34.01537],[-118.22372,34.01537],[-118.2237,34.01495],[-118.22571,34.01494],[-118.22572,34.01532],[-118.22751,34.01529],[-118.22771,34.01483],[-118.23972,34.01472],[-118.23955,34.01998],[-118.24324,34.02069],[-118.2451,34.02154],[-118.2452,34.02143],[-118.25046,34.02455],[-118.25911,34.02857],[-118.25926,34.02848],[-118.26352,34.03061],[-118.26361,34.0305],[-118.26575,34.03147],[-118.26567,34.03159],[-118.2675,34.03242],[-118.26759,34.0323],[-118.26835,34.03264],[-118.26827,34.03276],[-118.2743,34.0354],[-118.27392,34.03806],[-118.27413,34.03807],[-118.27368,34.041],[-118.27314,34.0425],[-118.272,34.04423],[-118.27005,34.04592],[-118.26102,34.05121],[-118.26149,34.05149],[-118.26023,34.0523],[-118.25967,34.05288],[-118.26003,34.05318],[-118.25984,34.05309],[-118.25527,34.05794],[-118.25421,34.05916],[-118.25206,34.06251],[-118.24922,34.06521],[-118.24464,34.06125],[-118.2439,34.06063]]]}},{"type":"Feature","properties":{"city":"DC","name":"Georgetown"},"geometry":{"type":"Polygon","coordinates":[[[-77.07899,38.90654],[-77.07789,38.90664],[-77.07792,38.90811],[-77.07757,38.9086],[-77.07779,38.90989],[-77.07826,38.91079],[-77.07842,38.91076],[-77.07917,38.91194],[-77.07922,38.9127],[-77.07392,38.91259],[-77.06925,38.91268],[-77.06945,38.91759],[-77.06937,38.91771],[-77.06875,38.91696],[-77.06741,38.91763],[-77.06742,38.91783],[-77.06816,38.91872],[-77.05906,38.9183],[-77.05824,38.91771],[-77.05865,38.91709],[-77.05888,38.91633],[-77.05895,38.91574],[-77.05883,38.91551],[-77.05567,38.91344],[-77.05521,38.91294],[-77.05252,38.91195],[-77.05159,38.91119],[-77.05005,38.9096],[-77.05022,38.90923],[-77.05089,38.90886],[-77.05303,38.90876],[-77.05351,38.90848],[-77.05423,38.90761],[-77.05564,38.90495],[-77.05638,38.90401],[-77.05679,38.90371],[-77.05835,38.90168],[-77.05845,38.90113],[-77.05739,38.90028],[-77.05731,38.89984],[-77.05847,38.89865],[-77.0594,38.89969],[-77.06009,38.90012],[-77.06061,38.90036],[-77.06203,38.90067],[-77.06684,38.90141],[-77.06872,38.90035],[-77.07071,38.90105],[-77.0728,38.90096],[-77.07471,38.9013],[-77.0769,38.90202],[-77.07769,38.90205],[-77.07831,38.90224],[-77.07955,38.90224],[-77.07899,38.90654]]]}},{"type":"Feature","properties":{"city":"DC","name":"Dupont Circle"},"geometry":{"type":"Polygon","coordinates":[[[-77.05081,38.91108],[-77.05068,38.91188],[-77.05041,38.91195],[-77.0503,38.91216],[-77.04877,38.91163],[-77.04758,38.91269],[-77.04672,38.914],[-77.04085,38.91713],[-77.04015,38.91802],[-77.03636,38.91911],[-77.03486,38.91914],[-77.03464,38.9182],[-77.0347,38.90671],[-77.03563,38.90702],[-77.03627,38.90753],[-77.03681,38.90752],[-77.03742,38.90703],[-77.03982,38.90618],[-77.04009,38.9067],[-77.04062,38.9066],[-77.04062,38.90729],[-77.04162,38.90734],[-77.04162,38.90909],[-77.04345,38.90964],[-77.04576,38.9073],[-77.05,38.90729],[-77.05008,38.90896],[-77.05063,38.90896],[-77.05012,38.90937],[-77.05009,38.90972],[-77.0512,38.91079],[-77.05081,38.91108]]]}},{"type":"Feature","properties":{"city":"DC","name":"Foggy Bottom"},"geometry":{"type":"Polygon","coordinates":[[[-77.05731,38.89984],[-77.05739,38.90028],[-77.05847,38.90121],[-77.05835,38.90168],[-77.05772,38.90255],[-77.05753,38.90237],[-77.0538,38.90246],[-77.05093,38.90236],[-77.05053,38.902],[-77.05027,38.90192],[-77.04928,38.90211],[-77.04356,38.90012],[-77.04355,38.89964],[-77.04497,38.89964],[-77.04497,38.89827],[-77.04354,38.89826],[-77.04357,38.89611],[-77.04871,38.89606],[-77.05255,38.89622],[-77.05285,38.89648],[-77.05283,38.89681],[-77.05363,38.8974],[-77.05634,38.89744],[-77.05627,38.89841],[-77.05847,38.89865],[-77.05746,38.89958],[-77.05731,38.89984]]]}},{"type":"Feature","properties":{"city":"DC","name":"Logan Circle"},"geometry":{"type":"Polygon","coordinates":[[[-77.03128,38.9057],[-77.03155,38.90593],[-77.0323,38.906],[-77.03444,38.90672],[-77.03442,38.91404],[-77.0271,38.91405],[-77.0271,38.9057],[-77.02719,38.9057],[-77.03128,38.9057]]]}},{"type":"Feature","properties":{"city":"DC","name":"Shaw"},"geometry":{"type":"Polygon","coordinates":[[[-77.02676,38.92071],[-77.02613,38.92049],[-77.02215,38.9209],[-77.02202,38.91992],[-77.02206,38.91622],[-77.01823,38.91457],[-77.01504,38.90571],[-77.0271,38.9057],[-77.02704,38.92068],[-77.02676,38.92071]]]}},{"type":"Feature","properties":{"city":"DC","name":"NoMa"},"geometry":{"type":"Polygon","coordinates":[[[-77.00351,38.89521],[-77.00541,38.89599],[-77.00688,38.89609],[-77.00733,38.89637],[-77.00793,38.89704],[-77.00907,38.89746],[-77.00915,38.9074],[-77.00614,38.90848],[-77.00613,38.9095],[-77.00295,38.90805],[-77.00306,38.90565],[-77.00351,38.9038],[-77.00351,38.89564],[-77.00351,38.89521]]]}},{"type":"Feature","properties":{"city":"DC","name":"Capitol Hill"},"geometry":{"type":"Polygon","coordinates":[[[-76.98375,38.87749],[-76.98479,38.87734],[-76.9873,38.87737],[-76.99068,38.87788],[-76.99229,38.87857],[-76.99633,38.87923],[-77.00292,38.88104],[-77.00496,38.88116],[-77.00895,38.88234],[-77.00899,38.88502],[-77.00714,38.88501],[-77.00744,38.886],[-77.00346,38.88599],[-77.00345,38.88761],[-77.00199,38.88756],[-77.00199,38.88917],[-77.00348,38.88917],[-77.00345,38.88974],[-76.99489,38.88974],[-76.99486,38.89197],[-76.98373,38.89197],[-76.98375,38.87749]]]}},{"type":"Feature","properties":{"city":"DC","name":"Navy Yard"},"geometry":{"type":"Polygon","coordinates":[[[-77.00872,38.8764],[-77.0089,38.87663],[-77.00894,38.87829],[-77.00881,38.87939],[-77.00882,38.8819],[-77.003,38.88049],[-76.99141,38.87729],[-76.98876,38.87682],[-76.98358,38.87634],[-76.98743,38.87428],[-76.99005,38.87266],[-76.99274,38.87119],[-76.9989,38.8727],[-77.00204,38.87263],[-77.00422,38.8722],[-77.0056,38.87144],[-77.00685,38.87033],[-77.00741,38.86967],[-77.00839,38.87031],[-77.00868,38.87069],[-77.00891,38.87137],[-77.00889,38.87638],[-77.00872,38.8764]]]}},{"type":"Feature","properties":{"city":"CHI","name":"The Loop"},"geometry":{"type":"Polygon","coordinates":[[[-87.62742,41.86741],[-87.62761,41.87455],[-87.62797,41.87456],[-87.63068,41.87452],[-87.63044,41.86737],[-87.63473,41.86731],[-87.63518,41.87061],[-87.63607,41.87467],[-87.63629,41.8752],[-87.63733,41.87647],[-87.63766,41.87731],[-87.63777,41.87811],[-87.63811,41.87918],[-87.63828,41.88037],[-87.63822,41.88226],[-87.63759,41.88623],[-87.63709,41.88668],[-87.63562,41.88745],[-87.62762,41.88751],[-87.62599,41.88851],[-87.62509,41.88891],[-87.62271,41.88884],[-87.61801,41.88831],[-87.61143,41.88851],[-87.60248,41.88837],[-87.60252,41.88827],[-87.60781,41.88818],[-87.60985,41.88797],[-87.60999,41.88408],[-87.61274,41.88406],[-87.61288,41.88339],[-87.61351,41.88286],[-87.61434,41.88257],[-87.61579,41.88244],[-87.61636,41.88208],[-87.6165,41.88141],[-87.61575,41.88142],[-87.61572,41.88057],[-87.61648,41.88056],[-87.61618,41.87567],[-87.6162,41.87197],[-87.61628,41.87197],[-87.61621,41.8689],[-87.61571,41.86865],[-87.61535,41.8683],[-87.61854,41.86799],[-87.61896,41.8675],[-87.62742,41.86741]]]}},{"type":"Feature","properties":{"city":"CHI","name":"West Loop"},"geometry":{"type":"Polygon","coordinates":[[[-87.64479,41.86752],[-87.64566,41.87371],[-87.64558,41.87551],[-87.646,41.88179],[-87.64853,41.88176],[-87.64833,41.87537],[-87.65136,41.8753],[-87.65867,41.8756],[-87.66664,41.87549],[-87.66707,41.88885],[-87.64758,41.88905],[-87.64757,41.88857],[-87.64432,41.88858],[-87.64433,41.88903],[-87.63936,41.88908],[-87.63877,41.88716],[-87.63839,41.88673],[-87.63759,41.88623],[-87.63814,41.88319],[-87.63828,41.88037],[-87.6381,41.87907],[-87.63743,41.87669],[-87.63707,41.87603],[-87.63629,41.8752],[-87.63607,41.87467],[-87.63518,41.87061],[-87.63469,41.86675],[-87.63451,41.85938],[-87.63509,41.8582],[-87.63516,41.85772],[-87.63894,41.85767],[-87.63901,41.86002],[-87.64447,41.85995],[-87.64479,41.86752]]]}},{"type":"Feature","properties":{"city":"CHI","name":"River North"},"geometry":{"type":"Polygon","coordinates":[[[-87.63122,41.89563],[-87.62548,41.89572],[-87.6252,41.88887],[-87.62762,41.88751],[-87.63562,41.88745],[-87.63709,41.88668],[-87.63759,41.88623],[-87.63839,41.88673],[-87.63877,41.88716],[-87.63944,41.88923],[-87.64067,41.89064],[-87.64151,41.89197],[-87.64245,41.89287],[-87.64355,41.89354],[-87.64407,41.89414],[-87.64423,41.89664],[-87.64443,41.89724],[-87.64489,41.89769],[-87.64879,41.89809],[-87.6494,41.89831],[-87.65086,41.89941],[-87.6519,41.90001],[-87.65451,41.90053],[-87.65538,41.90081],[-87.65589,41.90117],[-87.65647,41.90262],[-87.6575,41.9036],[-87.65816,41.90453],[-87.65829,41.90504],[-87.65775,41.90837],[-87.65749,41.90909],[-87.65923,41.90907],[-87.65895,41.90985],[-87.65694,41.91052],[-87.65686,41.91078],[-87.6495,41.9109],[-87.63964,41.90377],[-87.63145,41.9039],[-87.63122,41.89563]]]}},{"type":"Feature","properties":{"city":"CHI","name":"Lincoln Park"},"geometry":{"type":"Polygon","coordinates":[[[-87.63107,41.93259],[-87.63124,41.93239],[-87.63085,41.93217],[-87.63069,41.93187],[-87.63101,41.93008],[-87.63083,41.92901],[-87.6304,41.92808],[-87.63061,41.928],[-87.62979,41.92708],[-87.62961,41.92668],[-87.6297,41.9261],[-87.62988,41.92616],[-87.63027,41.92575],[-87.62998,41.92368],[-87.6299,41.92348],[-87.629,41.92275],[-87.62834,41.92307],[-87.62948,41.9224],[-87.62854,41.92103],[-87.6277,41.92137],[-87.62893,41.92082],[-87.62892,41.92073],[-87.62856,41.92012],[-87.62796,41.9195],[-87.62733,41.91975],[-87.62837,41.91924],[-87.62847,41.91934],[-87.62815,41.9188],[-87.62736,41.918],[-87.6268,41.91825],[-87.62791,41.91761],[-87.62671,41.91643],[-87.62609,41.91684],[-87.62681,41.91628],[-87.62629,41.91576],[-87.6258,41.91553],[-87.62487,41.91472],[-87.62319,41.91378],[-87.62173,41.91353],[-87.62062,41.91379],[-87.62049,41.91361],[-87.62057,41.91334],[-87.62063,41.91326],[-87.62126,41.913],[-87.62293,41.91267],[-87.62446,41.91157],[-87.6264,41.91137],[-87.62657,41.91167],[-87.62686,41.91134],[-87.62712,41.91125],[-87.63168,41.91118],[-87.63612,41.91847],[-87.63672,41.91835],[-87.64851,41.91818],[-87.64827,41.91092],[-87.65686,41.91078],[-87.65786,41.91381],[-87.65865,41.91471],[-87.65923,41.91515],[-87.66113,41.91618],[-87.66303,41.91549],[-87.66377,41.91568],[-87.66453,41.9177],[-87.66572,41.91893],[-87.66646,41.92003],[-87.66734,41.92088],[-87.6681,41.92203],[-87.66928,41.92239],[-87.67111,41.92241],[-87.67216,41.92281],[-87.67426,41.92439],[-87.67446,41.92484],[-87.67455,41.92614],[-87.67494,41.92666],[-87.67652,41.92759],[-87.67779,41.92802],[-87.67971,41.92846],[-87.6808,41.93064],[-87.68215,41.9314],[-87.68284,41.93215],[-87.63809,41.93293],[-87.63472,41.9328],[-87.634,41.93301],[-87.63393,41.93291],[-87.63282,41.93293],[-87.63251,41.9326],[-87.63182,41.93258],[-87.63182,41.93244],[-87.63129,41.93241],[-87.63107,41.93259]]]}},{"type":"Feature","properties":{"city":"CHI","name":"Lakeview"},"geometry":{"type":"Polygon","coordinates":[[[-87.64102,41.9548],[-87.6392,41.95062],[-87.63755,41.94743],[-87.63625,41.94576],[-87.63506,41.94448],[-87.63305,41.94262],[-87.63303,41.94233],[-87.63337,41.94215],[-87.63371,41.94222],[-87.63406,41.94291],[-87.63449,41.94319],[-87.63484,41.94318],[-87.63542,41.94291],[-87.63592,41.94298],[-87.63618,41.94324],[-87.63696,41.9449],[-87.63682,41.94505],[-87.63736,41.94579],[-87.63889,41.94631],[-87.64002,41.9464],[-87.64026,41.94652],[-87.6401,41.94672],[-87.6403,41.94672],[-87.64111,41.9476],[-87.64187,41.948],[-87.64206,41.948],[-87.64213,41.94786],[-87.64163,41.94728],[-87.64005,41.94595],[-87.6402,41.94552],[-87.64012,41.94538],[-87.64045,41.94519],[-87.64046,41.94483],[-87.63959,41.9436],[-87.63911,41.94337],[-87.63872,41.94294],[-87.63851,41.94251],[-87.63835,41.94129],[-87.63712,41.93983],[-87.63695,41.94026],[-87.63673,41.94023],[-87.63682,41.93976],[-87.63584,41.93978],[-87.6358,41.93961],[-87.63547,41.93973],[-87.63499,41.94015],[-87.63478,41.94069],[-87.63517,41.94071],[-87.63515,41.94086],[-87.63511,41.94075],[-87.63477,41.94073],[-87.6347,41.94141],[-87.63445,41.94159],[-87.63445,41.94186],[-87.634,41.94162],[-87.63385,41.94134],[-87.63386,41.94038],[-87.63355,41.93936],[-87.63299,41.93808],[-87.63229,41.93724],[-87.63243,41.93718],[-87.6321,41.93584],[-87.63145,41.93481],[-87.63044,41.93367],[-87.63047,41.93333],[-87.63071,41.93306],[-87.63066,41.93253],[-87.63076,41.93257],[-87.63077,41.93303],[-87.63138,41.93297],[-87.6314,41.93269],[-87.6316,41.93258],[-87.63244,41.93259],[-87.63282,41.93293],[-87.63393,41.93291],[-87.634,41.93301],[-87.63472,41.9328],[-87.63809,41.93293],[-87.67336,41.93234],[-87.67347,41.93599],[-87.67335,41.93599],[-87.67335,41.93611],[-87.67372,41.94693],[-87.67361,41.94716],[-87.67398,41.96153],[-87.66595,41.96163],[-87.66447,41.95796],[-87.66225,41.95438],[-87.65334,41.95451],[-87.64102,41.9548]]]}},{"type":"Feature","properties":{"city":"CHI","name":"Wicker Park / Bucktown"},"geometry":{"type":"Polygon","coordinates":[[[-87.69087,41.91396],[-87.68732,41.91399],[-87.68799,41.9361],[-87.68703,41.93527],[-87.68683,41.93491],[-87.68597,41.93403],[-87.68549,41.9338],[-87.68343,41.9334],[-87.68284,41.93215],[-87.68215,41.9314],[-87.6808,41.93064],[-87.67971,41.92846],[-87.67779,41.92802],[-87.67652,41.92759],[-87.67494,41.92666],[-87.67455,41.92614],[-87.67446,41.92484],[-87.67426,41.92439],[-87.67216,41.92281],[-87.67111,41.92241],[-87.66928,41.92239],[-87.6681,41.92203],[-87.66734,41.92088],[-87.66646,41.92003],[-87.66543,41.91859],[-87.6646,41.9178],[-87.6639,41.91589],[-87.66362,41.91562],[-87.66612,41.91451],[-87.66681,41.91434],[-87.6678,41.9143],[-87.6675,41.90335],[-87.69195,41.90297],[-87.6922,41.91395],[-87.69105,41.91396],[-87.69097,41.91383],[-87.69087,41.91396]]]}},{"type":"Feature","properties":{"city":"CHI","name":"Hyde Park"},"geometry":{"type":"Polygon","coordinates":[[[-87.58664,41.79338],[-87.58671,41.79133],[-87.5866,41.78614],[-87.60604,41.78587],[-87.60641,41.80225],[-87.58382,41.80253],[-87.58165,41.80243],[-87.58105,41.80263],[-87.58038,41.80253],[-87.58047,41.80078],[-87.58028,41.79963],[-87.57979,41.79844],[-87.57994,41.79837],[-87.57933,41.79778],[-87.57821,41.79701],[-87.57741,41.79686],[-87.57645,41.79705],[-87.57588,41.79698],[-87.57527,41.79661],[-87.57516,41.79624],[-87.57544,41.79544],[-87.57617,41.79509],[-87.57739,41.79504],[-87.5783,41.79473],[-87.57901,41.7942],[-87.5793,41.79349],[-87.58664,41.79338]]]}},{"type":"Feature","properties":{"city":"CHI","name":"South Loop"},"geometry":{"type":"Polygon","coordinates":[[[-87.61361,41.85073],[-87.61141,41.84527],[-87.61601,41.84509],[-87.61622,41.84518],[-87.61655,41.84563],[-87.61784,41.84573],[-87.62917,41.84556],[-87.62935,41.85288],[-87.63006,41.85288],[-87.63023,41.85778],[-87.63516,41.85772],[-87.63509,41.8582],[-87.63451,41.85938],[-87.63473,41.86731],[-87.63044,41.86737],[-87.63068,41.87452],[-87.62761,41.87455],[-87.62742,41.86741],[-87.6204,41.86751],[-87.62035,41.86703],[-87.61895,41.86291],[-87.61657,41.85761],[-87.61361,41.85073]]]}},{"type":"Feature","properties":{"city":"CHI","name":"Streeterville"},"geometry":{"type":"MultiPolygon","coordinates":[[[[-87.61262,41.89341],[-87.61203,41.89333],[-87.61015,41.89623],[-87.60243,41.89637],[-87.60235,41.89326],[-87.60982,41.89315],[-87.6098,41.89222],[-87.60071,41.89244],[-87.60059,41.89242],[-87.60058,41.89224],[-87.59855,41.89227],[-87.59852,41.89145],[-87.60057,41.89142],[-87.60056,41.89111],[-87.60072,41.89107],[-87.60954,41.89101],[-87.60949,41.88939],[-87.60766,41.88937],[-87.60765,41.88867],[-87.60751,41.88864],[-87.60468,41.88864],[-87.6052,41.88847],[-87.61143,41.88851],[-87.61801,41.88831],[-87.62271,41.88884],[-87.62401,41.88883],[-87.62373,41.88985],[-87.62392,41.89653],[-87.62374,41.89775],[-87.62375,41.90083],[-87.61913,41.90097],[-87.61491,41.89467],[-87.61369,41.89313],[-87.61262,41.89341]]],[[[-87.62449,41.89001],[-87.62476,41.8889],[-87.6252,41.88887],[-87.6255,41.89671],[-87.62561,41.89671],[-87.62685,41.89917],[-87.62751,41.90076],[-87.6245,41.90081],[-87.62445,41.89789],[-87.62458,41.89698],[-87.62449,41.89001]]]]}},{"type":"Feature","properties":{"city":"CHI","name":"Old Town"},"geometry":{"type":"Polygon","coordinates":[[[-87.63169,41.91122],[-87.63145,41.9039],[-87.63964,41.90377],[-87.6495,41.9109],[-87.64827,41.91092],[-87.64851,41.91818],[-87.63672,41.91835],[-87.63612,41.91847],[-87.63169,41.91122]]]}},{"type":"Feature","properties":{"city":"CHI","name":"Logan Square"},"geometry":{"type":"Polygon","coordinates":[[[-87.69087,41.91396],[-87.69099,41.91386],[-87.69116,41.91396],[-87.69709,41.91391],[-87.6971,41.914],[-87.69765,41.914],[-87.70686,41.91377],[-87.70702,41.91366],[-87.71666,41.91355],[-87.71666,41.91364],[-87.71856,41.91367],[-87.72235,41.91364],[-87.72314,41.91538],[-87.72406,41.91537],[-87.72411,41.91687],[-87.72422,41.9172],[-87.72391,41.9172],[-87.72488,41.91902],[-87.72661,41.91899],[-87.7267,41.92188],[-87.72708,41.92265],[-87.72644,41.92265],[-87.72674,41.92331],[-87.72677,41.92448],[-87.7277,41.92447],[-87.73146,41.93173],[-87.68788,41.93218],[-87.68732,41.91399],[-87.69087,41.91396]]]}},{"type":"Feature","properties":{"city":"CHI","name":"Rogers Park / Edgewater"},"geometry":{"type":"Polygon","coordinates":[[[-87.67312,42.01939],[-87.67624,42.02193],[-87.67706,42.02304],[-87.66513,42.02295],[-87.66527,42.02262],[-87.66479,42.02222],[-87.66465,42.02161],[-87.66419,42.02125],[-87.66401,42.02133],[-87.66373,42.02036],[-87.66401,42.02018],[-87.66385,42.01966],[-87.66395,42.01964],[-87.66388,42.01952],[-87.66364,42.0195],[-87.66364,42.01937],[-87.66386,42.01935],[-87.66398,42.01908],[-87.66328,42.01843],[-87.66341,42.01815],[-87.66327,42.01776],[-87.66314,42.01772],[-87.66318,42.01721],[-87.663,42.01714],[-87.66309,42.01685],[-87.66281,42.01665],[-87.66272,42.01619],[-87.66255,42.01605],[-87.66247,42.01543],[-87.66209,42.01496],[-87.66157,42.01373],[-87.6615,42.01347],[-87.66162,42.01332],[-87.66093,42.01223],[-87.66107,42.01217],[-87.66101,42.01203],[-87.66015,42.01124],[-87.66028,42.01116],[-87.66012,42.01098],[-87.65922,42.01024],[-87.6589,42.00975],[-87.65646,42.00742],[-87.65537,42.00671],[-87.65506,42.0069],[-87.65584,42.00631],[-87.65739,42.00628],[-87.65742,42.00562],[-87.65731,42.00507],[-87.65697,42.00442],[-87.65681,42.00424],[-87.65671,42.0043],[-87.65671,42.00422],[-87.65729,42.00421],[-87.6569,42.0026],[-87.65645,42.00206],[-87.65604,42.00122],[-87.65601,42.00066],[-87.65562,41.99955],[-87.6545,41.99799],[-87.65426,41.99599],[-87.65445,41.99609],[-87.65466,41.99594],[-87.65448,41.99537],[-87.6546,41.99453],[-87.65439,41.99453],[-87.65426,41.99397],[-87.65443,41.99386],[-87.65453,41.99339],[-87.65409,41.99301],[-87.65432,41.991],[-87.65455,41.99099],[-87.65424,41.99087],[-87.6542,41.99046],[-87.65419,41.99022],[-87.65432,41.99013],[-87.65419,41.98992],[-87.65431,41.98841],[-87.65354,41.98757],[-87.65098,41.98572],[-87.64989,41.98542],[-87.64935,41.98639],[-87.65037,41.98434],[-87.65068,41.98319],[-87.65067,41.98066],[-87.65022,41.97972],[-87.65048,41.97946],[-87.64877,41.97815],[-87.6486,41.97784],[-87.64729,41.97775],[-87.64886,41.97704],[-87.64904,41.97681],[-87.6496,41.97682],[-87.65107,41.97648],[-87.66114,41.9763],[-87.66134,41.9836],[-87.67461,41.98336],[-87.67471,41.99076],[-87.67485,41.99076],[-87.67501,41.99799],[-87.67684,41.99796],[-87.68193,42.00905],[-87.68414,42.01532],[-87.68465,42.01948],[-87.68281,42.01947],[-87.67312,42.01939]]]}},{"type":"Feature","properties":{"city":"CHI","name":"Andersonville"},"geometry":{"type":"Polygon","coordinates":[[[-87.67441,41.9761],[-87.6744,41.97927],[-87.67461,41.98336],[-87.66134,41.9836],[-87.66114,41.9763],[-87.67441,41.9761]]]}},{"type":"Feature","properties":{"city":"CHI","name":"Bronzeville"},"geometry":{"type":"Polygon","coordinates":[[[-87.62936,41.82327],[-87.62936,41.82368],[-87.62897,41.82368],[-87.62909,41.82733],[-87.62892,41.82768],[-87.629,41.83097],[-87.62956,41.83097],[-87.62997,41.84554],[-87.61784,41.84573],[-87.61655,41.84563],[-87.61622,41.84518],[-87.61601,41.84509],[-87.60941,41.84527],[-87.60914,41.84469],[-87.60915,41.84424],[-87.60892,41.84396],[-87.60877,41.84336],[-87.60802,41.84231],[-87.60798,41.8414],[-87.60785,41.84103],[-87.60753,41.84056],[-87.60698,41.84067],[-87.60668,41.84056],[-87.60748,41.84051],[-87.6071,41.83951],[-87.60658,41.83921],[-87.60616,41.83864],[-87.60471,41.83896],[-87.60419,41.83983],[-87.6042,41.83955],[-87.60467,41.83888],[-87.60614,41.83855],[-87.60607,41.83729],[-87.60566,41.83612],[-87.60456,41.83499],[-87.60454,41.83481],[-87.60503,41.83442],[-87.60475,41.8336],[-87.60423,41.83314],[-87.60323,41.83291],[-87.6027,41.83233],[-87.60271,41.83137],[-87.61063,41.83119],[-87.61262,41.82389],[-87.60687,41.82396],[-87.60644,41.82331],[-87.60686,41.82317],[-87.60641,41.80225],[-87.6288,41.80189],[-87.62902,41.80724],[-87.629,41.81213],[-87.62936,41.82327]]]}},{"type":"Feature","properties":{"city":"CHI","name":"Woodlawn"},"geometry":{"type":"Polygon","coordinates":[[[-87.60577,41.77314],[-87.60559,41.76587],[-87.61545,41.77297],[-87.61576,41.7857],[-87.5866,41.78614],[-87.5863,41.77334],[-87.60577,41.77314]]]}},{"type":"Feature","properties":{"city":"PHL","name":"Rittenhouse Square"},"geometry":{"type":"Polygon","coordinates":[[[-75.16557,39.94367],[-75.17972,39.94545],[-75.17899,39.94875],[-75.18333,39.94934],[-75.18156,39.95149],[-75.18004,39.95445],[-75.16522,39.95258],[-75.1653,39.95229],[-75.16518,39.95189],[-75.16382,39.95161],[-75.16546,39.94408],[-75.16557,39.94367]]]}},{"type":"Feature","properties":{"city":"PHL","name":"University City"},"geometry":{"type":"Polygon","coordinates":[[[-75.18005,39.96012],[-75.17935,39.95822],[-75.17945,39.95632],[-75.17965,39.95602],[-75.18004,39.95445],[-75.18156,39.95149],[-75.18335,39.94932],[-75.18565,39.94802],[-75.18875,39.94592],[-75.19151,39.94317],[-75.19377,39.9422],[-75.19695,39.94272],[-75.20035,39.94372],[-75.20305,39.94342],[-75.20394,39.94291],[-75.20516,39.94374],[-75.20549,39.94412],[-75.20824,39.94576],[-75.20515,39.94852],[-75.20393,39.94894],[-75.20398,39.9499],[-75.20576,39.94984],[-75.2058,39.95099],[-75.20477,39.95595],[-75.20446,39.95591],[-75.20415,39.9574],[-75.20195,39.95715],[-75.2018,39.95786],[-75.20097,39.9578],[-75.20086,39.95925],[-75.19585,39.95969],[-75.19117,39.9573],[-75.19084,39.95877],[-75.18754,39.95886],[-75.18742,39.95943],[-75.18759,39.96048],[-75.18715,39.96052],[-75.18705,39.96122],[-75.18727,39.96261],[-75.18282,39.96337],[-75.18005,39.96012]]]}},{"type":"Feature","properties":{"city":"PHL","name":"Fitler Square"},"geometry":{"type":"Polygon","coordinates":[[[-75.17981,39.94512],[-75.18061,39.94463],[-75.18501,39.94518],[-75.1857,39.94528],[-75.1878,39.94657],[-75.18565,39.94802],[-75.18333,39.94934],[-75.17899,39.94875],[-75.17972,39.94545],[-75.17981,39.94512]]]}},{"type":"Feature","properties":{"city":"PHL","name":"Logan Square"},"geometry":{"type":"Polygon","coordinates":[[[-75.16162,39.9624],[-75.16137,39.96223],[-75.16165,39.96099],[-75.1619,39.9609],[-75.16347,39.95341],[-75.16502,39.95359],[-75.16522,39.95258],[-75.18004,39.95445],[-75.17965,39.95602],[-75.17945,39.95632],[-75.17935,39.95822],[-75.18005,39.96012],[-75.18356,39.96423],[-75.18234,39.96445],[-75.18038,39.96408],[-75.17895,39.96412],[-75.17777,39.96446],[-75.17726,39.96441],[-75.16162,39.9624]]]}},{"type":"Feature","properties":{"city":"PHL","name":"Old City"},"geometry":{"type":"Polygon","coordinates":[[[-75.14074,39.95411],[-75.14178,39.95142],[-75.14281,39.94666],[-75.15426,39.94809],[-75.1536,39.95114],[-75.15516,39.95133],[-75.15391,39.95703],[-75.15118,39.95696],[-75.15098,39.95729],[-75.15045,39.95741],[-75.14929,39.95756],[-75.14745,39.95744],[-75.14462,39.95692],[-75.14244,39.95631],[-75.14155,39.95573],[-75.14139,39.95548],[-75.14038,39.95553],[-75.14074,39.95411]]]}},{"type":"Feature","properties":{"city":"PHL","name":"Society Hill"},"geometry":{"type":"Polygon","coordinates":[[[-75.14406,39.94097],[-75.15549,39.94238],[-75.15426,39.94809],[-75.14281,39.94666],[-75.14406,39.94097]]]}},{"type":"Feature","properties":{"city":"PHL","name":"Washington Square West / Midtown Village"},"geometry":{"type":"Polygon","coordinates":[[[-75.1536,39.95114],[-75.15549,39.94238],[-75.16557,39.94367],[-75.16382,39.95161],[-75.16278,39.95153],[-75.16262,39.95212],[-75.1623,39.95222],[-75.1536,39.95114]]]}},{"type":"Feature","properties":{"city":"PHL","name":"Fishtown"},"geometry":{"type":"Polygon","coordinates":[[[-75.13048,39.9663],[-75.13442,39.96702],[-75.13673,39.96725],[-75.13433,39.975],[-75.13322,39.98014],[-75.13045,39.97859],[-75.12758,39.98139],[-75.12439,39.98268],[-75.12025,39.98476],[-75.11345,39.97705],[-75.11831,39.97454],[-75.11704,39.97347],[-75.11508,39.97103],[-75.11322,39.96819],[-75.11949,39.96537],[-75.12382,39.96275],[-75.1257,39.96182],[-75.12718,39.96086],[-75.13048,39.9663]]]}},{"type":"Feature","properties":{"city":"PHL","name":"Northern Liberties"},"geometry":{"type":"Polygon","coordinates":[[[-75.13059,39.95861],[-75.13139,39.95774],[-75.13717,39.96021],[-75.13894,39.96044],[-75.13965,39.95765],[-75.14038,39.95553],[-75.14139,39.95548],[-75.14155,39.95573],[-75.14244,39.95631],[-75.14462,39.95692],[-75.14745,39.95744],[-75.14891,39.95755],[-75.14655,39.97038],[-75.13958,39.96952],[-75.13623,39.96889],[-75.13673,39.96725],[-75.13442,39.96702],[-75.13048,39.9663],[-75.12718,39.96086],[-75.13059,39.95861]]]}},{"type":"Feature","properties":{"city":"PHL","name":"Fairmount"},"geometry":{"type":"Polygon","coordinates":[[[-75.17789,39.97244],[-75.1766,39.97228],[-75.171,39.97295],[-75.1703,39.97287],[-75.17134,39.96727],[-75.17986,39.96742],[-75.18214,39.96967],[-75.18283,39.97013],[-75.18546,39.97239],[-75.18554,39.97276],[-75.18541,39.97338],[-75.18655,39.97352],[-75.18727,39.97506],[-75.17786,39.97383],[-75.17789,39.97244]]]}},{"type":"Feature","properties":{"city":"PHL","name":"Manayunk"},"geometry":{"type":"Polygon","coordinates":[[[-75.2224,40.03306],[-75.21661,40.02757],[-75.21442,40.02469],[-75.21539,40.02389],[-75.21932,40.02158],[-75.22215,40.02262],[-75.22369,40.02371],[-75.23232,40.02811],[-75.23528,40.03036],[-75.23428,40.03086],[-75.23353,40.03165],[-75.23341,40.03158],[-75.23247,40.03244],[-75.23103,40.0331],[-75.2272,40.03526],[-75.22603,40.03646],[-75.22513,40.03527],[-75.22339,40.03374],[-75.2224,40.03306]]]}}]}